{"type":"Feature","properties":{"GID_3":"LUX.2.1.2_1","GID_0":"LUX","country":"Luxembourg","GID_1":"LUX.2_1","province":"Grevenmacher","NL_NAME_1":"NA","GID_2":"LUX.2.1_1","county":"Echternach","NL_NAME_2":"NA","city":"Bech","VARNAME_3":"NA","NL_NAME_3":"NA","TYPE_3":"Commune","ENGTYPE_3":"Commune","CC_3":"NA","HASC_3":"NA","name":"Bech.city"},
"geometry":{"type": "MultiPolygon","coordinates": [[[[6.2764,49.7466,391.6795],[6.2679,49.7418,299.4491],[6.2883,49.739,368.5663],[6.3093,49.7327,304.639],[6.3225,49.7232,299.4771],[6.3335,49.7288,268.394],[6.3497,49.7334,277.5283],[6.3616,49.7317,293.6041],[6.377,49.732,324.0602],[6.3823,49.7368,293.5081],[6.3802,49.7435,281.6999],[6.3823,49.7469,286.299],[6.3882,49.7498,302.386],[6.399,49.75,299.2082],[6.4048,49.7548,332.6698],[6.3977,49.7607,343.663],[6.3946,49.7676,345.8176],[6.3838,49.7671,367.0583],[6.3776,49.7699,393.118],[6.3553,49.7573,359.5896],[6.3434,49.7571,390.5825],[6.3333,49.7596,361.0582],[6.312,49.7576,390.6574],[6.2764,49.7466,391.6795]]]]}}