{"type":"Feature","properties":{"GID_3":"LUX.1.5.2_1","GID_0":"LUX","country":"Luxembourg","GID_1":"LUX.1_1","province":"Diekirch","NL_NAME_1":"NA","GID_2":"LUX.1.5_1","county":"Wiltz","NL_NAME_2":"NA","city":"Esch-sur-Sûre","VARNAME_3":"NA","NL_NAME_3":"NA","TYPE_3":"Commune","ENGTYPE_3":"Commune","CC_3":"NA","HASC_3":"NA","name":"Esch-sur-Sûre.city"},
"geometry":{"type": "MultiPolygon","coordinates": [[[[6.036,49.9224,327.1836],[6.0156,49.926,324.4756],[6.0068,49.9259,251.174],[6.0012,49.923,297.0172],[5.9966,49.9164,357.4579],[5.9815,49.9058,287.3069],[5.962,49.905,281.4113],[5.9512,49.9016,285.4687],[5.9475,49.9143,346.9835],[5.9363,49.9186,457.7317],[5.9246,49.9127,372.6305],[5.9143,49.9106,364.4789],[5.9019,49.9139,409.5211],[5.8775,49.8995,412.0577],[5.8699,49.9002,388.6105],[5.8589,49.907,334.6616],[5.8521,49.9072,328.3635],[5.8566,49.8946,396.1563],[5.8683,49.8866,490.5999],[5.8771,49.877,475.6487],[5.8817,49.868899999999996,470.4056],[5.8895,49.8692,417.3406],[5.8959,49.8725,455.0474],[5.898,49.8756,484.9014],[5.8992,49.884,450.0519],[5.9028,49.8876,396.428],[5.906,49.8839,419.2288],[5.9075,49.8768,436.8428],[5.9135,49.8705,490.4607],[5.9147,49.8613,514.6308],[5.9169,49.8582,495.1359],[5.9275,49.8606,494.8215],[5.9359,49.8706,480.5909],[5.9416,49.8726,489.3751],[5.9547,49.8651,466.509],[5.9687,49.8627,447.3147],[5.9835,49.8515,357.3898],[5.9918,49.8578,417.9271],[5.9886,49.862,414.5046],[5.9917,49.8682,455.762],[5.9905,49.8752,470.2281],[6.0019,49.878,444.1808],[6.012,49.8845,467.1873],[6.0153,49.8908,489.2372],[6.0141,49.8971,474.5028],[6.019,49.9092,451.6295],[6.0238,49.913,359.2166],[6.033,49.9167,302.5705],[6.036,49.9224,327.1836]]]]}}