{"type":"Feature","properties":{"GID_3":"LUX.3.3.4_1","GID_0":"LUX","country":"Luxembourg","GID_1":"LUX.3_1","province":"Luxembourg","NL_NAME_1":"NA","GID_2":"LUX.3.3_1","county":"Luxembourg","NL_NAME_2":"NA","city":"Luxembourg","VARNAME_3":"NA","NL_NAME_3":"NA","TYPE_3":"Commune","ENGTYPE_3":"Commune","CC_3":"NA","HASC_3":"NA","name":"Luxembourg.city"},
"geometry":{"type": "MultiPolygon","coordinates": [[[[6.0968,49.568,305.3524],[6.104,49.5688,331.1531],[6.1053,49.5675,314.6433],[6.1043,49.564,317.4636],[6.1115,49.5628,299.5356],[6.115,49.5659,303.8086],[6.1126,49.5697,310.6027],[6.1227,49.5719,287.9538],[6.1178,49.5765,293.0916],[6.1225,49.5818,298.4214],[6.1255,49.5826,295.5072],[6.1289,49.5806,294.8012],[6.1347,49.5847,289.594],[6.1351,49.5873,286.8535],[6.1473,49.5896,302.8094],[6.1533,49.593,313.836],[6.1534,49.5949,312.0583],[6.161,49.6005,307.1897],[6.1691,49.6045,291.8893],[6.1871,49.6064,334.5701],[6.1912,49.6032,328.687],[6.1941,49.603,319.6186],[6.2045,49.6081,341.8897],[6.2062,49.6108,350.2181],[6.201,49.6144,357.1405],[6.1934,49.6169,350.5292],[6.1938,49.6187,355.3193],[6.1912,49.6196,357.1611],[6.1935,49.6207,358.8149],[6.1935,49.6227,358.2936],[6.1836,49.6219,350.5531],[6.1877,49.6294,355.6993],[6.1906,49.6303,373.2945],[6.1868,49.6344,372.052],[6.1679,49.6377,372.9304],[6.1489,49.6352,351.1016],[6.155,49.6377,360.3135],[6.1687,49.6398,330.1464],[6.1697,49.6434,384.587],[6.1667,49.6414,326.7233],[6.1547,49.6418,323.6879],[6.1652,49.6479,372.9886],[6.1659,49.6537,408.9164],[6.1604,49.6501,397.0508],[6.1492,49.6492,386.1919],[6.1393,49.6509,321.2307],[6.1244,49.6492,237.7959],[6.1221,49.6511,243.5363],[6.1168,49.6514,279.5661],[6.1102,49.6486,375.438],[6.1035,49.6479,368.0012],[6.0822,49.6496,377.1225],[6.0801,49.6439,367.9998],[6.0719,49.6368,361.3906],[6.073,49.6319,354.6829],[6.089,49.631,321.6604],[6.0922,49.6279,335.132],[6.0914,49.626,301.5772],[6.0948,49.6272,317.1224],[6.1056,49.6263,278.6042],[6.1001,49.6226,327.4386],[6.0975,49.6187,327.3602],[6.0909,49.6154,313.4985],[6.0877,49.6114,310.05],[6.0777,49.6051,283.6327],[6.0747,49.6048,279.6872],[6.0746,49.6011,284.2326],[6.0764,49.5986,291.7662],[6.0675,49.5927,309.96],[6.0743,49.5925,320.3228],[6.0744,49.5905,312.8842],[6.0771,49.5881,291.8364],[6.0766,49.5809,286.5425],[6.0825,49.5793,305.7762],[6.0904,49.5809,314.6465],[6.0941,49.5746,309.5773],[6.1,49.5729,300.2696],[6.1007999999999996,49.5719,299.4654],[6.097,49.5696,304.0225],[6.0968,49.568,305.3524]]]]}}