{"type": "Feature","bbox": [5.961,50.0009,6.1137,50.0852],"geometry": {"type": "MultiPolygon","coordinates": [[[[6.1137,50.065,317.187],[6.1041,50.0673,364.983],[6.0945,50.0674,390.3434],[6.0831,50.0653,489.2337],[6.0604,50.0647,505.17],[6.0615,50.0764,525.4534],[6.0598,50.08,473.6345],[6.0571,50.0811,476.4586],[6.0463,50.0802,491.9633],[6.031,50.0852,375.3627],[6.0288,50.0808,392.1689],[6.0281,50.0707,456.2384],[6.0259,50.068,397.0567],[6.0178,50.0668,446.8204],[6.0047,50.0721,452.2248],[5.9907,50.0666,503.4059],[5.9842,50.061,503.4362],[5.9762,50.0574,483.6576],[5.9634,50.047,491.3496],[5.9616,50.0439,515.2354],[5.961,50.0363,514.0342],[5.9704,50.0336,447.2802],[5.9823,50.0229,477.8079],[5.9818,50.0188,464.4309],[5.9843,50.0142,434.9503],[6.0132,50.0083,407.4933],[6.025,50.0012,376.5513],[6.0304,50.0009,399.6059],[6.0405,50.0044,492.9038],[6.0385,50.0097,442.0819],[6.0385,50.0186,392.3928],[6.0398,50.0224,454.3227],[6.0454,50.0288,464.2498],[6.076,50.045,534.9769],[6.0917,50.0459,478.7209],[6.1116,50.0517,446.1415],[6.1112,50.0565,351.1977],[6.113,50.0587,300.3704],[6.1137,50.065,317.187]]]]}
,"properties": {"GID_3": "LUX.1.1.1_1","GID_0": "LUX","country": "Luxembourg","GID_1": "LUX.1_1","province": "Diekirch","NL_NAME_1": "NA","GID_2": "LUX.1.1_1","county": "Clervaux","NL_NAME_2": "NA","city": "Clervaux","VARNAME_3": "NA","NL_NAME_3": "NA","TYPE_3": "Commune","ENGTYPE_3": "Commune","CC_3": "NA","HASC_3": "NA","name": "Clervaux.city","area_km2": 49.11173,"hist_schema_id": "Elevation0-9000","hist_area_km2": {"300": 0.09532,"325": 1.58008,"350": 2.24716,"375": 3.15972,"400": 3.84039,"425": 5.90996,"450": 9.62613,"475": 11.78945,"500": 8.93034,"525": 1.82426,"550": 0.10892}}}