{"type": "Feature","bbox": [5.98,49.6854,6.2782,49.8311],"geometry": {"type": "MultiPolygon","coordinates": [[[[6.2058,49.797,375.36],[6.195,49.8056,299.6857],[6.1909,49.812,321.4518],[6.1915,49.8234,327.1833],[6.1867,49.8244,342.9007],[6.1744,49.821,352.3894],[6.1501,49.826,351.3912],[6.1445,49.8239,338.2368],[6.1333,49.8228,350.1342],[6.123,49.8145,315.2217],[6.1086,49.8106,207.1648],[6.0954,49.8148,207.5608],[6.0909,49.8228,203.7392],[6.0834,49.8284,316.7596],[6.08,49.8247,329.2517],[6.0764,49.8236,351.4692],[6.0613,49.8311,373.988],[6.0557,49.8305,381.666],[6.0466,49.8264,359.0225],[6.0334,49.8268,382.3243],[6.0276,49.8248,370.515],[6.0233,49.8196,362.4912],[6.0235,49.8164,348.9534],[6.029,49.8095,357.6521],[6.0113,49.7998,281.0704],[6.0099,49.7959,273.7555],[6.0106,49.7896,304.576],[5.9933,49.786,295.7016],[5.9899,49.7831,300.4835],[5.9894,49.7759,276.7556],[5.9949,49.7688,241.12],[5.9814,49.7618,262.2145],[5.98,49.7587,251.6933],[5.9805,49.7535,261.1801],[5.9945,49.7394,317.1727],[5.9991,49.7323,291.9431],[5.9929,49.7194,356.124],[5.9981,49.7105,316.756],[5.9986,49.6986,317.4155],[6.0018,49.6955,257.8598],[6.0103,49.6945,266.7505],[6.0216,49.6965,314.4984],[6.0315,49.6954,245.2094],[6.0391,49.6916,363.1147],[6.0472,49.6908,377.1061],[6.0532,49.6921,365.2311],[6.0614,49.6982,371.3265],[6.0736,49.6956,366.2603],[6.0858,49.6977,278.9246],[6.0974,49.6894,359.2303],[6.1054,49.6917,356.5955],[6.119,49.6917,268.1323],[6.1348,49.686,224.4906],[6.1636,49.6854,395.8307],[6.1691,49.6875,390.7541],[6.1719,49.6916,357.2099],[6.1812,49.6974,323.7227],[6.1825,49.7125,341.3226],[6.1846,49.7181,325.691],[6.1926,49.7174,320.0866],[6.1984,49.7193,310.3329],[6.2019,49.7222,313.379],[6.2052,49.7286,299.4414],[6.2269,49.74,354.6426],[6.2327,49.7464,385.2337],[6.2577,49.7456,355.8353],[6.2679,49.7418,299.4491],[6.2764,49.7466,391.6795],[6.2745,49.7521,344.5496],[6.2782,49.7617,318.0178],[6.2722,49.7665,323.5847],[6.2693,49.7734,327.6548],[6.2656,49.7766,344.4461],[6.2452,49.7804,347.4081],[6.2424,49.7848,340.4874],[6.2383,49.7849,342.5392],[6.2383,49.7923,389.2987],[6.2343,49.7956,390.8988],[6.2143,49.7938,358.6317],[6.2058,49.797,375.36]]]]}
,"properties": {"GID_2": "LUX.3.4_1","GID_0": "LUX","country": "Luxembourg","GID_1": "LUX.3_1","province": "Luxembourg","NL_NAME_1": "NA","county": "Mersch","VARNAME_2": "NA","NL_NAME_2": "NA","TYPE_2": "Canton","ENGTYPE_2": "Canton","CC_2": "NA","HASC_2": "LU.LU.ME","name": "Mersch.county","area_km2": 232.0978,"hist_schema_id": "Elevation0-9000","hist_area_km2": {"200": 1.3409,"225": 19.4265,"250": 22.2978,"275": 35.493,"300": 29.6074,"325": 34.5859,"350": 37.0269,"375": 27.3718,"400": 19.0983,"425": 5.7533,"450": 0.096}}}