{"type": "Feature","bbox": [5.9006,49.5927,5.9708,49.638],"geometry": {"type": "MultiPolygon","coordinates": [[[[5.9705,49.6046,326.9311],[5.9708,49.6223,325.7935],[5.9595,49.638,314.4221],[5.9518,49.6335,346.4387],[5.946,49.6327,341.1649],[5.9142,49.638,331.207],[5.9006,49.6283,331.7793],[5.9166,49.6091,376.3966],[5.9175,49.5995,358.2943],[5.9274,49.5927,343.0384],[5.9358,49.5942,385.2076],[5.9575,49.5945,363.7525],[5.9705,49.6046,326.9311]]]]}
,"properties": {"GID_3": "LUX.3.1.4_1","GID_0": "LUX","country": "Luxembourg","GID_1": "LUX.3_1","province": "Luxembourg","NL_NAME_1": "NA","GID_2": "LUX.3.1_1","county": "Capellen","NL_NAME_2": "NA","city": "Garnich","VARNAME_3": "NA","NL_NAME_3": "NA","TYPE_3": "Commune","ENGTYPE_3": "Commune","CC_3": "NA","HASC_3": "NA","name": "Garnich.city","area_km2": 18.39387,"hist_schema_id": "Elevation0-9000","hist_area_km2": {"300": 0.89267,"325": 6.49686,"350": 5.60501,"375": 4.45147,"400": 0.94786}}}