{"type": "Feature","bbox": [5.8105,49.4478,6.2356,49.5928],"geometry": {"type": "MultiPolygon","coordinates": [[[[6.0863,49.4558,338.7457],[6.1007999999999996,49.4529,416.2518],[6.1,49.4668,424.9231],[6.1075,49.4715,290.71],[6.1222,49.4745,295.1143],[6.1296,49.4911,304.2833],[6.1446,49.4877,309.1348],[6.1575,49.4932,298.2823],[6.1568,49.5028,258.0283],[6.1752,49.5087,256.9831],[6.1796,49.5071,254.0578],[6.2167,49.5068,262.1893],[6.217,49.51,249.202],[6.2356,49.5081,255.2948],[6.2347,49.5229,265.5428],[6.2297,49.5364,277.7033],[6.2257,49.5399,287.3193],[6.2261,49.5389,289.2762],[6.1951,49.5302,247.3504],[6.1787,49.5292,275.8585],[6.1596,49.5185,254.5106],[6.1592,49.529,299.6606],[6.1673,49.5414,279.1681],[6.1664,49.5446,305.9236],[6.1616,49.5503,286.3187],[6.1264,49.5642,299.9857],[6.1149,49.5657,303.8086],[6.1111,49.5627,299.5356],[6.1045,49.5639,317.4636],[6.1042,49.5687,326.6566],[6.0969,49.5678,305.3524],[6.097,49.5696,304.0225],[6.1009,49.5721,297.3074],[6.0941,49.5746,309.5773],[6.0907,49.5808,314.6465],[6.0825,49.5793,305.7762],[6.0765,49.581,286.5425],[6.077,49.5883,291.8364],[6.0729,49.5928,321.8743],[6.0518,49.5909,322.0924],[6.0442,49.5857,324.9898],[6.0292,49.5863,301.5439],[6.0181,49.582,338.2784],[6.0045,49.5807,355.7309],[5.9844,49.5686,330.9933],[5.9777,49.5691,331.1056],[5.9684,49.574,330.1031],[5.9616,49.574,334.751],[5.9485,49.5672,343.1871],[5.937,49.5662,317.2202],[5.9198,49.5596,295.1889],[5.9065,49.5583,279.6516],[5.9014,49.5545,282.0586],[5.9036,49.5511,277.2736],[5.8972,49.5488,285.8934],[5.8873,49.5493,323.4904],[5.8879,49.5613,278.2689],[5.8864,49.5655,279.4119],[5.8682,49.5719,350.5363],[5.8337,49.5512,270.2023],[5.8281,49.5528,268.2438],[5.8105,49.5435,260.7899],[5.8172,49.537,381.4654],[5.8362,49.5418,386.8586],[5.8442,49.5297,394.5027],[5.8353,49.5265,296.1689],[5.836,49.52,342.8819],[5.864,49.5013,357.8039],[5.8934,49.4969,386.632],[5.9118,49.5016,349.8423],[5.9264,49.4988,333.2427],[5.9454,49.4996,311.5893],[5.9553,49.4933,296.2592],[5.9702,49.4902,302.0659],[5.9742,49.4664,406.9351],[5.9857,49.4595,435.5051],[5.9793,49.454,435.4678],[5.9821,49.4511,430.0783],[6.001,49.4556,416.0839],[6.0257,49.4535,301.9424],[6.0272,49.4503,314.7711],[6.0422,49.4478,427.8333],[6.0563,49.4654,435.364],[6.0719,49.465,420.7762],[6.0863,49.4558,338.7457]]]]}
,"properties": {"GID_2": "LUX.3.2_1","GID_0": "LUX","country": "Luxembourg","GID_1": "LUX.3_1","province": "Luxembourg","NL_NAME_1": "NA","county": "Esch-sur-Alzette","VARNAME_2": "Esch","NL_NAME_2": "NA","TYPE_2": "Canton","ENGTYPE_2": "Canton","CC_2": "NA","HASC_2": "LU.LU.ES","name": "Esch-sur-Alzette.county","area_km2": 250.9161,"hist_schema_id": "Elevation0-9000","hist_area_km2": {"225": 0.3028,"250": 12.4298,"275": 51.7066,"300": 82.6294,"325": 48.4327,"350": 21.0582,"375": 12.4056,"400": 12.9707,"425": 7.5471,"450": 1.433}}}