{"type":"Feature","properties":{"GID_3":"LUX.1.5.1_1","GID_0":"LUX","country":"Luxembourg","GID_1":"LUX.1_1","province":"Diekirch","NL_NAME_1":"NA","GID_2":"LUX.1.5_1","county":"Wiltz","NL_NAME_2":"NA","city":"Boulaide","VARNAME_3":"NA","NL_NAME_3":"NA","TYPE_3":"Commune","ENGTYPE_3":"Commune","CC_3":"NA","HASC_3":"NA","name":"Boulaide.city"},
"geometry":{"type": "MultiPolygon","coordinates": [[[[5.7442,49.9021,473.1966],[5.7451,49.8984,457.1801],[5.7861,49.8829,397.771],[5.7881,49.8772,400.8988],[5.7996,49.8774,392.8687],[5.8077,49.8699,373.1808],[5.8134,49.868899999999996,380.9815],[5.8339,49.872,344.6499],[5.8568,49.8958,413.9182],[5.8521,49.9072,328.3635],[5.8481,49.9096,353.0987],[5.8367,49.91,391.9131],[5.8229,49.9186,371.6992],[5.8152,49.9201,402.9605],[5.7673,49.9214,472.2437],[5.7599,49.9122,468.3453],[5.7537,49.9113,461.397],[5.7442,49.9021,473.1966]]]]}}