{"type":"Feature","properties":{"GID_2":"LUX.2.2_1","GID_0":"LUX","country":"Luxembourg","GID_1":"LUX.2_1","province":"Grevenmacher","NL_NAME_1":"NA","county":"Grevenmacher","VARNAME_2":"NA","NL_NAME_2":"NA","TYPE_2":"Canton","ENGTYPE_2":"Canton","CC_2":"NA","HASC_2":"LU.GR.GR","name":"Grevenmacher.county"},
"geometry":{"type": "MultiPolygon","coordinates": [[[[6.4406,49.657,134.5],[6.4366,49.6604,138.3317],[6.4278,49.6606,140.2111],[6.4261,49.6638,135.2458],[6.4307,49.6695,136.7116],[6.4473,49.6782,131.3561],[6.4591,49.6908,133.5753],[6.4804,49.6968,144.4405],[6.4962,49.7097,131.0102],[6.5025,49.7127,132.362],[6.507,49.7126,130.1222],[6.5065,49.7164,142.4909],[6.4962,49.7231,137.5812],[6.496,49.726,136.0142],[6.5026,49.7267,137.6699],[6.5116,49.7211,136.4624],[6.5154,49.722,164.3499],[6.5169,49.7246,137.1313],[6.5024,49.7319,180.3539],[6.4714,49.7375,316.708],[6.4554,49.7424,302.8461],[6.4465,49.739,356.9661],[6.4373,49.7306,274.2805],[6.4298,49.7298,337.4211],[6.399,49.75,299.2082],[6.3882,49.7498,302.386],[6.3823,49.7469,286.299],[6.3802,49.7435,281.6999],[6.3823,49.7368,293.5081],[6.377,49.732,324.0602],[6.3616,49.7317,293.6041],[6.3497,49.7334,277.5283],[6.3335,49.7288,268.394],[6.3225,49.7232,299.4771],[6.3101,49.7323,300.6466],[6.2883,49.739,368.5663],[6.2735,49.7403,347.5731],[6.2577,49.7456,355.8353],[6.2327,49.7464,385.2337],[6.2269,49.74,354.6426],[6.2052,49.7286,299.4414],[6.2019,49.7222,313.379],[6.1984,49.7193,310.3329],[6.1926,49.7174,320.0866],[6.1846,49.7181,325.691],[6.1825,49.7125,341.3226],[6.1812,49.6974,323.7227],[6.1719,49.6916,357.2099],[6.1691,49.6875,390.7541],[6.1744,49.685,343.5231],[6.1812,49.6843,335.7841],[6.2026,49.6866,390.4312],[6.213,49.6816,407.1666],[6.2234,49.6833,375.0108],[6.263,49.6813,296.0524],[6.2768,49.6681,301.2473],[6.2791,49.6627,304.921],[6.2854,49.6557,257.4107],[6.2867,49.6459,249.4911],[6.2956,49.6359,348.4287],[6.3069,49.6344,336.6378],[6.3122,49.6242,300.2892],[6.3253,49.624,330.2827],[6.3291,49.6226,285.865],[6.3446,49.6093,236.0725],[6.3634,49.6107,270.3105],[6.3683,49.6081,239.6977],[6.3771,49.6008,217.9572],[6.3765,49.5945,148.0102],[6.37,49.5919,219.0237],[6.3743,49.5908,137.8314],[6.3858,49.5999,136.7261],[6.3998,49.6027,137.8009],[6.411,49.6138,137.3004],[6.4197,49.618,152.9086],[6.4275,49.6341,139.0072],[6.4394,49.6524,143.9197],[6.4406,49.657,134.5]]]]}}