{"type": "Feature","bbox": [5.9793,49.4488,6.0397,49.476],"geometry": {"type": "MultiPolygon","coordinates": [[[[5.9821,49.4511,430.0783],[6.001,49.4556,416.0839],[6.0257,49.4535,301.9424],[6.0272,49.4503,314.7711],[6.0397,49.4488,426.5293],[6.0348,49.4549,335.1516],[6.0361,49.4659,295.0823],[6.0263,49.4691,362.2304],[6.0136,49.476,428.1788],[6.009,49.4755,396.0385],[5.9803,49.4628,400.6603],[5.9857,49.4595,435.5051],[5.9793,49.454,435.4678],[5.9821,49.4511,430.0783]]]]}
,"properties": {"GID_3": "LUX.3.2.12_1","GID_0": "LUX","country": "Luxembourg","GID_1": "LUX.3_1","province": "Luxembourg","NL_NAME_1": "NA","GID_2": "LUX.3.2_1","county": "Esch-sur-Alzette","NL_NAME_2": "NA","city": "Rumelange","VARNAME_3": "NA","NL_NAME_3": "NA","TYPE_3": "Commune","ENGTYPE_3": "Commune","CC_3": "NA","HASC_3": "NA","name": "Rumelange.city","area_km2": 7.455201,"hist_schema_id": "Elevation0-9000","hist_area_km2": {"300": 0.730398,"325": 1.102469,"350": 1.116163,"375": 0.923228,"400": 1.460725,"425": 1.309152,"450": 0.813067}}}