{"type":"Feature","properties":{"GID_2":"LUX.1.3_1","GID_0":"LUX","country":"Luxembourg","GID_1":"LUX.1_1","province":"Diekirch","NL_NAME_1":"NA","county":"Redange","VARNAME_2":"NA","NL_NAME_2":"NA","TYPE_2":"Canton","ENGTYPE_2":"Canton","CC_2":"NA","HASC_2":"LU.DI.RE","name":"Redange.county"},
"geometry":{"type": "MultiPolygon","coordinates": [[[[5.9726,49.8178,357.3423],[5.9677,49.8197,334.1381],[5.973,49.8248,336.4149],[5.9745,49.8288,366.4991],[5.9744,49.8367,385.743],[5.9711,49.8458,397.1125],[5.9747,49.8492,406.2632],[5.9835,49.8515,357.3898],[5.9724,49.8605,421.8118],[5.967,49.8634,414.3116],[5.9547,49.8651,466.509],[5.9453,49.8713,457.3616],[5.94,49.8725,489.3751],[5.9359,49.8706,480.5909],[5.9275,49.8606,494.8215],[5.9169,49.8582,495.1359],[5.9147,49.8613,514.6308],[5.9135,49.8705,490.4607],[5.9075,49.8768,436.8428],[5.906,49.8839,419.2288],[5.9028,49.8876,396.428],[5.8992,49.884,450.0519],[5.898,49.8756,484.9014],[5.8959,49.8725,455.0474],[5.8895,49.8692,417.3406],[5.8817,49.868899999999996,470.4056],[5.8771,49.877,475.6487],[5.8683,49.8866,490.5999],[5.8566,49.8946,396.1563],[5.8358,49.8733,337.1605],[5.8317,49.871,351.5969],[5.8099,49.8692,399.6455],[5.806,49.871,416.1705],[5.7996,49.8774,392.8687],[5.7881,49.8772,400.8988],[5.7885,49.876,389.6309],[5.782,49.8777,354.1057],[5.7827,49.8764,339.8646],[5.775,49.869,356.2335],[5.7581,49.8695,390.7152],[5.7596,49.8587,397.4016],[5.7577,49.8557,358.6077],[5.7501,49.855,353.367],[5.7533,49.8536,393.3828],[5.7533,49.8457,365.0952],[5.7506,49.8458,360.6507],[5.7502,49.8407,374.2627],[5.7461,49.8388,382.0008],[5.7515,49.8241,409.9645],[5.7478,49.8184,428.1045],[5.7544,49.8131,457.2053],[5.7571,49.8046,437.4715],[5.7577,49.7964,425.7238],[5.7825,49.7963,423.6854],[5.7943,49.7892,453.7876],[5.8273,49.7452,304.1367],[5.8319,49.7258,305.7792],[5.8485,49.7252,315.4173],[5.8605,49.728,310.4968],[5.8691,49.7272,382.8186],[5.8769,49.7222,395.4743],[5.8896,49.7101,389.0091],[5.887,49.7085,391.0118],[5.8995,49.7124,338.3101],[5.9083,49.7123,382.6894],[5.9204,49.7044,363.3152],[5.9291,49.7022,386.2405],[5.9331,49.6993,371.4235],[5.9658,49.7169,397.607],[5.9809,49.7199,372.6516],[5.9929,49.7194,356.124],[5.9991,49.7323,291.9431],[5.9945,49.7394,317.1727],[5.9805,49.7535,261.1801],[5.9803,49.76,250.3783],[5.9826,49.7627,267.7755],[5.9915,49.766,272.96],[5.9949,49.7688,241.12],[5.9889,49.7779,284.9519],[5.9909,49.7842,305.9632],[5.9933,49.786,295.7016],[6.0106,49.7896,304.576],[6.0099,49.7959,273.7555],[6.0113,49.7998,281.0704],[6.0291,49.81,357.6521],[6.0232,49.8177,354.4267],[6.0239,49.8209,354.0034],[6.0276,49.8248,370.515],[6.0202,49.8266,367.5067],[6.0105,49.8262,383.0271],[5.9819,49.8172,385.0327],[5.9726,49.8178,357.3423]]]]}}