{"type": "Feature","bbox": [6.2798,49.5788,6.3769,49.6242],"geometry": {"type": "MultiPolygon","coordinates": [[[[6.3122,49.6242,300.2892],[6.2981,49.6185,281.0775],[6.2898,49.6113,262.6436],[6.2817,49.6079,272.1708],[6.2798,49.6044,282.0089],[6.2807,49.5987,305.5292],[6.289,49.5976,272.7354],[6.3004,49.5915,275.0929],[6.3043,49.5819,293.5461],[6.3072,49.5788,284.4246],[6.313,49.5871,287.6953],[6.3172,49.5892,289.3452],[6.3436,49.5941,294.7281],[6.356,49.5914,230.0474],[6.3665,49.591,207.5903],[6.3769,49.5951,148.0102],[6.3763,49.602,217.9572],[6.3634,49.6107,270.3105],[6.3446,49.6093,236.0725],[6.3277,49.6234,294.5202],[6.3122,49.6242,300.2892]]]]}
,"properties": {"GID_3": "LUX.2.3.4_1","GID_0": "LUX","country": "Luxembourg","GID_1": "LUX.2_1","province": "Grevenmacher","NL_NAME_1": "NA","GID_2": "LUX.2.3_1","county": "Remich","NL_NAME_2": "NA","city": "Lenningen","VARNAME_3": "NA","NL_NAME_3": "NA","TYPE_3": "Commune","ENGTYPE_3": "Commune","CC_3": "NA","HASC_3": "NA","name": "Lenningen.city","area_km2": 17.84893,"hist_schema_id": "Elevation0-9000","hist_area_km2": {"175": 0.32978,"200": 0.74206,"225": 2.32215,"250": 5.19361,"275": 6.71912,"300": 2.4323,"325": 0.10991}}}