{"type":"Feature","properties":{"GID_3":"LUX.3.3.1_1","GID_0":"LUX","country":"Luxembourg","GID_1":"LUX.3_1","province":"Luxembourg","NL_NAME_1":"NA","GID_2":"LUX.3.3_1","county":"Luxembourg","NL_NAME_2":"NA","city":"Bertrange","VARNAME_3":"NA","NL_NAME_3":"NA","TYPE_3":"Commune","ENGTYPE_3":"Commune","CC_3":"NA","HASC_3":"NA","name":"Bertrange.city"},
"geometry":{"type": "MultiPolygon","coordinates": [[[[6.0045,49.5807,355.7309],[6.0181,49.582,338.2784],[6.0292,49.5863,301.5439],[6.0442,49.5857,324.9898],[6.0518,49.5909,322.0924],[6.0686,49.5918,325.7148],[6.0676,49.5935,309.96],[6.0764,49.5987,291.7662],[6.0744,49.6044,279.6872],[6.0786,49.6061,285.0001],[6.0736,49.6117,288.7615],[6.0568,49.6166,297.6917],[6.0442,49.6283,307.8934],[6.0417,49.6275,307.6361],[6.021,49.6127,311.115],[6.0111,49.6096,333.0885],[5.9982,49.6081,348.3537],[5.9998,49.6013,353.1235],[6.009,49.5925,308.4798],[6.0045,49.5807,355.7309]]]]}}