{"type":"Feature","properties":{"ISO3166-1-Alpha-3":"LUX","country":"Luxembourg","fill":"#F0F","id":"908","name":"Luxembourg"},
"geometry":{"type": "Polygon","coordinates": [[[6.11382,49.81758,319.243],[6.10452,49.8191,337.2827],[6.09552,49.82189,204.4269],[6.08106,49.8281,324.9135],[6.06943,49.82972,360.2408],[6.05982,49.82962,359.1298],[6.04307,49.82445,349.5136],[6.03377,49.81717,368.7113],[6.0316,49.81301,365.2273],[6.02912,49.80631,337.7006],[6.01868,49.79737,317.5419],[6.01372,49.79032,275.1986],[6.00132,49.78125,298.015],[5.9993,49.77541,277.1578],[5.99868,49.76125,295.304],[5.99512,49.7504,301.137],[5.99372,49.73944,317.1727],[5.99403,49.72885,294.0056],[5.95941,49.72156,300.7285],[5.93429,49.71366,363.8979],[5.9191,49.71092,371.9074],[5.87595,49.70999,410.9859],[5.8564,49.70581,363.4892],[5.85735,49.70043,332.8189],[5.85363,49.6963,337.4111],[5.84877,49.69273,369.3244],[5.84722,49.6872,377.5599],[5.8467,49.68069,336.1426],[5.8437,49.67749,351.8562],[5.84226,49.67392,355.9062],[5.84577,49.66658,338.1473],[5.85259,49.66322,344.1432],[5.87264,49.66172,345.6713],[5.87988,49.65775,334.2014],[5.88546,49.64353,328.2122],[5.87988,49.63485,335.875],[5.86996,49.62886,337.1374],[5.862,49.62276,356.4704],[5.84918,49.59971,357.8069],[5.84122,49.58969,330.8458],[5.82996,49.58276,308.4547],[5.84691,49.57672,306.0057],[5.8374,49.56111,266.0035],[5.81446,49.54514,262.7175],[5.79068,49.53775,266.6385],[5.8221,49.51052,380.5388],[5.83957,49.49987,421.0471],[5.86469,49.49217,409.2005],[5.92814,49.4823,407.1018],[5.92814,49.4823,407.1018],[5.94695,49.46995,380.7413],[5.9607,49.44132,410.6609],[5.97806,49.4451,420.323],[6.06333,49.44846,335.3779],[6.07801,49.45202,324.2068],[6.08772,49.46163,347.8713],[6.09981,49.46463,390.8989],[6.10209,49.47,399.9184],[6.10198,49.47641,337.1357],[6.10725,49.48251,296.5858],[6.11439,49.48437,290.8554],[6.1426,49.48608,301.0543],[6.13609,49.49527,296.1942],[6.19355,49.49941,248.9015],[6.22198,49.49744,225.5476],[6.24936,49.49031,245.8747],[6.25112,49.48946,254.7201],[6.24709,49.50613,233.0534],[6.23484,49.54003,297.2928],[6.23391,49.55356,303.8392],[6.24089,49.56204,347.5821],[6.27303,49.58235,260.2762],[6.28063,49.58493,296.2262],[6.29877,49.58754,298.596],[6.30125,49.59361,286.9327],[6.29954,49.59842,279.5839],[6.29443,49.60224,279.9245],[6.289,49.6055,279.2873],[6.28513,49.60912,271.9312],[6.28714,49.61263,261.7798],[6.29117,49.61589,288.3151],[6.31215,49.62723,314.4857],[6.29505,49.64798,244.853],[6.28559,49.67433,300.5083],[6.2783,49.68022,291.7765],[6.26482,49.68627,315.1233],[6.25112,49.68875,344.67],[6.17464,49.68999,357.7161],[6.22012,49.73691,364.2915],[6.22833,49.74187,383.4448],[6.24105,49.74709,380.0388],[6.24802,49.74627,371.7754],[6.26296,49.74668,339.3764],[6.27458,49.77009,326.05],[6.27257,49.77306,325.6637],[6.26699,49.77707,349.135],[6.26218,49.77908,348.3813],[6.24632,49.79055,363.9998],[6.21454,49.79991,332.6752],[6.19387,49.81241,329.9952],[6.18472,49.81939,343.2197],[6.15728,49.82383,336.7193],[6.14736,49.8236,323.3247],[6.11382,49.81758,319.243]]]}}