{"type":"Feature","properties":{"GID_1":"LUX.3_1","GID_0":"LUX","country":"Luxembourg","province":"Luxembourg","VARNAME_1":"Lëtzebuerg|Luxemburg","NL_NAME_1":"NA","TYPE_1":"District","ENGTYPE_1":"District","CC_1":"NA","HASC_1":"LU.LU","ISO_1":"LU-LU","name":"Luxembourg.province"},
"geometry":{"type": "MultiPolygon","coordinates": [[[[6.0719,49.465,420.7762],[6.0863,49.4558,338.7457],[6.1007999999999996,49.4529,416.2518],[6.1,49.4668,424.9231],[6.1075,49.4715,290.71],[6.1222,49.4745,295.1143],[6.1296,49.4911,304.2833],[6.1446,49.4877,309.1348],[6.1575,49.4932,298.2823],[6.1568,49.5028,258.0283],[6.1752,49.5087,256.9831],[6.1796,49.5071,254.0578],[6.2167,49.5068,262.1893],[6.217,49.51,249.202],[6.2364,49.5085,254.3259],[6.2347,49.5229,265.5428],[6.2297,49.5364,277.7033],[6.2257,49.5399,287.3193],[6.2228,49.5526,325.0533],[6.2288,49.5606,297.1912],[6.2296,49.57,264.2498],[6.2556,49.5736,311.6803],[6.2589,49.5791,293.893],[6.2643,49.5836,280.3699],[6.2745,49.5873,289.7643],[6.2801,49.5877,303.1797],[6.2891,49.5853,292.9312],[6.2954,49.5873,297.3993],[6.3004,49.5915,275.0929],[6.289,49.5976,272.7354],[6.2807,49.5987,305.5292],[6.2804,49.6063,282.7566],[6.2898,49.6113,262.6436],[6.2981,49.6185,281.0775],[6.3122,49.6242,300.2892],[6.3069,49.6344,336.6378],[6.297,49.6351,314.5348],[6.2875,49.6448,274.7206],[6.2851,49.6564,257.3987],[6.2791,49.6627,304.921],[6.2768,49.6681,301.2473],[6.263,49.6813,296.0524],[6.2234,49.6833,375.0108],[6.213,49.6816,407.1666],[6.2026,49.6866,390.4312],[6.1812,49.6843,335.7841],[6.1744,49.685,343.5231],[6.1691,49.6875,390.7541],[6.1719,49.6916,357.2099],[6.1812,49.6974,323.7227],[6.1825,49.7125,341.3226],[6.1846,49.7181,325.691],[6.1926,49.7174,320.0866],[6.1984,49.7193,310.3329],[6.2019,49.7222,313.379],[6.2052,49.7286,299.4414],[6.2269,49.74,354.6426],[6.2327,49.7464,385.2337],[6.2577,49.7456,355.8353],[6.2679,49.7418,299.4491],[6.2764,49.7466,391.6795],[6.2745,49.7521,344.5496],[6.2782,49.7617,318.0178],[6.2722,49.7665,323.5847],[6.2676,49.7751,343.6582],[6.2622,49.7782,347.1682],[6.2452,49.7804,347.4081],[6.2424,49.7848,340.4874],[6.2383,49.7849,342.5392],[6.2383,49.7923,389.2987],[6.2343,49.7956,390.8988],[6.2143,49.7938,358.6317],[6.2058,49.797,375.36],[6.1963,49.8041,329.8083],[6.1915,49.8107,321.4518],[6.1915,49.8234,327.1833],[6.1839,49.8245,333.3995],[6.1736,49.8211,347.4121],[6.1501,49.826,351.3912],[6.1445,49.8239,338.2368],[6.1333,49.8228,350.1342],[6.123,49.8145,315.2217],[6.1086,49.8106,207.1648],[6.0954,49.8148,207.5608],[6.0909,49.8228,203.7392],[6.0834,49.8284,316.7596],[6.0772,49.8236,351.4692],[6.0613,49.8311,373.988],[6.0557,49.8305,381.666],[6.0466,49.8264,359.0225],[6.0334,49.8268,382.3243],[6.0276,49.8248,370.515],[6.0239,49.8209,354.0034],[6.0232,49.8177,354.4267],[6.0288,49.8111,352.5185],[6.0287,49.809,357.6521],[6.0113,49.7998,281.0704],[6.0099,49.7959,273.7555],[6.0106,49.7896,304.576],[5.9933,49.786,295.7016],[5.9909,49.7842,305.9632],[5.9889,49.7779,284.9519],[5.9949,49.7688,241.12],[5.9915,49.766,272.96],[5.9826,49.7627,267.7755],[5.9803,49.76,250.3783],[5.9805,49.7535,261.1801],[5.9945,49.7394,317.1727],[5.9991,49.7323,291.9431],[5.9929,49.7194,356.124],[5.9809,49.7199,372.6516],[5.9658,49.7169,397.607],[5.9331,49.6993,371.4235],[5.9291,49.7022,386.2405],[5.9204,49.7044,363.3152],[5.9083,49.7123,382.6894],[5.903,49.7129,343.0871],[5.887,49.7085,391.0118],[5.8741,49.6993,327.4951],[5.8716,49.6909,333.1797],[5.8723,49.6843,302.1484],[5.879,49.6778,280.3548],[5.9125,49.6662,320.429],[5.9069,49.6546,333.2115],[5.9071,49.6395,337.9982],[5.8843,49.6387,346.324],[5.8806,49.6326,316.8795],[5.8816,49.6265,315.8433],[5.8749,49.6202,318.2999],[5.8705,49.6135,326.5229],[5.8711,49.6059,334.4991],[5.854,49.5976,354.7568],[5.8521,49.5908,325.2805],[5.8684,49.5863,397.1885],[5.8742,49.5872,376.1543],[5.8745,49.5768,332.8681],[5.8505,49.5602,274.4809],[5.8337,49.5512,270.2023],[5.8281,49.5528,268.2438],[5.8105,49.5435,260.7899],[5.8172,49.537,381.4654],[5.8362,49.5418,386.8586],[5.8442,49.5297,394.5027],[5.8353,49.5265,296.1689],[5.836,49.52,342.8819],[5.864,49.5013,357.8039],[5.8934,49.4969,386.632],[5.9118,49.5016,349.8423],[5.9264,49.4988,333.2427],[5.9454,49.4996,311.5893],[5.9553,49.4933,296.2592],[5.9702,49.4902,302.0659],[5.9742,49.4664,406.9351],[5.9857,49.4595,435.5051],[5.9793,49.454,435.4678],[5.9821,49.4511,430.0783],[6.001,49.4556,416.0839],[6.0257,49.4535,301.9424],[6.0272,49.4503,314.7711],[6.0422,49.4478,427.8333],[6.0563,49.4654,435.364],[6.0719,49.465,420.7762]]]]}}