{"type": "Feature","bbox": [5.9595,49.603,6.0557,49.6523],"geometry": {"type": "MultiPolygon","coordinates": [[[[5.9982,49.6081,348.3537],[6.0111,49.6096,333.0885],[6.021,49.6127,311.115],[6.0297,49.6182,301.2281],[6.0357,49.6245,295.3863],[6.0442,49.6283,307.8934],[6.0459,49.6382,326.0888],[6.0557,49.6498,328.0166],[6.0455,49.6523,322.3812],[6.0301,49.6502,331.7844],[6.0173,49.6523,325.377],[6.0002,49.6457,308.7073],[5.9914,49.6455,316.8492],[5.982,49.6483,320.1876],[5.9674,49.6452,324.6112],[5.9596,49.6407,331.4097],[5.9595,49.638,314.4221],[5.9708,49.6223,325.7935],[5.9705,49.6046,326.9311],[5.9753,49.603,311.7883],[5.9886,49.6043,342.8098],[5.9982,49.6081,348.3537]]]]}
,"properties": {"GID_3": "LUX.3.1.9_1","GID_0": "LUX","country": "Luxembourg","GID_1": "LUX.3_1","province": "Luxembourg","NL_NAME_1": "NA","GID_2": "LUX.3.1_1","county": "Capellen","NL_NAME_2": "NA","city": "Mamer","VARNAME_3": "NA","NL_NAME_3": "NA","TYPE_3": "Commune","ENGTYPE_3": "Commune","CC_3": "NA","HASC_3": "NA","name": "Mamer.city","area_km2": 24.03283,"hist_schema_id": "Elevation0-9000","hist_area_km2": {"275": 0.01373,"300": 12.2227,"325": 9.81899,"350": 1.90876,"375": 0.06864}}}