{"type":"Feature","properties":{"GID_3":"LUX.1.3.10_1","GID_0":"LUX","country":"Luxembourg","GID_1":"LUX.1_1","province":"Diekirch","NL_NAME_1":"NA","GID_2":"LUX.1.3_1","county":"Redange","NL_NAME_2":"NA","city":"Wahl","VARNAME_3":"NA","NL_NAME_3":"NA","TYPE_3":"Commune","ENGTYPE_3":"Commune","CC_3":"NA","HASC_3":"NA","name":"Wahl.city"},
"geometry":{"type": "MultiPolygon","coordinates": [[[[5.9169,49.8582,495.1359],[5.9147,49.8613,514.6308],[5.9135,49.8705,490.4607],[5.9075,49.8768,436.8428],[5.906,49.8839,419.2288],[5.9028,49.8876,396.428],[5.8992,49.884,450.0519],[5.898,49.8756,484.9014],[5.8959,49.8725,455.0474],[5.8895,49.8692,417.3406],[5.8817,49.868899999999996,470.4056],[5.8778,49.8646,480.2581],[5.8771,49.8395,494.862],[5.8817,49.8326,454.7884],[5.894,49.8231,403.6251],[5.9003,49.8155,380.8138],[5.9141,49.8237,403.1176],[5.9229,49.8235,408.2285],[5.9323,49.8209,380.9415],[5.941,49.822,330.4978],[5.9358,49.8298,421.5679],[5.9184,49.8433,451.2832],[5.9169,49.8582,495.1359]]]]}}