{"type":"Feature","properties":{"GID_3":"LUX.1.1.8_1","GID_0":"LUX","country":"Luxembourg","GID_1":"LUX.1_1","province":"Diekirch","NL_NAME_1":"NA","GID_2":"LUX.1.1_1","county":"Clervaux","NL_NAME_2":"NA","city":"Wincrange","VARNAME_3":"NA","NL_NAME_3":"NA","TYPE_3":"Commune","ENGTYPE_3":"Commune","CC_3":"NA","HASC_3":"NA","name":"Wincrange.city"},
"geometry":{"type": "MultiPolygon","coordinates": [[[[5.839,49.991,474.6911],[5.8568,49.9914,355.9253],[5.8697,49.9973,422.5045],[5.8815,49.9937,466.438],[5.8956,49.9977,477.5844],[5.905,49.9979,488.6197],[5.9101,50.0001,503.7781],[5.9141,50.0034,534.5759],[5.9162,50.0111,433.579],[5.9228,50.0174,427.7289],[5.9223,50.02,452.5724],[5.9162,50.0258,430.4413],[5.9178,50.0293,434.3011],[5.9232,50.0302,487.7299],[5.9353,50.0252,450.0482],[5.9474,50.0292,460.8756],[5.961,50.0363,514.0342],[5.9624,50.0458,491.3496],[5.9762,50.0574,483.6576],[5.9842,50.061,503.4362],[5.9907,50.0666,503.4059],[6.002,50.0714,444.9608],[6.0075,50.0718,450.9921],[6.0178,50.0668,446.8204],[6.0259,50.068,397.0567],[6.0281,50.0707,456.2384],[6.0294,50.0828,421.2614],[6.0326,50.0884,418.2219],[6.0323,50.0937,445.8939],[6.0285,50.0982,391.278],[5.9963,50.1124,485.0804],[5.9853,50.119,437.4164],[5.9517,50.1216,519.278],[5.9497,50.1239,506.9968],[5.9516,50.1335,499.0768],[5.9023,50.1098,471.6363],[5.8994,50.1003,485.2053],[5.8942,50.0944,497.8678],[5.8898,50.0783,471.6114],[5.8749,50.0739,493.8015],[5.8639,50.0675,520.1879],[5.8591,50.0617,474.5388],[5.8617,50.0463,486.6349],[5.8554,50.0304,455.3535],[5.8458,50.0204,433.4294],[5.828,50.0131,430.4149],[5.8262,50.0067,438.2506],[5.8277,49.9995,424.6753],[5.839,49.991,474.6911]]]]}}