{"type":"Feature","properties":{"GID_3":"LUX.3.2.13_1","GID_0":"LUX","country":"Luxembourg","GID_1":"LUX.3_1","province":"Luxembourg","NL_NAME_1":"NA","GID_2":"LUX.3.2_1","county":"Esch-sur-Alzette","NL_NAME_2":"NA","city":"Sanem","VARNAME_3":"NA","NL_NAME_3":"NA","TYPE_3":"Commune","ENGTYPE_3":"Commune","CC_3":"NA","HASC_3":"NA","name":"Sanem.city"},
"geometry":{"type": "MultiPolygon","coordinates": [[[[5.9362,49.5,311.1209],[5.9385,49.4999,308.4392],[5.9404,49.5042,305.1364],[5.9541,49.5155,319.3546],[5.9687,49.5187,296.15],[5.976,49.5188,297.9966],[5.9796,49.5231,293.1571],[5.9795,49.5297,292.1011],[5.9743,49.5341,298.1991],[5.97,49.5352,304.4121],[5.9611,49.5335,318.793],[5.9561,49.5368,349.1447],[5.9568,49.5413,315.4102],[5.9666,49.5516,318.6076],[5.9645,49.5653,332.1321],[5.9572,49.5718,331.6277],[5.9485,49.5672,343.1871],[5.937,49.5662,317.2202],[5.9198,49.5596,295.1889],[5.9082,49.5588,276.589],[5.9014,49.5545,282.0586],[5.9026,49.552,276.7685],[5.9148,49.5424,310.4312],[5.915,49.5384,299.0876],[5.9119,49.5323,312.4152],[5.9182,49.5221,309.7655],[5.9125,49.5155,326.7422],[5.9125,49.5119,356.9768],[5.9068,49.5062,402.551],[5.9061,49.5002,398.7062],[5.9118,49.5016,349.8423],[5.9264,49.4988,333.2427],[5.9362,49.5,311.1209]]]]}}