{"type":"Feature","properties":{"GID_3":"LUX.3.2.8_1","GID_0":"LUX","country":"Luxembourg","GID_1":"LUX.3_1","province":"Luxembourg","NL_NAME_1":"NA","GID_2":"LUX.3.2_1","county":"Esch-sur-Alzette","NL_NAME_2":"NA","city":"Mondercange","VARNAME_3":"NA","NL_NAME_3":"NA","TYPE_3":"Commune","ENGTYPE_3":"Commune","CC_3":"NA","HASC_3":"NA","name":"Mondercange.city"},
"geometry":{"type": "MultiPolygon","coordinates": [[[[6.072,49.5476,331.209],[6.0583,49.5493,350.9484],[6.0473,49.5473,312.2737],[6.037,49.5428,319.8073],[6.015,49.5399,290.4767],[6.0012,49.5436,296.6801],[5.9876,49.5514,317.1485],[5.9666,49.5516,318.6076],[5.9568,49.5413,315.4102],[5.9558,49.5381,332.7366],[5.9573,49.5351,348.6795],[5.9602,49.5337,330.9347],[5.9709,49.5351,300.3116],[5.9781,49.5314,295.356],[5.98,49.5284,289.5262],[5.98,49.5244,290.1998],[5.976,49.5188,297.9966],[5.9809,49.5165,296.9575],[5.9936,49.5167,299.8391],[6.0004,49.5205,281.6471],[6.0164,49.5233,289.9868],[6.0288,49.5182,283.9197],[6.0433,49.5168,281.6112],[6.0506,49.5135,273.8489],[6.0539,49.5249,282.8392],[6.0642,49.5356,316.1411],[6.072,49.5476,331.209]]]]}}