{"type":"Feature","properties":{"GID_3":"LUX.3.3.10_1","GID_0":"LUX","country":"Luxembourg","GID_1":"LUX.3_1","province":"Luxembourg","NL_NAME_1":"NA","GID_2":"LUX.3.3_1","county":"Luxembourg","NL_NAME_2":"NA","city":"Walferdange","VARNAME_3":"NA","NL_NAME_3":"NA","TYPE_3":"Commune","ENGTYPE_3":"Commune","CC_3":"NA","HASC_3":"NA","name":"Walferdange.city"},
"geometry":{"type": "MultiPolygon","coordinates": [[[[6.0981,49.6481,380.6131],[6.1102,49.6486,375.438],[6.1164,49.6514,284.6917],[6.1219,49.6511,243.5363],[6.125,49.6492,236.1558],[6.1393,49.6509,321.2307],[6.1492,49.6492,386.1919],[6.16,49.65,397.0508],[6.1641,49.6518,399.2028],[6.1638,49.6605,413.6838],[6.1605,49.6657,406.1992],[6.1519,49.6709,365.776],[6.1332,49.6716,233.4979],[6.119,49.6647,229.6957],[6.0984,49.6629,280.7708],[6.0981,49.6481,380.6131]]]]}}