{"type":"Feature","properties":{"GID_3":"LUX.3.4.3_1","GID_0":"LUX","country":"Luxembourg","GID_1":"LUX.3_1","province":"Luxembourg","NL_NAME_1":"NA","GID_2":"LUX.3.4_1","county":"Mersch","NL_NAME_2":"NA","city":"Colmar-Berg","VARNAME_3":"NA","NL_NAME_3":"NA","TYPE_3":"Commune","ENGTYPE_3":"Commune","CC_3":"NA","HASC_3":"NA","name":"Colmar-Berg.city"},
"geometry":{"type": "MultiPolygon","coordinates": [[[[6.0334,49.8268,382.3243],[6.0419,49.8189,367.8554],[6.0531,49.8132,345.5521],[6.0614,49.8051,301.1874],[6.0882,49.7992,242.5189],[6.0993,49.7911,272.187],[6.1068,49.7969,264.7362],[6.106,49.8,268.2724],[6.1119,49.8061,211.8038],[6.1086,49.8106,207.1648],[6.0954,49.8148,207.5608],[6.0909,49.8228,203.7392],[6.0834,49.8284,316.7596],[6.08,49.8247,329.2517],[6.0764,49.8236,351.4692],[6.0613,49.8311,373.988],[6.0557,49.8305,381.666],[6.0466,49.8264,359.0225],[6.0334,49.8268,382.3243]]]]}}