{"type": "Feature","bbox": [5.8521,49.5493,6.0284,49.7199],"geometry": {"type": "MultiPolygon","coordinates": [[[[5.8749,49.6202,318.2999],[5.8705,49.6135,326.5229],[5.8711,49.6059,334.4991],[5.854,49.5976,354.7568],[5.8521,49.5908,325.2805],[5.8684,49.5863,397.1885],[5.8742,49.5872,376.1543],[5.8745,49.5768,332.8681],[5.8682,49.5719,350.5363],[5.8869,49.5649,276.8759],[5.8873,49.5493,323.4904],[5.8999,49.5494,282.8629],[5.9036,49.5511,277.2736],[5.9014,49.5545,282.0586],[5.9065,49.5583,279.6516],[5.9198,49.5596,295.1889],[5.9362,49.566,317.2202],[5.9475,49.567,350.5645],[5.953,49.5692,337.8315],[5.9381,49.5748,316.1505],[5.9274,49.5927,343.0384],[5.9175,49.5995,358.2943],[5.9166,49.6091,376.3966],[5.9006,49.6283,331.7793],[5.8807,49.6321,316.8795],[5.8816,49.6265,315.8433],[5.8749,49.6202,318.2999]]],
[[[5.8902,49.6734,336.8329],[5.8955,49.6719,340.5472],[5.9132,49.6725,354.1336],[5.935,49.6748,286.9276],[5.9657,49.6897,376.6185],[5.9754,49.6898,360.5004],[5.9857,49.6869,347.9145],[5.9932,49.6894,280.5546],[6.0149,49.689,353.0701],[6.0215,49.6908,368.0099],[6.0284,49.6952,249.1701],[6.0207,49.6965,314.4984],[6.0074,49.6945,253.5882],[6.0005,49.6963,270.5021],[5.9983,49.6999,336.8149],[5.9981,49.7105,316.756],[5.9929,49.7194,356.124],[5.9809,49.7199,372.6516],[5.9658,49.7169,397.607],[5.9331,49.6993,371.4235],[5.9291,49.7022,386.2405],[5.9204,49.7044,363.3152],[5.9083,49.7123,382.6894],[5.8995,49.7124,338.3101],[5.887,49.7085,391.0118],[5.8741,49.6993,327.4951],[5.8716,49.6909,333.1797],[5.8723,49.6843,302.1484],[5.879,49.6778,280.3548],[5.8902,49.6734,336.8329]]]]}
,"properties": {"GID_3": "LUX.3.1.12_1","GID_0": "LUX","country": "Luxembourg","GID_1": "LUX.3_1","province": "Luxembourg","NL_NAME_1": "NA","GID_2": "LUX.3.1_1","county": "Capellen","NL_NAME_2": "NA","city": "NA","VARNAME_3": "NA","NL_NAME_3": "NA","TYPE_3": "Commune","ENGTYPE_3": "Commune","CC_3": "NA","HASC_3": "NA","name": "N_A.city","area_km2": 62.52443,"hist_schema_id": "Elevation0-9000","hist_area_km2": {"250": 1.61835,"275": 6.74363,"300": 8.69459,"325": 14.70578,"350": 18.89108,"375": 9.40188,"400": 2.46912}}}