{"type":"Feature","properties":{"GID_2":"LUX.1.4_1","GID_0":"LUX","country":"Luxembourg","GID_1":"LUX.1_1","province":"Diekirch","NL_NAME_1":"NA","county":"Vianden","VARNAME_2":"NA","NL_NAME_2":"NA","TYPE_2":"Canton","ENGTYPE_2":"Canton","CC_2":"NA","HASC_2":"LU.DI.VI","name":"Vianden.county"},
"geometry":{"type": "MultiPolygon","coordinates": [[[[6.234,49.9136,205.7722],[6.2295,49.9209,199.0225],[6.218,49.9235,212.4875],[6.2191,49.9256,208.3449],[6.2262,49.9294,309.2437],[6.224,49.9319,314.8683],[6.2252,49.9334,318.4757],[6.2235,49.9341,277.9436],[6.2273,49.9366,343.1323],[6.2199,49.9433,348.0934],[6.2166,49.9444,363.0033],[6.2239,49.9499,439.0077],[6.2116,49.9502,432.5988],[6.2084,49.9545,463.8732],[6.2052,49.9552,449.2768],[6.2011,49.9531,380.0994],[6.1976,49.9484,231.3031],[6.197,49.952,252.6052],[6.1932,49.9567,228.0],[6.194,49.9601,228.0],[6.1917,49.9684,230.9141],[6.1855,49.9678,231.6018],[6.182,49.9647,228.0],[6.1839,49.9588,228.0],[6.1882,49.9564,235.1263],[6.1852,49.9544,228.0],[6.1806,49.9529,233.6948],[6.1773,49.9547,229.6227],[6.1632,49.954,409.1395],[6.1626,49.9613,362.2756],[6.1564,49.9613,379.035],[6.1551,49.9774,332.3874],[6.1432,49.9729,390.1491],[6.1313,49.9726,413.4272],[6.1254,49.9744,504.0939],[6.1203,49.9805,526.3977],[6.115,49.9837,524.3889],[6.1092,49.9842,515.9984],[6.1025,49.9824,493.5491],[6.1018,49.9621,460.49],[6.0985,49.956,460.2343],[6.093,49.9379,469.2653],[6.1013,49.9241,374.4388],[6.1101,49.9195,360.6788],[6.1102,49.9149,464.9385],[6.1119,49.9129,454.9153],[6.1274,49.9075,321.0885],[6.1342,49.8999,374.7488],[6.1483,49.8971,321.8951],[6.1557,49.8906,285.418],[6.1691,49.886,264.6703],[6.1855,49.8705,220.5801],[6.1945,49.8757,259.0179],[6.1982,49.8822,311.0609],[6.2019,49.8848,357.381],[6.2204,49.89,370.5662],[6.2392,49.8892,320.3532],[6.239,49.8924,293.4648],[6.2369,49.8924,298.0845],[6.2366,49.896,236.6531],[6.2348,49.896,257.0104],[6.2375,49.8978,191.9202],[6.2336,49.9004,222.408],[6.2314,49.9075,192.6331],[6.2271,49.9104,208.9831],[6.2274,49.9115,201.1894],[6.2318,49.9113,194.187],[6.234,49.9136,205.7722]]]]}}