{"type": "Feature","bbox": [5.9226,49.9016,6.0433,49.9688],"geometry": {"type": "MultiPolygon","coordinates": [[[[6.0407,49.9398,287.2835],[6.027,49.9403,251.0298],[6.0071,49.9505,261.1707],[5.9945,49.9496,444.4957],[5.9832,49.9572,303.4438],[5.9761,49.9645,421.4785],[5.9629,49.9688,325.3819],[5.9536,49.9652,324.6892],[5.9509,49.9627,382.9932],[5.9499,49.9446,457.9894],[5.9479,49.9409,447.7361],[5.9226,49.9342,435.5615],[5.9352,49.9263,460.8858],[5.9363,49.9186,457.7317],[5.9475,49.9143,346.9835],[5.9512,49.9016,285.4687],[5.962,49.905,281.4113],[5.9815,49.9058,287.3069],[5.9966,49.9164,357.4579],[6.0012,49.923,297.0172],[6.0068,49.9259,251.174],[6.0156,49.926,324.4756],[6.036,49.9224,327.1836],[6.0433,49.9324,255.6314],[6.0433,49.9356,280.5198],[6.0407,49.9398,287.2835]]]]}
,"properties": {"GID_3": "LUX.1.5.4_1","GID_0": "LUX","country": "Luxembourg","GID_1": "LUX.1_1","province": "Diekirch","NL_NAME_1": "NA","GID_2": "LUX.1.5_1","county": "Wiltz","NL_NAME_2": "NA","city": "Goesdorf","VARNAME_3": "NA","NL_NAME_3": "NA","TYPE_3": "Commune","ENGTYPE_3": "Commune","CC_3": "NA","HASC_3": "NA","name": "Goesdorf.city","area_km2": 31.08846,"hist_schema_id": "Elevation0-9000","hist_area_km2": {"250": 0.47772,"275": 1.0101,"300": 1.66497,"325": 2.19737,"350": 2.33361,"375": 2.7293,"400": 3.15239,"425": 4.05327,"450": 5.93658,"475": 6.37313,"500": 1.16003}}}