{"type": "Feature","bbox": [6.3646,49.7676,6.4673,49.8305],"geometry": {"type": "MultiPolygon","coordinates": [[[[6.388,49.8305,171.5505],[6.388,49.825,294.6671],[6.3946,49.8155,339.2275],[6.3941,49.8109,346.7244],[6.3646,49.7953,316.6504],[6.3686,49.7886,316.686],[6.3698,49.7814,350.5065],[6.3776,49.7699,393.118],[6.3803,49.768,401.0586],[6.3946,49.7676,345.8176],[6.4432,49.7923,276.4793],[6.4508,49.7919,283.5826],[6.461,49.787,321.6612],[6.4673,49.7901,335.4785],[6.4672,49.7967,349.2725],[6.4612,49.8029,320.7207],[6.4561,49.8125,160.2188],[6.4435,49.8116,179.8754],[6.4407,49.8142,159.3065],[6.432,49.8106,161.025],[6.4291,49.8109,160.5556],[6.425,49.8161,162.2109],[6.4018,49.8199,168.658],[6.388,49.8305,171.5505]]]]}
,"properties": {"GID_3": "LUX.2.1.5_1","GID_0": "LUX","country": "Luxembourg","GID_1": "LUX.2_1","province": "Grevenmacher","NL_NAME_1": "NA","GID_2": "LUX.2.1_1","county": "Echternach","NL_NAME_2": "NA","city": "Echternach","VARNAME_3": "NA","NL_NAME_3": "NA","TYPE_3": "Commune","ENGTYPE_3": "Commune","CC_3": "NA","HASC_3": "NA","name": "Echternach.city","area_km2": 25.03235,"hist_schema_id": "Elevation0-9000","hist_area_km2": {"150": 0.46515,"175": 3.35244,"200": 1.79255,"225": 1.76526,"250": 2.12119,"275": 2.28572,"300": 2.83308,"325": 3.81858,"350": 3.2715,"375": 2.21785,"400": 1.10904}}}