{"type":"Feature","properties":{"GID_3":"LUX.3.3.9_1","GID_0":"LUX","country":"Luxembourg","GID_1":"LUX.3_1","province":"Luxembourg","NL_NAME_1":"NA","GID_2":"LUX.3.3_1","county":"Luxembourg","NL_NAME_2":"NA","city":"Strassen","VARNAME_3":"NA","NL_NAME_3":"NA","TYPE_3":"Commune","ENGTYPE_3":"Commune","CC_3":"NA","HASC_3":"NA","name":"Strassen.city"},
"geometry":{"type": "MultiPolygon","coordinates": [[[[6.0557,49.6498,328.0166],[6.0459,49.6382,326.0888],[6.0442,49.6283,307.8934],[6.0554,49.6173,306.6784],[6.0736,49.6117,288.7615],[6.0786,49.6061,285.0001],[6.0975,49.6187,327.3602],[6.1001,49.6226,327.4386],[6.1056,49.6263,278.6042],[6.0948,49.6272,317.1224],[6.0914,49.626,301.5772],[6.0922,49.6279,335.132],[6.089,49.631,321.6604],[6.073,49.6319,354.6829],[6.0719,49.6368,361.3906],[6.0801,49.6439,367.9998],[6.0822,49.6496,377.1225],[6.0816,49.6538,370.18],[6.0787,49.6562,354.7654],[6.0655,49.6565,306.878],[6.0608,49.6548,318.4016],[6.0557,49.6498,328.0166]]]]}}