{"type": "Feature","bbox": [6.3072,49.5538,6.3819,49.5938],"geometry": {"type": "MultiPolygon","coordinates": [[[[6.3743,49.5908,137.8314],[6.356,49.5914,230.0474],[6.3407,49.5938,294.486],[6.3148,49.5884,280.2292],[6.3072,49.5788,284.4246],[6.3112,49.5759,261.0399],[6.3288,49.5807,297.0312],[6.3381,49.5791,282.1167],[6.3509,49.5657,175.1519],[6.3512,49.5597,155.8067],[6.3491,49.5538,156.9398],[6.3607,49.557,168.0033],[6.3699,49.5648,138.0],[6.3582,49.5709,138.8218],[6.3575,49.5729,139.7672],[6.3596,49.5754,141.9229],[6.3691,49.5789,142.4711],[6.3769,49.5765,138.8055],[6.3816,49.5778,146.4638],[6.3819,49.5808,144.8523],[6.3747,49.5868,138.0484],[6.3743,49.5908,137.8314]]]]}
,"properties": {"GID_3": "LUX.2.3.8_1","GID_0": "LUX","country": "Luxembourg","GID_1": "LUX.2_1","province": "Grevenmacher","NL_NAME_1": "NA","GID_2": "LUX.2.3_1","county": "Remich","NL_NAME_2": "NA","city": "Stadtbredimus","VARNAME_3": "NA","NL_NAME_3": "NA","TYPE_3": "Commune","ENGTYPE_3": "Commune","CC_3": "NA","HASC_3": "NA","name": "Stadtbredimus.city","area_km2": 9.774321,"hist_schema_id": "Elevation0-9000","hist_area_km2": {"125": 0.013746,"150": 1.581281,"175": 1.443529,"200": 1.718435,"225": 0.976043,"250": 1.223358,"275": 2.144347,"300": 0.673582}}}