{"type":"Feature","properties":{"GID_3":"LUX.1.2.1_1","GID_0":"LUX","country":"Luxembourg","GID_1":"LUX.1_1","province":"Diekirch","NL_NAME_1":"NA","GID_2":"LUX.1.2_1","county":"Diekirch","NL_NAME_2":"NA","city":"Bettendorf","VARNAME_3":"NA","NL_NAME_3":"NA","TYPE_3":"Commune","ENGTYPE_3":"Commune","CC_3":"NA","HASC_3":"NA","name":"Bettendorf.city"},
"geometry":{"type": "MultiPolygon","coordinates": [[[[6.1574,49.8497,318.0161],[6.1675,49.8476,289.3922],[6.1936,49.847,318.6226],[6.2146,49.8541,321.0741],[6.2299,49.8489,249.959],[6.2397,49.8486,274.144],[6.2561,49.8549,293.3381],[6.2544,49.8603,281.5472],[6.2561,49.8649,186.5227],[6.2538,49.8746,313.5922],[6.2498,49.8809,352.4253],[6.2392,49.8892,320.3532],[6.2194,49.8899,389.0427],[6.1998,49.8837,350.1693],[6.1945,49.8757,259.0179],[6.1574,49.8497,318.0161]]]]}}