{"type":"Feature","properties":{"GID_3":"LUX.1.3.9_1","GID_0":"LUX","country":"Luxembourg","GID_1":"LUX.1_1","province":"Diekirch","NL_NAME_1":"NA","GID_2":"LUX.1.3_1","county":"Redange","NL_NAME_2":"NA","city":"Vichten","VARNAME_3":"NA","NL_NAME_3":"NA","TYPE_3":"Commune","ENGTYPE_3":"Commune","CC_3":"NA","HASC_3":"NA","name":"Vichten.city"},
"geometry":{"type": "MultiPolygon","coordinates": [[[[5.9677,49.8197,334.1381],[5.9615,49.8117,361.3748],[5.9727,49.8009,379.8121],[5.9933,49.786,295.7016],[6.0106,49.7896,304.576],[6.0099,49.7959,273.7555],[6.0113,49.7998,281.0704],[6.0291,49.81,357.6521],[6.0232,49.8177,354.4267],[6.0239,49.8209,354.0034],[6.0276,49.8248,370.515],[6.0202,49.8266,367.5067],[6.0105,49.8262,383.0271],[5.98,49.8169,369.4647],[5.9677,49.8197,334.1381]]]]}}