{"type":"Feature","properties":{"GID_3":"LUX.3.4.1_1","GID_0":"LUX","country":"Luxembourg","GID_1":"LUX.3_1","province":"Luxembourg","NL_NAME_1":"NA","GID_2":"LUX.3.4_1","county":"Mersch","NL_NAME_2":"NA","city":"Bissen","VARNAME_3":"NA","NL_NAME_3":"NA","TYPE_3":"Commune","ENGTYPE_3":"Commune","CC_3":"NA","HASC_3":"NA","name":"Bissen.city"},
"geometry":{"type": "MultiPolygon","coordinates": [[[[6.0276,49.8248,370.515],[6.0239,49.8209,354.0034],[6.0232,49.8177,354.4267],[6.029,49.8095,357.6521],[6.0113,49.7998,281.0704],[6.0099,49.7959,273.7555],[6.0106,49.7896,304.576],[6.0216,49.7875,314.4267],[6.0317,49.7835,256.3443],[6.0337,49.7807,246.486],[6.0348,49.7708,305.6534],[6.0413,49.7657,316.3297],[6.0458,49.7638,336.4121],[6.0543,49.7659,289.972],[6.0698,49.7726,273.7475],[6.0843,49.7816,281.016],[6.0957,49.7841,283.7405],[6.099,49.7868,291.4794],[6.0993,49.7911,272.187],[6.0906,49.798,266.1129],[6.0629,49.8043,301.1874],[6.0531,49.8132,345.5521],[6.0392,49.8209,367.5325],[6.0334,49.8268,382.3243],[6.0276,49.8248,370.515]]]]}}