{"type":"Feature","properties":{"GID_1":"LUX.1_1","GID_0":"LUX","country":"Luxembourg","province":"Diekirch","VARNAME_1":"Dikrech|Dikkrich","NL_NAME_1":"NA","TYPE_1":"District","ENGTYPE_1":"District","CC_1":"NA","HASC_1":"LU.DI","ISO_1":"LU-DI","name":"Diekirch.province"},
"geometry":{"type": "MultiPolygon","coordinates": [[[[5.8605,49.728,310.4968],[5.8691,49.7272,382.8186],[5.8769,49.7222,395.4743],[5.8896,49.7101,389.0091],[5.887,49.7085,391.0118],[5.8995,49.7124,338.3101],[5.9083,49.7123,382.6894],[5.9204,49.7044,363.3152],[5.9291,49.7022,386.2405],[5.9331,49.6993,371.4235],[5.9658,49.7169,397.607],[5.9809,49.7199,372.6516],[5.9929,49.7194,356.124],[5.9991,49.7323,291.9431],[5.9945,49.7394,317.1727],[5.9805,49.7535,261.1801],[5.9803,49.76,250.3783],[5.9826,49.7627,267.7755],[5.9915,49.766,272.96],[5.9949,49.7688,241.12],[5.9889,49.7779,284.9519],[5.9909,49.7842,305.9632],[5.9933,49.786,295.7016],[6.0106,49.7896,304.576],[6.0099,49.7959,273.7555],[6.0113,49.7998,281.0704],[6.0287,49.809,357.6521],[6.0288,49.8111,352.5185],[6.0235,49.8164,348.9534],[6.0233,49.8196,362.4912],[6.0276,49.8248,370.515],[6.0334,49.8268,382.3243],[6.0466,49.8264,359.0225],[6.0557,49.8305,381.666],[6.0613,49.8311,373.988],[6.0764,49.8236,351.4692],[6.08,49.8247,329.2517],[6.0834,49.8284,316.7596],[6.0909,49.8228,203.7392],[6.0954,49.8148,207.5608],[6.1086,49.8106,207.1648],[6.123,49.8145,315.2217],[6.1333,49.8228,350.1342],[6.1445,49.8239,338.2368],[6.1501,49.826,351.3912],[6.1744,49.821,352.3894],[6.1867,49.8244,342.9007],[6.1915,49.8234,327.1833],[6.1909,49.812,321.4518],[6.195,49.8056,299.6857],[6.2058,49.797,375.36],[6.2143,49.7938,358.6317],[6.2343,49.7956,390.8988],[6.2383,49.7923,389.2987],[6.2383,49.7849,342.5392],[6.2424,49.7848,340.4874],[6.2524,49.7986,379.7869],[6.2714,49.8146,359.1453],[6.273,49.8194,345.3059],[6.2624,49.8283,383.9761],[6.2762,49.8463,405.1269],[6.2863,49.8443,379.4784],[6.3088,49.8439,352.7404],[6.3132,49.846,289.8021],[6.3158,49.8511,247.1117],[6.3171,49.8469,228.8773],[6.3115,49.8429,356.3408],[6.3123,49.8355,338.0979],[6.3269,49.8362,173.5438],[6.3201,49.8403,221.5106],[6.3227,49.8514,198.3429],[6.3145,49.8597,179.6978],[6.3143,49.866,210.2695],[6.311,49.8699,183.4772],[6.2965,49.8665,202.4638],[6.2924,49.8702,189.5534],[6.2915,49.8746,180.034],[6.2866,49.8751,180.0],[6.282,49.8788,200.3946],[6.2735,49.877,213.0307],[6.2621,49.8809,189.7615],[6.2467,49.8953,187.9464],[6.24,49.8962,201.5298],[6.2336,49.9004,222.408],[6.2319,49.9068,196.8651],[6.227,49.9108,201.1894],[6.234,49.9128,205.7722],[6.2318,49.9185,196.6953],[6.2295,49.9209,199.0225],[6.218,49.9235,212.4875],[6.2191,49.9256,208.3449],[6.2262,49.9294,309.2437],[6.224,49.9319,314.8683],[6.2252,49.9334,318.4757],[6.2235,49.9341,277.9436],[6.2273,49.9366,343.1323],[6.2199,49.9433,348.0934],[6.2166,49.9444,363.0033],[6.2239,49.9499,439.0077],[6.2116,49.9502,432.5988],[6.2084,49.9545,463.8732],[6.2052,49.9552,449.2768],[6.2011,49.9531,380.0994],[6.1976,49.9484,231.3031],[6.197,49.952,252.6052],[6.1932,49.9567,228.0],[6.1939,49.961,228.0],[6.1927,49.9671,230.9141],[6.191,49.9688,262.8758],[6.1855,49.9678,231.6018],[6.1818,49.9638,228.0],[6.1845,49.958,230.7373],[6.1882,49.9564,235.1263],[6.182,49.9531,233.6948],[6.1787,49.9533,231.6175],[6.1756,49.9618,239.23],[6.1699,49.9635,256.1894],[6.1649,49.9705,234.6078],[6.1648,49.9737,233.2636],[6.1691,49.9836,242.5637],[6.1724,49.9848,287.4701],[6.1573,49.9872,238.8163],[6.1535,49.9894,321.6908],[6.1507,49.9942,246.8343],[6.1419,49.9949,274.974],[6.138,49.9982,247.7642],[6.1397,50.0001,243.3298],[6.1453,49.9984,270.9095],[6.1496,50.0089,305.0515],[6.1481,50.0102,252.5312],[6.1382,50.0112,274.8458],[6.1298,50.0188,275.8191],[6.1324,50.0191,273.0789],[6.1374,50.0158,270.0668],[6.1459,50.0227,268.1773],[6.1297,50.03,273.4437],[6.1343,50.0401,267.2208],[6.1251,50.051,299.144],[6.1215,50.0529,322.338],[6.1239,50.0598,282.9367],[6.1205,50.0601,287.3279],[6.1205,50.0572,290.9448],[6.1181,50.056399999999996,294.9564],[6.1138,50.0578,300.3704],[6.1124,50.0598,335.4398],[6.1137,50.0654,317.187],[6.1206,50.0649,330.0992],[6.1214,50.0689,350.442],[6.1291,50.073,357.534],[6.1249,50.0769,298.2292],[6.121,50.0725,302.6646],[6.1161,50.0743,319.5067],[6.122,50.0813,300.4883],[6.1197,50.0865,298.3818],[6.1205,50.0922,332.9486],[6.1229,50.0937,298.6325],[6.1306,50.0923,317.6081],[6.133,50.0932,326.7882],[6.1326,50.0948,324.2482],[6.1283,50.0955,309.3667],[6.1255,50.1005,328.6297],[6.1279,50.1024,317.3337],[6.1355,50.1034,338.1671],[6.1309,50.1075,341.6319],[6.135,50.1133,326.0484],[6.1294,50.1143,318.7001],[6.1281,50.1162,336.55],[6.1296,50.1216,336.1185],[6.1368,50.1246,337.9465],[6.1386,50.1319,323.4976],[6.1384,50.1341,322.1884],[6.1299,50.1338,398.827],[6.1164,50.1376,438.6881],[6.1254,50.151,403.9409],[6.1204,50.1632,491.5215],[6.1016,50.1708,453.0885],[6.0808,50.1724,509.2033],[6.0775,50.1581,449.6595],[6.0708,50.1564,474.1562],[6.0604,50.1575,515.2068],[6.0314,50.1656,516.3116],[6.0249,50.1816,548.8131],[5.9676,50.1708,471.1031],[5.9541,50.1347,492.9764],[5.9023,50.1098,471.6363],[5.8994,50.1003,485.2053],[5.8942,50.0944,497.8678],[5.8898,50.0783,471.6114],[5.8749,50.0739,493.8015],[5.8639,50.0675,520.1879],[5.8591,50.0617,474.5388],[5.8617,50.0463,486.6349],[5.8554,50.0304,455.3535],[5.8458,50.0204,433.4294],[5.828,50.0131,430.4149],[5.8262,50.0067,438.2506],[5.8277,49.9995,424.6753],[5.8433,49.9871,485.2619],[5.8434,49.9799,493.9774],[5.8369,49.9755,492.9236],[5.8167,49.9726,441.9153],[5.8156,49.9648,413.1253],[5.8109,49.9609,466.8845],[5.7953,49.9642,455.885],[5.7915,49.9604,496.9426],[5.781,49.9597,540.6682],[5.7784,49.9505,510.3561],[5.7793,49.9444,462.8528],[5.7781,49.9384,465.0071],[5.7725,49.9323,464.5827],[5.7666,49.9199,475.8533],[5.7599,49.9122,468.3453],[5.7537,49.9113,461.397],[5.7441,49.9026,460.592],[5.7451,49.8984,457.1801],[5.7861,49.8829,397.771],[5.7885,49.876,389.6309],[5.782,49.8777,354.1057],[5.7827,49.8764,339.8646],[5.775,49.869,356.2335],[5.7581,49.8695,390.7152],[5.7596,49.8587,397.4016],[5.7577,49.8557,358.6077],[5.7501,49.855,353.367],[5.7533,49.8536,393.3828],[5.7533,49.8457,365.0952],[5.7506,49.8458,360.6507],[5.7502,49.8407,374.2627],[5.7461,49.8388,382.0008],[5.7515,49.8241,409.9645],[5.7478,49.8184,428.1045],[5.7544,49.8131,457.2053],[5.7571,49.8046,437.4715],[5.7577,49.7964,425.7238],[5.7825,49.7963,423.6854],[5.7943,49.7892,453.7876],[5.8273,49.7452,304.1367],[5.8319,49.7258,305.7792],[5.8485,49.7252,315.4173],[5.8605,49.728,310.4968]]]]}}