{"type": "Feature","id": "906","bbox": [5.71493,49.70581,6.29557,50.17497],"geometry": {"type": "Polygon","coordinates": [[[6.02297,50.15082,508.8968],[6.01413,50.15358,518.4401],[6.00804,50.16092,508.3943],[6.00473,50.17048,514.8719],[5.99832,50.17497,526.7446],[5.98292,50.16707,492.1931],[5.96163,50.16562,499.7507],[5.95316,50.15637,500.9692],[5.94902,50.14268,473.5569],[5.94106,50.12831,483.594],[5.92618,50.11834,494.0606],[5.88897,50.10661,473.0242],[5.87244,50.09689,471.2585],[5.86882,50.09054,485.1005],[5.86686,50.07431,487.0607],[5.86438,50.06749,520.1879],[5.85828,50.0618,474.5388],[5.8437,50.05364,503.5125],[5.83771,50.04744,522.5652],[5.83885,50.03586,486.0397],[5.83885,50.02646,447.4088],[5.83637,50.01855,421.6729],[5.82913,50.01359,431.0859],[5.80887,50.0078,461.5161],[5.80267,50.00248,420.6609],[5.80154,49.98868,525.3873],[5.80856,49.9831,532.9925],[5.8126,49.97757,494.8959],[5.80164,49.96382,483.6837],[5.79337,49.95881,496.5679],[5.77859,49.95659,527.9764],[5.77156,49.95354,517.2274],[5.76371,49.94682,505.2234],[5.75999,49.9416,446.3009],[5.75761,49.93654,470.0623],[5.75358,49.93018,439.9643],[5.71896,49.89137,468.303],[5.71493,49.88187,435.2054],[5.72671,49.8782,420.0044],[5.74883,49.86729,397.0414],[5.75813,49.8582,364.1681],[5.73188,49.85996,474.4722],[5.73198,49.85417,490.5345],[5.73053,49.85117,466.8945],[5.72867,49.84884,450.2427],[5.72692,49.84523,430.5605],[5.73653,49.83944,452.2179],[5.72464,49.83427,400.6703],[5.7202,49.82471,440.7687],[5.72165,49.81277,508.8201],[5.72774,49.80022,469.0562],[5.73828,49.78885,467.9591],[5.74841,49.78564,483.8434],[5.75916,49.78446,477.9831],[5.77187,49.77939,408.7029],[5.77849,49.77304,348.8049],[5.80205,49.74286,327.0633],[5.8036,49.73815,332.071],[5.80577,49.7242,352.4738],[5.80536,49.72188,357.4006],[5.81177,49.71852,381.8486],[5.82572,49.71578,321.5046],[5.83172,49.71361,360.7103],[5.8373,49.71294,357.0472],[5.8437,49.71433,381.9843],[5.85022,49.71402,396.1557],[5.856,49.70808,371.4987],[5.8564,49.70581,363.4892],[5.87595,49.70999,410.9859],[5.9191,49.71092,371.9074],[5.93429,49.71366,363.8979],[5.95941,49.72156,300.7285],[5.99403,49.72885,294.0056],[5.99372,49.73944,317.1727],[5.99512,49.7504,301.137],[5.99868,49.76125,295.304],[5.9993,49.77541,277.1578],[6.00132,49.78125,298.015],[6.01372,49.79032,275.1986],[6.01868,49.79737,317.5419],[6.02912,49.80631,337.7006],[6.0316,49.81301,365.2273],[6.03377,49.81717,368.7113],[6.04307,49.82445,349.5136],[6.05982,49.82962,359.1298],[6.06943,49.82972,360.2408],[6.08106,49.8281,324.9135],[6.09552,49.82189,204.4269],[6.10452,49.8191,337.2827],[6.11382,49.81758,319.243],[6.14736,49.8236,323.3247],[6.15728,49.82383,336.7193],[6.18472,49.81939,343.2197],[6.19387,49.81241,329.9952],[6.21454,49.79991,332.6752],[6.24632,49.79055,363.9998],[6.2659,49.81221,341.0827],[6.26668,49.81569,339.5712],[6.26683,49.82003,347.2048],[6.26156,49.82218,368.5551],[6.25831,49.82388,387.9425],[6.25614,49.8281,408.5374],[6.258,49.8328,406.743],[6.26389,49.84109,408.1671],[6.26962,49.84497,406.889],[6.27706,49.84709,408.3259],[6.2952,49.84859,376.4948],[6.29557,49.84862,376.4948],[6.29153,49.85556,383.212],[6.28678,49.86104,295.7415],[6.27221,49.86714,237.2449],[6.23831,49.87691,229.0935],[6.2227,49.88714,316.2663],[6.18983,49.9383,465.8019],[6.17268,49.95623,294.7627],[6.16193,49.94248,465.5746],[6.15397,49.95122,468.0153],[6.13878,49.97933,457.0391],[6.12152,49.99628,375.3622],[6.11718,50.00439,436.6583],[6.11997,50.0155,405.0417],[6.11377,50.03638,322.675],[6.10725,50.0446,377.0253],[6.0964,50.04863,438.9239],[6.1057,50.0603,403.8078],[6.10943,50.06356,369.8018],[6.10715,50.06377,416.7714],[6.10116,50.06341,404.5829],[6.0994,50.06413,448.9475],[6.1057,50.09224,445.3225],[6.11056,50.10599,463.0382],[6.11749,50.12046,435.167],[6.1026,50.12475,487.6664],[6.10033,50.13265,456.8466],[6.10147,50.14211,485.2005],[6.09713,50.15131,453.6486],[6.08421,50.15932,467.3254],[6.07646,50.15864,449.6595],[6.07005,50.1542,493.3186],[6.06137,50.15074,490.6733],[6.03863,50.14841,522.3939],[6.02736,50.14945,513.7491],[6.02297,50.15082,508.8968]]]}
,"properties": {"ISO3166-1-Alpha-3": "LUX","country": "Luxembourg","fill": "#00F","name": "Diekirch","area_km2": 1143.225,"hist_schema_id": "Elevation0-9000","hist_area_km2": {"175": 1.2709,"200": 12.5197,"225": 9.6888,"250": 20.6987,"275": 58.2374,"300": 77.9038,"325": 81.9925,"350": 76.7641,"375": 84.1189,"400": 90.593,"425": 106.5067,"450": 160.179,"475": 191.5516,"500": 135.7829,"525": 34.4488,"550": 0.9682}}}