{"type": "Feature","bbox": [5.8262,49.9364,6.1773,50.1816],"geometry": {"type": "MultiPolygon","coordinates": [[[[6.1138,50.0578,300.3704],[6.1124,50.0605,325.6292],[6.1137,50.0654,317.187],[6.1206,50.0649,330.0992],[6.1214,50.0689,350.442],[6.1291,50.073,357.534],[6.1249,50.0769,298.2292],[6.121,50.0725,302.6646],[6.1161,50.0743,319.5067],[6.122,50.0813,300.4883],[6.1197,50.0865,298.3818],[6.1205,50.0922,332.9486],[6.1229,50.0937,298.6325],[6.1306,50.0923,317.6081],[6.133,50.0932,326.7882],[6.1326,50.0948,324.2482],[6.1283,50.0955,309.3667],[6.1255,50.1005,328.6297],[6.1279,50.1024,317.3337],[6.1355,50.1034,338.1671],[6.1309,50.1075,341.6319],[6.135,50.1133,326.0484],[6.1294,50.1143,318.7001],[6.1281,50.1162,336.55],[6.1296,50.1216,336.1185],[6.1368,50.1246,337.9465],[6.1386,50.1324,321.4031],[6.1384,50.1341,322.1884],[6.1299,50.1338,398.827],[6.1164,50.1376,438.6881],[6.1254,50.151,403.9409],[6.1204,50.1632,491.5215],[6.1016,50.1708,453.0885],[6.0808,50.1724,509.2033],[6.0775,50.1581,449.6595],[6.0708,50.1564,474.1562],[6.0482,50.1601,535.9146],[6.0314,50.1656,516.3116],[6.0249,50.1816,548.8131],[6.0022,50.1765,534.367],[5.988,50.1755,521.1226],[5.9676,50.1708,471.1031],[5.9541,50.1347,492.9764],[5.9023,50.1098,471.6363],[5.8994,50.1003,485.2053],[5.8942,50.0944,497.8678],[5.8898,50.0783,471.6114],[5.8749,50.0739,493.8015],[5.8639,50.0675,520.1879],[5.8591,50.0617,474.5388],[5.8617,50.0463,486.6349],[5.8554,50.0304,455.3535],[5.8458,50.0204,433.4294],[5.828,50.0131,430.4149],[5.8262,50.0067,438.2506],[5.8277,49.9995,424.6753],[5.839,49.991,474.6911],[5.8568,49.9914,355.9253],[5.8688,49.9972,422.5045],[5.8806,49.9937,466.438],[5.8956,49.9977,477.5844],[5.905,49.9979,488.6197],[5.9137,50.0029,534.5759],[5.9162,50.0111,433.579],[5.9228,50.0174,427.7289],[5.9223,50.02,452.5724],[5.9162,50.0258,430.4413],[5.9178,50.0293,434.3011],[5.9232,50.0302,487.7299],[5.9315,50.0257,464.744],[5.936,50.0252,450.0482],[5.9451,50.028,460.5345],[5.961,50.0363,514.0342],[5.9704,50.0336,447.2802],[5.9823,50.0229,477.8079],[5.9818,50.0188,464.4309],[5.9843,50.0142,434.9503],[6.0132,50.0083,407.4933],[6.0268,50.0008,377.2084],[6.0453,50.0051,468.3843],[6.0523,50.0048,452.8079],[6.0578,50.0028,389.5759],[6.0582,49.9961,518.8387],[6.0558,49.9924,511.826],[6.0504,49.9895,473.7464],[6.0401,49.9876,484.5143],[6.0303,49.9813,447.1365],[6.0284,49.9673,377.2822],[6.0308,49.9632,355.4935],[6.0395,49.9583,392.6832],[6.043,49.9461,376.2341],[6.0497,49.9488,405.742],[6.0503,49.9531,453.3102],[6.0524,49.9547,467.2281],[6.0631,49.9556,371.3893],[6.0644,49.9402,291.1245],[6.0687,49.9364,342.7817],[6.093,49.9379,469.2653],[6.0985,49.956,460.2343],[6.1018,49.9621,460.49],[6.1025,49.9824,493.5491],[6.1082,49.9841,514.702],[6.1175,49.9825,523.5526],[6.1254,49.9744,504.0939],[6.1294,49.9728,447.2619],[6.1413,49.9726,370.6022],[6.1551,49.9774,332.3874],[6.1564,49.9613,379.035],[6.1626,49.9613,362.2756],[6.1632,49.954,409.1395],[6.1773,49.9547,229.6227],[6.1756,49.9618,239.23],[6.1699,49.9635,256.1894],[6.1649,49.9705,234.6078],[6.1648,49.9737,233.2636],[6.1691,49.9836,242.5637],[6.1724,49.9848,287.4701],[6.1573,49.9872,238.8163],[6.1535,49.9894,321.6908],[6.1507,49.9942,246.8343],[6.1419,49.9949,274.974],[6.138,49.9982,247.7642],[6.1397,50.0001,243.3298],[6.1453,49.9984,270.9095],[6.1496,50.0089,305.0515],[6.1481,50.0102,252.5312],[6.1382,50.0112,274.8458],[6.1298,50.0188,275.8191],[6.1324,50.0191,273.0789],[6.1374,50.0158,270.0668],[6.1459,50.0227,268.1773],[6.1297,50.03,273.4437],[6.1343,50.0401,267.2208],[6.1251,50.051,299.144],[6.1215,50.0529,322.338],[6.1239,50.0598,282.9367],[6.1205,50.0601,287.3279],[6.1193,50.0565,309.9487],[6.1138,50.0578,300.3704]]]]}
,"properties": {"GID_2": "LUX.1.1_1","GID_0": "LUX","country": "Luxembourg","GID_1": "LUX.1_1","province": "Diekirch","NL_NAME_1": "NA","county": "Clervaux","VARNAME_2": "NA","NL_NAME_2": "NA","TYPE_2": "Canton","ENGTYPE_2": "Canton","CC_2": "NA","HASC_2": "LU.DI.CL","name": "Clervaux.county","area_km2": 338.2459,"hist_schema_id": "Elevation0-9000","hist_area_km2": {"225": 0.1227,"250": 0.7905,"275": 1.4854,"300": 2.711,"325": 4.9583,"350": 6.3745,"375": 10.3099,"400": 16.0967,"425": 30.441,"450": 63.6405,"475": 94.2624,"500": 77.8493,"525": 25.4952,"550": 3.5592,"575": 0.1494}}}