{"type": "Feature","bbox": [5.8267,49.7022,5.9461,49.7575],"geometry": {"type": "MultiPolygon","coordinates": [[[[5.887,49.7085,391.0118],[5.9048,49.7129,366.0056],[5.9111,49.7111,403.6162],[5.9204,49.7044,363.3152],[5.9291,49.7022,386.2405],[5.9307,49.7108,359.0734],[5.9428,49.719,269.2995],[5.9461,49.7233,266.6495],[5.9457,49.739,299.1894],[5.9432,49.742,304.3785],[5.9411,49.7519,321.0383],[5.9211,49.7441,268.6278],[5.894,49.7445,288.2691],[5.8731,49.7513,288.6231],[5.8648,49.7575,313.424],[5.8455,49.7465,293.8699],[5.8267,49.7461,318.489],[5.8319,49.7258,305.7792],[5.8485,49.7252,315.4173],[5.8605,49.728,310.4968],[5.8691,49.7272,382.8186],[5.8769,49.7222,395.4743],[5.8896,49.7101,389.0091],[5.887,49.7085,391.0118]]]]}
,"properties": {"GID_3": "LUX.1.3.1_1","GID_0": "LUX","country": "Luxembourg","GID_1": "LUX.1_1","province": "Diekirch","NL_NAME_1": "NA","GID_2": "LUX.1.3_1","county": "Redange","NL_NAME_2": "NA","city": "Beckerich","VARNAME_3": "NA","NL_NAME_3": "NA","TYPE_3": "Commune","ENGTYPE_3": "Commune","CC_3": "NA","HASC_3": "NA","name": "Beckerich.city","area_km2": 28.2858,"hist_schema_id": "Elevation0-9000","hist_area_km2": {"275": 8.2497,"300": 13.48408,"325": 2.12428,"350": 1.52162,"375": 1.61758,"400": 1.22,"425": 0.06854}}}