{"type": "Feature","bbox": [6.2435,49.4958,6.3211,49.5323],"geometry": {"type": "MultiPolygon","coordinates": [[[[6.2798,49.4958,192.4843],[6.2893,49.4981,215.3592],[6.2939,49.5082,236.915],[6.3122,49.517,266.2453],[6.3204,49.518,317.618],[6.3211,49.5222,293.0705],[6.3136,49.5289,199.2255],[6.3071,49.5318,194.9103],[6.2891,49.5323,277.577],[6.2777,49.5303,275.4432],[6.2688,49.5318,338.7714],[6.2634,49.5298,315.3624],[6.2445,49.5169,255.5849],[6.2435,49.512,246.7734],[6.2762,49.5035,193.1787],[6.2798,49.4958,192.4843]]]]}
,"properties": {"GID_3": "LUX.2.3.5_1","GID_0": "LUX","country": "Luxembourg","GID_1": "LUX.2_1","province": "Grevenmacher","NL_NAME_1": "NA","GID_2": "LUX.2.3_1","county": "Remich","NL_NAME_2": "NA","city": "Mondorf-les-Bains","VARNAME_3": "NA","NL_NAME_3": "NA","TYPE_3": "Commune","ENGTYPE_3": "Commune","CC_3": "NA","HASC_3": "NA","name": "Mondorf-les-Bains.city","area_km2": 12.746122,"hist_schema_id": "Elevation0-9000","hist_area_km2": {"175": 0.013762,"200": 1.63824,"225": 4.5014,"250": 3.207029,"275": 2.766375,"300": 0.495463,"325": 0.123854}}}