{"type": "Feature","bbox": [6.093,49.9209,6.1976,49.9841],"geometry": {"type": "MultiPolygon","coordinates": [[[[6.1773,49.9547,229.6227],[6.1632,49.954,409.1395],[6.1626,49.9613,362.2756],[6.1564,49.9613,379.035],[6.1551,49.9774,332.3874],[6.1413,49.9726,370.6022],[6.1294,49.9728,447.2619],[6.1254,49.9744,504.0939],[6.1175,49.9825,523.5526],[6.1082,49.9841,514.702],[6.1025,49.9824,493.5491],[6.1018,49.9621,460.49],[6.0985,49.956,460.2343],[6.093,49.9379,469.2653],[6.1013,49.9241,374.4388],[6.1087,49.9209,364.5547],[6.13,49.9337,484.2468],[6.139,49.9362,460.7223],[6.16,49.9381,476.3012],[6.1589,49.9454,445.636],[6.1635,49.9493,465.3127],[6.1809,49.9466,470.429],[6.1976,49.9486,231.3031],[6.197,49.952,252.6052],[6.1932,49.9567,228.0],[6.1939,49.961,228.0],[6.1927,49.9671,230.9141],[6.191,49.9688,262.8758],[6.1855,49.9678,231.6018],[6.1818,49.9638,228.0],[6.1839,49.9588,228.0],[6.1879,49.956,235.1263],[6.1806,49.9529,233.6948],[6.1773,49.9547,229.6227]]]]}
,"properties": {"GID_3": "LUX.1.4.1_1","GID_0": "LUX","country": "Luxembourg","GID_1": "LUX.1_1","province": "Diekirch","NL_NAME_1": "NA","GID_2": "LUX.1.4_1","county": "Vianden","NL_NAME_2": "NA","city": "Putscheid","VARNAME_3": "NA","NL_NAME_3": "NA","TYPE_3": "Commune","ENGTYPE_3": "Commune","CC_3": "NA","HASC_3": "NA","name": "Putscheid.city","area_km2": 25.1145,"hist_schema_id": "Elevation0-9000","hist_area_km2": {"225": 0.39557,"250": 0.24552,"275": 0.23189,"300": 0.43648,"325": 0.46378,"350": 0.65485,"375": 1.2278,"400": 1.93715,"425": 3.16504,"450": 4.50205,"475": 6.43939,"500": 3.91482,"525": 1.43194,"550": 0.06822}}}