{"type":"Feature","properties":{"GID_3":"LUX.1.5.10_1","GID_0":"LUX","country":"Luxembourg","GID_1":"LUX.1_1","province":"Diekirch","NL_NAME_1":"NA","GID_2":"LUX.1.5_1","county":"Wiltz","NL_NAME_2":"NA","city":"Winseler","VARNAME_3":"NA","NL_NAME_3":"NA","TYPE_3":"Commune","ENGTYPE_3":"Commune","CC_3":"NA","HASC_3":"NA","name":"Winseler.city"},
"geometry":{"type": "MultiPolygon","coordinates": [[[[5.7982,49.9639,474.702],[5.7985,49.9578,492.3389],[5.7958,49.9511,481.1028],[5.7987,49.9484,481.6754],[5.8043,49.948,496.0405],[5.8182,49.9524,490.0177],[5.8228,49.9524,450.5998],[5.8347,49.9447,365.4952],[5.8417,49.9376,435.9664],[5.8631,49.9388,426.2459],[5.8669,49.9412,463.8572],[5.8698,49.9472,475.71],[5.8805,49.9544,497.3688],[5.8851,49.9601,455.9898],[5.8959,49.9665,350.8415],[5.9061,49.9684,377.1034],[5.9121,49.9719,396.3979],[5.9139,49.9751,414.7155],[5.9156,49.9894,415.9656],[5.9118,49.994,501.8943],[5.905,49.9979,488.6197],[5.8956,49.9977,477.5844],[5.8806,49.9937,466.438],[5.8688,49.9972,422.5045],[5.8568,49.9914,355.9253],[5.839,49.991,474.6911],[5.8433,49.9871,485.2619],[5.8434,49.9799,493.9774],[5.8369,49.9755,492.9236],[5.8167,49.9726,441.9153],[5.8156,49.9648,413.1253],[5.8109,49.9609,466.8845],[5.7982,49.9639,474.702]]]]}}