{"type": "Feature","bbox": [6.2424,49.7232,6.5307,49.8511],"geometry": {"type": "MultiPolygon","coordinates": [[[[6.3921,49.7502,313.4838],[6.399,49.75,299.2082],[6.4298,49.7298,337.4211],[6.4373,49.7306,274.2805],[6.4465,49.739,356.9661],[6.4554,49.7424,302.8461],[6.4714,49.7375,316.708],[6.4786,49.7372,314.6342],[6.503,49.7315,180.3539],[6.5016,49.7347,142.2859],[6.5027,49.7456,140.9584],[6.5006,49.7486,147.6632],[6.5005,49.7521,150.4121],[6.5043,49.7552,142.951],[6.5157,49.7591,145.1721],[6.5186,49.7625,145.5837],[6.5175,49.7687,142.4157],[6.5098,49.7742,142.0265],[6.5168,49.7832,145.5143],[6.5071,49.7875,145.2112],[6.506,49.7901,145.077],[6.521,49.797,147.0431],[6.5307,49.8062,189.8822],[6.5269,49.8113,148.5452],[6.5202,49.8131,148.4345],[6.5164,49.8053,185.4333],[6.5114,49.8018,156.0038],[6.5058,49.8092,183.7774],[6.4959,49.8123,160.4417],[6.4877,49.8122,155.2117],[6.48,49.819,187.3309],[6.4709,49.8226,157.4183],[6.4634,49.8191,162.4307],[6.4545,49.8115,184.4026],[6.4435,49.8116,179.8754],[6.4407,49.8142,159.3065],[6.4304,49.8105,159.8661],[6.4268,49.8123,160.799],[6.4255,49.8159,208.0037],[6.4103,49.8176,162.8173],[6.3974,49.8223,159.9828],[6.3642,49.8508,179.5298],[6.3422,49.8491,196.152],[6.3401,49.8482,174.9295],[6.3379,49.8407,173.7891],[6.3346,49.8378,176.7693],[6.329,49.8361,177.683],[6.3123,49.8355,338.0979],[6.3115,49.8429,356.3408],[6.3171,49.8469,228.8773],[6.3158,49.8511,247.1117],[6.3132,49.846,289.8021],[6.3088,49.8439,352.7404],[6.2752,49.8453,402.9127],[6.2679,49.834,401.0466],[6.2624,49.8283,383.9761],[6.273,49.8194,345.3059],[6.2714,49.8146,359.1453],[6.2524,49.7986,379.7869],[6.2424,49.7848,340.4874],[6.2436,49.7818,356.7404],[6.2467,49.7797,351.3288],[6.2604,49.7786,346.7409],[6.2656,49.7766,344.4461],[6.2693,49.7734,327.6548],[6.2722,49.7665,323.5847],[6.2782,49.7617,318.0178],[6.2745,49.7521,344.5496],[6.2764,49.7466,391.6795],[6.2679,49.7418,299.4491],[6.2883,49.739,368.5663],[6.3093,49.7327,304.639],[6.3225,49.7232,299.4771],[6.3335,49.7288,268.394],[6.3497,49.7334,277.5283],[6.3616,49.7317,293.6041],[6.377,49.732,324.0602],[6.3823,49.7368,293.5081],[6.3802,49.7435,281.6999],[6.3812,49.7459,286.6006],[6.3865,49.7492,302.386],[6.3921,49.7502,313.4838]]]]}
,"properties": {"GID_2": "LUX.2.1_1","GID_0": "LUX","country": "Luxembourg","GID_1": "LUX.2_1","province": "Grevenmacher","NL_NAME_1": "NA","county": "Echternach","VARNAME_2": "NA","NL_NAME_2": "NA","TYPE_2": "Canton","ENGTYPE_2": "Canton","CC_2": "NA","HASC_2": "LU.GR.EC","name": "Echternach.county","area_km2": 183.905,"hist_schema_id": "Elevation0-9000","hist_area_km2": {"125": 0.0411,"150": 3.367,"175": 6.2671,"200": 4.6659,"225": 5.6791,"250": 7.4866,"275": 13.446,"300": 28.3969,"325": 39.4393,"350": 39.7659,"375": 26.8049,"400": 7.9699,"425": 0.5752}}}