{"type":"Feature","properties":{"GID_3":"LUX.1.3.4_1","GID_0":"LUX","country":"Luxembourg","GID_1":"LUX.1_1","province":"Diekirch","NL_NAME_1":"NA","GID_2":"LUX.1.3_1","county":"Redange","NL_NAME_2":"NA","city":"Préizerdaul","VARNAME_3":"NA","NL_NAME_3":"NA","TYPE_3":"Commune","ENGTYPE_3":"Commune","CC_3":"NA","HASC_3":"NA","name":"Préizerdaul.city"},
"geometry":{"type": "MultiPolygon","coordinates": [[[[5.941,49.822,330.4978],[5.9323,49.8209,380.9415],[5.9229,49.8235,408.2285],[5.9141,49.8237,403.1176],[5.9003,49.8155,380.8138],[5.9035,49.8117,351.4816],[5.9002,49.8065,338.4806],[5.9051,49.799,408.5646],[5.9148,49.7893,331.4384],[5.9261,49.7857,315.475],[5.9298,49.7775,253.7831],[5.9405,49.78,273.47],[5.9589,49.7887,317.729],[5.9609,49.7926,317.6811],[5.9616,49.8046,388.1173],[5.9655,49.8088,359.1404],[5.9615,49.8117,361.3748],[5.953,49.8128,345.7594],[5.9466,49.8192,356.1416],[5.941,49.822,330.4978]]]]}}