{"type": "Feature","bbox": [6.0704,49.8426,6.1574,49.9061],"geometry": {"type": "MultiPolygon","coordinates": [[[[6.0779,49.8754,300.8134],[6.0849,49.877,367.4939],[6.0915,49.8741,353.8356],[6.0974,49.8691,315.304],[6.1038,49.8567,267.7076],[6.1195,49.8456,233.1472],[6.1384,49.8456,341.2954],[6.1466,49.8426,340.8269],[6.1574,49.8497,318.0161],[6.1542,49.8592,259.8957],[6.1377,49.8665,260.5754],[6.134,49.8736,294.4627],[6.1285,49.8792,302.9142],[6.1278,49.8838,326.7338],[6.1311,49.8901,359.6785],[6.1307,49.8931,365.7056],[6.1159,49.9009,352.9123],[6.1083,49.9011,364.1797],[6.1015,49.8951,313.7796],[6.0965,49.894,231.5598],[6.0903,49.8972,222.7606],[6.0822,49.9061,314.7775],[6.0767,49.9059,355.3611],[6.0715,49.899,395.0622],[6.0704,49.8847,350.8216],[6.0716,49.8802,368.7684],[6.0779,49.8754,300.8134]]]]}
,"properties": {"GID_3": "LUX.1.2.5_1","GID_0": "LUX","country": "Luxembourg","GID_1": "LUX.1_1","province": "Diekirch","NL_NAME_1": "NA","GID_2": "LUX.1.2_1","county": "Diekirch","NL_NAME_2": "NA","city": "Erpeldange","VARNAME_3": "NA","NL_NAME_3": "NA","TYPE_3": "Commune","ENGTYPE_3": "Commune","CC_3": "NA","HASC_3": "NA","name": "Erpeldange.city","area_km2": 21.562,"hist_schema_id": "Elevation0-9000","hist_area_km2": {"200": 3.88167,"225": 1.96772,"250": 2.56901,"275": 2.59618,"300": 2.55504,"325": 2.25429,"350": 2.10422,"375": 2.06301,"400": 1.02455,"425": 0.24585,"450": 0.28682,"475": 0.01366}}}