{"type":"Feature","properties":{"GID_3":"LUX.2.2.1_1","GID_0":"LUX","country":"Luxembourg","GID_1":"LUX.2_1","province":"Grevenmacher","NL_NAME_1":"NA","GID_2":"LUX.2.2_1","county":"Grevenmacher","NL_NAME_2":"NA","city":"Betzdorf","VARNAME_3":"NA","NL_NAME_3":"NA","TYPE_3":"Commune","ENGTYPE_3":"Commune","CC_3":"NA","HASC_3":"NA","name":"Betzdorf.city"},
"geometry":{"type": "MultiPolygon","coordinates": [[[[6.309,49.7016,290.2075],[6.3005,49.6967,293.6654],[6.2991,49.6826,246.8019],[6.2944,49.676,273.3456],[6.2768,49.6681,301.2473],[6.2791,49.6627,304.921],[6.2854,49.6557,257.4107],[6.2867,49.6459,249.4911],[6.297,49.6351,314.5348],[6.3069,49.6344,336.6378],[6.3241,49.6431,308.8511],[6.3262,49.646,320.9254],[6.3268,49.6507,388.6696],[6.3246,49.661,383.5516],[6.3292,49.665,326.1754],[6.3441,49.671,268.9156],[6.3518,49.6714,254.6581],[6.3578,49.6696,301.3471],[6.3638,49.6627,298.9033],[6.374,49.6666,312.1031],[6.3827,49.6723,275.0965],[6.3805,49.6779,297.1339],[6.3779,49.6804,287.5655],[6.365,49.6825,233.5258],[6.3575,49.6869,231.7149],[6.3536,49.6908,239.4839],[6.3514,49.697,268.1667],[6.3457,49.7012,312.5938],[6.3355,49.7011,318.9502],[6.3251,49.6918,258.4366],[6.3201,49.6898,279.2151],[6.3136,49.6935,277.4512],[6.309,49.7016,290.2075]]]]}}