{"type": "Feature","bbox": [5.9291,49.6993,5.9995,49.7535],"geometry": {"type": "MultiPolygon","coordinates": [[[[5.9291,49.7022,386.2405],[5.9331,49.6993,371.4235],[5.9658,49.7169,397.607],[5.9809,49.7199,372.6516],[5.9929,49.7194,356.124],[5.9958,49.7272,332.0094],[5.9995,49.7307,311.5906],[5.9987,49.7333,291.9431],[5.9945,49.7394,317.1727],[5.9805,49.7535,261.1801],[5.9702,49.7524,274.1729],[5.9647,49.7485,294.2734],[5.9601,49.7412,265.3106],[5.9457,49.739,299.1894],[5.9456,49.722,267.4842],[5.9307,49.7108,359.0734],[5.9291,49.7022,386.2405]]]]}
,"properties": {"GID_3": "LUX.1.3.7_1","GID_0": "LUX","country": "Luxembourg","GID_1": "LUX.1_1","province": "Diekirch","NL_NAME_1": "NA","GID_2": "LUX.1.3_1","county": "Redange","NL_NAME_2": "NA","city": "Saeul","VARNAME_3": "NA","NL_NAME_3": "NA","TYPE_3": "Commune","ENGTYPE_3": "Commune","CC_3": "NA","HASC_3": "NA","name": "Saeul.city","area_km2": 13.85607,"hist_schema_id": "Elevation0-9000","hist_area_km2": {"250": 1.09609,"275": 3.90568,"300": 3.76891,"325": 1.46637,"350": 0.79507,"375": 2.11106,"400": 0.71288}}}