{"type":"Feature","properties":{"GID_3":"LUX.1.2.3_1","GID_0":"LUX","country":"Luxembourg","GID_1":"LUX.1_1","province":"Diekirch","NL_NAME_1":"NA","GID_2":"LUX.1.2_1","county":"Diekirch","NL_NAME_2":"NA","city":"Diekirch","VARNAME_3":"NA","NL_NAME_3":"NA","TYPE_3":"Commune","ENGTYPE_3":"Commune","CC_3":"NA","HASC_3":"NA","name":"Diekirch.city"},
"geometry":{"type": "MultiPolygon","coordinates": [[[[6.1855,49.8705,220.5801],[6.1712,49.8845,279.1393],[6.1644,49.8884,239.8206],[6.1557,49.8906,285.418],[6.1483,49.8971,321.8951],[6.1342,49.8999,374.7488],[6.1299,49.8982,373.618],[6.1282,49.8955,360.3743],[6.1313,49.8913,369.4926],[6.128,49.8851,326.7338],[6.1285,49.8792,302.9142],[6.134,49.8736,294.4627],[6.1377,49.8665,260.5754],[6.1542,49.8592,259.8957],[6.1574,49.8497,318.0161],[6.1689,49.8568,251.6753],[6.1855,49.8705,220.5801]]]]}}