{"type": "Feature","bbox": [6.225,49.7418,6.2782,49.7849],"geometry": {"type": "MultiPolygon","coordinates": [[[[6.2383,49.7849,342.5392],[6.2303,49.7788,346.7446],[6.2299,49.7735,329.7811],[6.2327,49.7665,309.7573],[6.225,49.7577,344.6967],[6.2306,49.7485,393.2208],[6.2327,49.7464,385.2337],[6.2598,49.7453,314.4917],[6.2679,49.7418,299.4491],[6.2764,49.7466,391.6795],[6.2745,49.7521,344.5496],[6.2782,49.7617,318.0178],[6.2722,49.7665,323.5847],[6.2676,49.7751,343.6582],[6.2622,49.7782,347.1682],[6.2467,49.7797,351.3288],[6.2436,49.7818,356.7404],[6.2424,49.7848,340.4874],[6.2383,49.7849,342.5392]]]]}
,"properties": {"GID_3": "LUX.3.4.5_1","GID_0": "LUX","country": "Luxembourg","GID_1": "LUX.3_1","province": "Luxembourg","NL_NAME_1": "NA","GID_2": "LUX.3.4_1","county": "Mersch","NL_NAME_2": "NA","city": "Heffingen","VARNAME_3": "NA","NL_NAME_3": "NA","TYPE_3": "Commune","ENGTYPE_3": "Commune","CC_3": "NA","HASC_3": "NA","name": "Heffingen.city","area_km2": 12.230442,"hist_schema_id": "Elevation0-9000","hist_area_km2": {"275": 0.013701,"300": 0.356133,"325": 4.067313,"350": 5.39606,"375": 1.931467,"400": 0.42467,"425": 0.041098}}}