{"type":"Feature","properties":{"GID_3":"LUX.3.2.7_1","GID_0":"LUX","country":"Luxembourg","GID_1":"LUX.3_1","province":"Luxembourg","NL_NAME_1":"NA","GID_2":"LUX.3.2_1","county":"Esch-sur-Alzette","NL_NAME_2":"NA","city":"Leudelange","VARNAME_3":"NA","NL_NAME_3":"NA","TYPE_3":"Commune","ENGTYPE_3":"Commune","CC_3":"NA","HASC_3":"NA","name":"Leudelange.city"},
"geometry":{"type": "MultiPolygon","coordinates": [[[[6.0857,49.5556,306.0444],[6.0881,49.5604,317.1332],[6.1009,49.5721,297.3074],[6.0941,49.5746,309.5773],[6.0904,49.5809,314.6465],[6.0825,49.5793,305.7762],[6.0766,49.5809,286.5425],[6.0771,49.5881,291.8364],[6.0737,49.5928,320.3228],[6.0537,49.5912,323.3738],[6.0476,49.5889,331.5255],[6.0442,49.5857,324.9898],[6.0469,49.5812,301.8069],[6.0463,49.5759,310.8914],[6.0348,49.5636,331.1929],[6.0357,49.5606,336.382],[6.0473,49.5473,312.2737],[6.0611,49.5496,358.3814],[6.072,49.5476,331.209],[6.0857,49.5556,306.0444]]]]}}