{"type":"Feature","properties":{"GID_3":"LUX.3.2.4_1","GID_0":"LUX","country":"Luxembourg","GID_1":"LUX.3_1","province":"Luxembourg","NL_NAME_1":"NA","GID_2":"LUX.3.2_1","county":"Esch-sur-Alzette","NL_NAME_2":"NA","city":"Esch-sur-Alzette","VARNAME_3":"NA","NL_NAME_3":"NA","TYPE_3":"Commune","ENGTYPE_3":"Commune","CC_3":"NA","HASC_3":"NA","name":"Esch-sur-Alzette.city"},
"geometry":{"type": "MultiPolygon","coordinates": [[[[5.9803,49.4628,400.6603],[5.9975,49.4705,439.4375],[5.9946,49.4815,357.458],[5.9957,49.4851,348.4837],[5.9989,49.488,340.6379],[5.9952,49.4932,313.0244],[5.9955,49.5098,286.5761],[5.9936,49.5167,299.8391],[5.9828,49.5162,296.9575],[5.9717,49.5189,297.0963],[5.9541,49.5155,319.3546],[5.9404,49.5042,305.1364],[5.9385,49.4999,308.4392],[5.9454,49.4996,311.5893],[5.9553,49.4933,296.2592],[5.9702,49.4902,302.0659],[5.9742,49.4664,406.9351],[5.9803,49.4628,400.6603]]]]}}