{"type":"Feature","properties":{"GID_3":"LUX.3.4.7_1","GID_0":"LUX","country":"Luxembourg","GID_1":"LUX.3_1","province":"Luxembourg","NL_NAME_1":"NA","GID_2":"LUX.3.4_1","county":"Mersch","NL_NAME_2":"NA","city":"Lintgen","VARNAME_3":"NA","NL_NAME_3":"NA","TYPE_3":"Commune","ENGTYPE_3":"Commune","CC_3":"NA","HASC_3":"NA","name":"Lintgen.city"},
"geometry":{"type": "MultiPolygon","coordinates": [[[[6.1644,49.7474,395.4743],[6.1546,49.745,402.8817],[6.143,49.7388,386.2092],[6.1339,49.7372,385.4785],[6.1228,49.7315,230.3032],[6.1195,49.7321,236.8368],[6.1099,49.7383,242.171],[6.1038,49.7375,297.5457],[6.1019,49.7354,232.7974],[6.1007999999999996,49.7268,242.4385],[6.0978,49.7212,248.2008],[6.1006,49.7149,389.7223],[6.1004,49.7064,391.9788],[6.1196,49.7058,229.7459],[6.1389,49.7156,286.7439],[6.1617,49.7159,389.5251],[6.184,49.7264,374.579],[6.1905,49.7312,414.6781],[6.1903,49.7343,383.8028],[6.1869,49.7393,338.3826],[6.1793,49.7456,359.0525],[6.1734,49.748,385.5214],[6.1644,49.7474,395.4743]]]]}}