{"type": "Feature","bbox": [6.0858,49.6854,6.1846,49.7239],"geometry": {"type": "MultiPolygon","coordinates": [[[[6.1846,49.7181,325.691],[6.1771,49.7239,399.8378],[6.1617,49.7159,389.5251],[6.1371,49.7152,327.5727],[6.1206,49.706,229.7459],[6.1004,49.7064,391.9788],[6.0858,49.6977,278.9246],[6.0974,49.6894,359.2303],[6.1054,49.6917,356.5955],[6.119,49.6917,268.1323],[6.1348,49.686,224.4906],[6.1636,49.6854,395.8307],[6.1691,49.6875,390.7541],[6.1719,49.6916,357.2099],[6.1812,49.6974,323.7227],[6.1825,49.7125,341.3226],[6.1846,49.7181,325.691]]]]}
,"properties": {"GID_3": "LUX.3.4.8_1","GID_0": "LUX","country": "Luxembourg","GID_1": "LUX.3_1","province": "Luxembourg","NL_NAME_1": "NA","GID_2": "LUX.3.4_1","county": "Mersch","NL_NAME_2": "NA","city": "Lorentzweiler","VARNAME_3": "NA","NL_NAME_3": "NA","TYPE_3": "Commune","ENGTYPE_3": "Commune","CC_3": "NA","HASC_3": "NA","name": "Lorentzweiler.city","area_km2": 17.10007,"hist_schema_id": "Elevation0-9000","hist_area_km2": {"225": 3.15417,"250": 1.48112,"275": 0.98736,"300": 0.93246,"325": 2.1666,"350": 3.03056,"375": 1.94718,"400": 2.28993,"425": 1.0147,"450": 0.09598}}}