{"type": "Feature","bbox": [6.1592,49.9213,6.2273,49.955],"geometry": {"type": "MultiPolygon","coordinates": [[[[6.2047,49.955,434.187],[6.2011,49.9531,380.0994],[6.1983,49.9484,231.3031],[6.1809,49.9466,470.429],[6.1635,49.9493,465.3127],[6.1595,49.9468,467.5068],[6.1592,49.9402,480.9197],[6.16,49.9381,476.3012],[6.1659,49.9345,395.2997],[6.1802,49.9345,476.4785],[6.1953,49.9246,366.7469],[6.2164,49.9213,295.5468],[6.2216,49.9219,238.7822],[6.2181,49.9242,201.1583],[6.226,49.9288,309.2437],[6.224,49.9319,314.8683],[6.2252,49.9334,318.4757],[6.2235,49.9341,277.9436],[6.2273,49.9366,343.1323],[6.2199,49.9433,348.0934],[6.2166,49.9444,363.0033],[6.2239,49.9499,439.0077],[6.2116,49.9502,432.5988],[6.2084,49.9545,463.8732],[6.2047,49.955,434.187]]]]}
,"properties": {"GID_3": "LUX.1.4.3_1","GID_0": "LUX","country": "Luxembourg","GID_1": "LUX.1_1","province": "Diekirch","NL_NAME_1": "NA","GID_2": "LUX.1.4_1","county": "Vianden","NL_NAME_2": "NA","city": "Vianden","VARNAME_3": "NA","NL_NAME_3": "NA","TYPE_3": "Commune","ENGTYPE_3": "Commune","CC_3": "NA","HASC_3": "NA","name": "Vianden.city","area_km2": 10.493807,"hist_schema_id": "Elevation0-9000","hist_area_km2": {"200": 0.450383,"225": 0.586799,"250": 0.504924,"275": 0.709635,"300": 0.791557,"325": 1.023543,"350": 1.02347,"375": 0.914244,"400": 0.805088,"425": 1.07796,"450": 0.927862,"475": 0.805078,"500": 0.873264}}}