{"type":"Feature","properties":{"GID_3":"LUX.3.2.2_1","GID_0":"LUX","country":"Luxembourg","GID_1":"LUX.3_1","province":"Luxembourg","NL_NAME_1":"NA","GID_2":"LUX.3.2_1","county":"Esch-sur-Alzette","NL_NAME_2":"NA","city":"Differdange","VARNAME_3":"NA","NL_NAME_3":"NA","TYPE_3":"Commune","ENGTYPE_3":"Commune","CC_3":"NA","HASC_3":"NA","name":"Differdange.city"},
"geometry":{"type": "MultiPolygon","coordinates": [[[[5.8934,49.4969,386.632],[5.9061,49.5002,398.7062],[5.9071,49.5067,402.551],[5.9125,49.5119,356.9768],[5.9125,49.5155,326.7422],[5.918,49.5211,314.0495],[5.9119,49.5323,312.4152],[5.915,49.5384,299.0876],[5.9148,49.5424,310.4312],[5.9036,49.5511,277.2736],[5.8972,49.5488,285.8934],[5.8873,49.5493,323.4904],[5.8778,49.5437,362.9883],[5.859,49.5405,391.5338],[5.8498,49.5367,317.2378],[5.8406,49.5351,386.1875],[5.8442,49.5297,394.5027],[5.8353,49.5265,296.1689],[5.836,49.52,342.8819],[5.864,49.5013,357.8039],[5.8934,49.4969,386.632]]]]}}