{"type":"Feature","properties":{"GID_3":"LUX.1.4.2_1","GID_0":"LUX","country":"Luxembourg","GID_1":"LUX.1_1","province":"Diekirch","NL_NAME_1":"NA","GID_2":"LUX.1.4_1","county":"Vianden","NL_NAME_2":"NA","city":"Tandel","VARNAME_3":"NA","NL_NAME_3":"NA","TYPE_3":"Commune","ENGTYPE_3":"Commune","CC_3":"NA","HASC_3":"NA","name":"Tandel.city"},
"geometry":{"type": "MultiPolygon","coordinates": [[[[6.2338,49.9142,194.1221],[6.229,49.9211,199.0225],[6.2164,49.9213,295.5468],[6.1953,49.9246,366.7469],[6.1802,49.9345,476.4785],[6.1659,49.9345,395.2997],[6.16,49.9381,476.3012],[6.139,49.9362,460.7223],[6.13,49.9337,484.2468],[6.1087,49.9209,364.5547],[6.1107,49.9185,369.6752],[6.1105,49.9144,458.8664],[6.1137,49.9116,418.8843],[6.1274,49.9075,321.0885],[6.1363,49.899,374.9172],[6.1483,49.8971,321.8951],[6.1557,49.8906,285.418],[6.1676,49.8869,279.4565],[6.1855,49.8705,220.5801],[6.1945,49.8757,259.0179],[6.1982,49.8822,311.0609],[6.2019,49.8848,357.381],[6.2204,49.89,370.5662],[6.2392,49.8892,320.3532],[6.239,49.8924,293.4648],[6.2369,49.8924,298.0845],[6.2366,49.896,236.6531],[6.2348,49.896,257.0104],[6.2375,49.8978,191.9202],[6.2336,49.9004,222.408],[6.2314,49.9075,192.6331],[6.2271,49.9104,208.9831],[6.2274,49.9115,201.1894],[6.2318,49.9113,194.187],[6.2338,49.9142,194.1221]]]]}}