{"type": "Feature","bbox": [6.3069,49.6099,6.4176,49.6714],"geometry": {"type": "MultiPolygon","coordinates": [[[[6.3069,49.6344,336.6378],[6.3122,49.6242,300.2892],[6.3277,49.6234,294.5202],[6.3371,49.6167,314.0782],[6.3432,49.6099,236.0725],[6.3634,49.6107,270.3105],[6.3742,49.6132,237.3463],[6.3765,49.616,263.9908],[6.3609,49.6276,257.014],[6.3511,49.6297,329.5871],[6.35,49.635,366.261],[6.3526,49.6396,368.3089],[6.36,49.6433,320.5353],[6.3716,49.6424,312.9274],[6.388,49.6308,284.6476],[6.3953,49.6201,219.8012],[6.3993,49.6187,212.8638],[6.4176,49.633,241.2017],[6.4159,49.6405,255.283],[6.4165,49.6532,307.6775],[6.3968,49.6508,257.9376],[6.3881,49.6515,304.4378],[6.3762,49.6586,271.1445],[6.3638,49.6627,298.9033],[6.3564,49.6704,290.6335],[6.346,49.6714,268.7833],[6.326,49.663,388.2201],[6.3246,49.661,383.5516],[6.3267,49.6541,385.2189],[6.3256,49.6447,306.5551],[6.3069,49.6344,336.6378]]]]}
,"properties": {"GID_3": "LUX.2.2.3_1","GID_0": "LUX","country": "Luxembourg","GID_1": "LUX.2_1","province": "Grevenmacher","NL_NAME_1": "NA","GID_2": "LUX.2.2_1","county": "Grevenmacher","NL_NAME_2": "NA","city": "Flaxweiler","VARNAME_3": "NA","NL_NAME_3": "NA","TYPE_3": "Commune","ENGTYPE_3": "Commune","CC_3": "NA","HASC_3": "NA","name": "Flaxweiler.city","area_km2": 27.98229,"hist_schema_id": "Elevation0-9000","hist_area_km2": {"200": 0.04121,"225": 1.74431,"250": 3.21359,"275": 6.20568,"300": 8.66319,"325": 5.94521,"350": 1.56511,"375": 0.52164,"400": 0.08235}}}