{"type":"Feature","properties":{"GID_3":"LUX.3.3.6_1","GID_0":"LUX","country":"Luxembourg","GID_1":"LUX.3_1","province":"Luxembourg","NL_NAME_1":"NA","GID_2":"LUX.3.3_1","county":"Luxembourg","NL_NAME_2":"NA","city":"Sandweiler","VARNAME_3":"NA","NL_NAME_3":"NA","TYPE_3":"Commune","ENGTYPE_3":"Commune","CC_3":"NA","HASC_3":"NA","name":"Sandweiler.city"},
"geometry":{"type": "MultiPolygon","coordinates": [[[[6.2434,49.6084,350.8945],[6.2367,49.6136,336.902],[6.2333,49.6221,313.1164],[6.2118,49.6362,382.3268],[6.2058,49.6355,389.3157],[6.1837,49.623,338.538],[6.1836,49.6219,350.5531],[6.1935,49.6227,358.2936],[6.1935,49.6207,358.8149],[6.1912,49.6196,357.1611],[6.1938,49.6187,355.3193],[6.1934,49.6169,350.5292],[6.2062,49.6109,350.2181],[6.2045,49.6081,341.8897],[6.1989,49.6054,319.2831],[6.1994,49.6033,331.9283],[6.2069,49.5975,329.7258],[6.2141,49.5986,318.6794],[6.2232,49.6026,318.0995],[6.2356,49.6038,335.0337],[6.2434,49.6084,350.8945]]]]}}