{"type":"Feature","properties":{"GID_3":"LUX.1.1.9_1","GID_0":"LUX","country":"Luxembourg","GID_1":"LUX.1_1","province":"Diekirch","NL_NAME_1":"NA","GID_2":"LUX.1.1_1","county":"Clervaux","NL_NAME_2":"NA","city":"ParcHosingen","VARNAME_3":"NA","NL_NAME_3":"NA","TYPE_3":"Commune","ENGTYPE_3":"Commune","CC_3":"NA","HASC_3":"NA","name":"Parc_Hosingen.city"},
"geometry":{"type": "MultiPolygon","coordinates": [[[[6.113,50.0587,300.3704],[6.1112,50.0565,351.1977],[6.1116,50.0517,446.1415],[6.0917,50.0459,478.7209],[6.0743,50.0443,534.9769],[6.0489,50.0312,443.6013],[6.0395,50.0218,400.1871],[6.0384,50.0111,394.7363],[6.0405,50.0044,492.9038],[6.0541,50.0044,455.4984],[6.0578,50.0028,389.5759],[6.0584,49.9995,466.3358],[6.0578,49.9948,517.684],[6.0544,49.9915,495.6151],[6.0384,49.9868,472.6812],[6.0315,49.9825,453.4319],[6.029,49.9787,424.06],[6.0289,49.9653,326.4674],[6.0395,49.9583,392.6832],[6.043,49.9461,376.2341],[6.0497,49.9488,405.742],[6.0503,49.9531,453.3102],[6.0524,49.9547,467.2281],[6.0631,49.9556,371.3893],[6.0644,49.9402,291.1245],[6.0671,49.937,276.7582],[6.093,49.9379,469.2653],[6.0985,49.956,460.2343],[6.1018,49.9621,460.49],[6.1025,49.9824,493.5491],[6.1092,49.9842,515.9984],[6.1175,49.9825,523.5526],[6.1254,49.9744,504.0939],[6.1294,49.9728,447.2619],[6.1413,49.9726,370.6022],[6.1551,49.9774,332.3874],[6.1564,49.9613,379.035],[6.1626,49.9613,362.2756],[6.1632,49.954,409.1395],[6.1773,49.9547,229.6227],[6.1756,49.9618,239.23],[6.1699,49.9635,256.1894],[6.1649,49.9705,234.6078],[6.1648,49.9737,233.2636],[6.1691,49.9836,242.5637],[6.1724,49.9848,287.4701],[6.1573,49.9872,238.8163],[6.1535,49.9894,321.6908],[6.1507,49.9942,246.8343],[6.1419,49.9949,274.974],[6.138,49.9982,247.7642],[6.1397,50.0001,243.3298],[6.1453,49.9984,270.9095],[6.1496,50.0089,305.0515],[6.1481,50.0102,252.5312],[6.1382,50.0112,274.8458],[6.1298,50.0188,275.8191],[6.1324,50.0191,273.0789],[6.1374,50.0158,270.0668],[6.1459,50.0227,268.1773],[6.1297,50.03,273.4437],[6.1343,50.0401,267.2208],[6.1251,50.051,299.144],[6.1215,50.0529,322.338],[6.1239,50.0598,282.9367],[6.1205,50.0601,287.3279],[6.1193,50.0565,309.9487],[6.113,50.0587,300.3704]]]]}}