{"type": "Feature","bbox": [6.0334,49.8238,6.1195,49.877],"geometry": {"type": "MultiPolygon","coordinates": [[[[6.0648,49.8662,355.7672],[6.0694,49.8597,254.647],[6.0687,49.8533,357.8047],[6.0657,49.8516,337.1969],[6.0587,49.8511,381.8745],[6.0548,49.8414,313.7541],[6.0489,49.8378,324.0947],[6.0364,49.8335,383.4212],[6.0334,49.8268,382.3243],[6.0466,49.8264,359.0225],[6.0557,49.8305,381.666],[6.0613,49.8311,373.988],[6.0658,49.8298,362.4825],[6.0747,49.8239,356.421],[6.078,49.8238,342.084],[6.0979,49.8388,204.1126],[6.1029,49.8406,230.8798],[6.1134,49.8414,330.1959],[6.1195,49.8456,233.1472],[6.1038,49.8567,267.7076],[6.0974,49.8691,315.304],[6.088,49.8762,370.5019],[6.0833,49.877,365.318],[6.0779,49.8754,300.8134],[6.0648,49.8662,355.7672]]]]}
,"properties": {"GID_3": "LUX.1.2.6_1","GID_0": "LUX","country": "Luxembourg","GID_1": "LUX.1_1","province": "Diekirch","NL_NAME_1": "NA","GID_2": "LUX.1.2_1","county": "Diekirch","NL_NAME_2": "NA","city": "Ettelbruck","VARNAME_3": "NA","NL_NAME_3": "NA","TYPE_3": "Commune","ENGTYPE_3": "Commune","CC_3": "NA","HASC_3": "NA","name": "Ettelbruck.city","area_km2": 16.35121,"hist_schema_id": "Elevation0-9000","hist_area_km2": {"200": 1.83205,"225": 1.54472,"250": 2.17364,"275": 2.35133,"300": 1.90019,"325": 1.95495,"350": 2.18754,"375": 1.91445,"400": 0.49235}}}