{"type": "Feature","bbox": [6.0059,50.0982,6.1254,50.1724],"geometry": {"type": "MultiPolygon","coordinates": [[[[6.0588,50.1578,533.4758],[6.0488,50.1359,507.0932],[6.0175,50.1182,486.4686],[6.0059,50.1087,429.3602],[6.0285,50.0982,391.278],[6.0511,50.101,463.5639],[6.0603,50.1002,504.5243],[6.0674,50.1024,483.8991],[6.0846,50.1155,516.4476],[6.1011,50.1232,504.8126],[6.1111,50.1343,406.2498],[6.1223,50.1359,379.0387],[6.1164,50.1376,438.6881],[6.1254,50.151,403.9409],[6.1204,50.1632,491.5215],[6.1016,50.1708,453.0885],[6.0808,50.1724,509.2033],[6.0775,50.1581,449.6595],[6.0708,50.1564,474.1562],[6.0588,50.1578,533.4758]]]]}
,"properties": {"GID_3": "LUX.1.1.7_1","GID_0": "LUX","country": "Luxembourg","GID_1": "LUX.1_1","province": "Diekirch","NL_NAME_1": "NA","GID_2": "LUX.1.1_1","county": "Clervaux","NL_NAME_2": "NA","city": "Weiswampach","VARNAME_3": "NA","NL_NAME_3": "NA","TYPE_3": "Commune","ENGTYPE_3": "Commune","CC_3": "NA","HASC_3": "NA","name": "Weiswampach.city","area_km2": 34.73783,"hist_schema_id": "Elevation0-9000","hist_area_km2": {"375": 0.20382,"400": 0.66586,"425": 2.22883,"450": 6.63218,"475": 13.3463,"500": 10.68238,"525": 0.96488,"550": 0.01358}}}