{"type": "Feature","bbox": [6.2745,49.7466,6.3776,49.7979],"geometry": {"type": "MultiPolygon","coordinates": [[[[6.3776,49.7699,393.118],[6.3698,49.7814,350.5065],[6.3686,49.7886,316.686],[6.3646,49.7953,316.6504],[6.3592,49.7978,324.4472],[6.3505,49.7979,327.7611],[6.3331,49.7913,342.0699],[6.3115,49.7868,355.0456],[6.3005,49.7779,323.9137],[6.2926,49.7682,305.319],[6.2782,49.7617,318.0178],[6.2745,49.7515,366.3587],[6.2764,49.7466,391.6795],[6.312,49.7576,390.6574],[6.3333,49.7596,361.0582],[6.3434,49.7571,390.5825],[6.3553,49.7573,359.5896],[6.3776,49.7699,393.118]]]]}
,"properties": {"GID_3": "LUX.2.1.4_1","GID_0": "LUX","country": "Luxembourg","GID_1": "LUX.2_1","province": "Grevenmacher","NL_NAME_1": "NA","GID_2": "LUX.2.1_1","county": "Echternach","NL_NAME_2": "NA","city": "Consdorf","VARNAME_3": "NA","NL_NAME_3": "NA","TYPE_3": "Commune","ENGTYPE_3": "Commune","CC_3": "NA","HASC_3": "NA","name": "Consdorf.city","area_km2": 21.93595,"hist_schema_id": "Elevation0-9000","hist_area_km2": {"275": 0.1232,"300": 0.397,"325": 3.55953,"350": 8.91341,"375": 6.9842,"400": 1.80794,"425": 0.15068}}}