{"type": "Feature","bbox": [5.9982,49.5185,6.3122,49.6915],"geometry": {"type": "MultiPolygon","coordinates": [[[[6.0964,49.5686,305.3524],[6.0985,49.5674,323.5416],[6.1042,49.5687,326.6566],[6.1053,49.5675,314.6433],[6.1043,49.5641,317.4636],[6.1098,49.5627,306.0255],[6.1149,49.5657,303.8086],[6.1282,49.5637,293.1731],[6.1616,49.5503,286.3187],[6.1664,49.5446,305.9236],[6.1673,49.5414,279.1681],[6.1592,49.529,299.6606],[6.1596,49.5185,254.5106],[6.1787,49.5292,275.8585],[6.1951,49.5302,247.3504],[6.2261,49.5389,289.2762],[6.2227,49.5536,325.0533],[6.2288,49.5606,297.1912],[6.2296,49.57,264.2498],[6.2556,49.5736,311.6803],[6.2589,49.5791,293.893],[6.2643,49.5836,280.3699],[6.2745,49.5873,289.7643],[6.2801,49.5877,303.1797],[6.2891,49.5853,292.9312],[6.2954,49.5873,297.3993],[6.3004,49.5915,275.0929],[6.289,49.5976,272.7354],[6.2807,49.5987,305.5292],[6.2804,49.6063,282.7566],[6.2898,49.6113,262.6436],[6.2981,49.6185,281.0775],[6.3122,49.6242,300.2892],[6.3069,49.6344,336.6378],[6.297,49.6351,314.5348],[6.2875,49.6448,274.7206],[6.2851,49.6564,257.3987],[6.2791,49.6627,304.921],[6.2768,49.6681,301.2473],[6.265,49.68,294.0284],[6.2613,49.6819,297.101],[6.2234,49.6833,375.0108],[6.213,49.6816,407.1666],[6.2054,49.686,382.8776],[6.2006,49.6867,385.6253],[6.1852,49.6844,372.5904],[6.1744,49.685,343.5231],[6.1691,49.6875,390.7541],[6.1615,49.6851,399.667],[6.138,49.6856,237.7925],[6.1211,49.6915,254.8517],[6.1035,49.6913,353.4152],[6.0938,49.688,303.6065],[6.0866,49.6829,305.7592],[6.0918,49.6678,359.3283],[6.0984,49.6629,280.7708],[6.0981,49.6481,380.6131],[6.0822,49.6496,377.1225],[6.0816,49.6538,370.18],[6.0769,49.6568,350.3587],[6.0674,49.6569,290.236],[6.0608,49.6548,318.4016],[6.0459,49.6382,326.0888],[6.0442,49.6283,307.8934],[6.0357,49.6245,295.3863],[6.0297,49.6182,301.2281],[6.021,49.6127,311.115],[6.0111,49.6096,333.0885],[5.9982,49.6081,348.3537],[5.9998,49.6013,353.1235],[6.009,49.5925,308.4798],[6.0045,49.5807,355.7309],[6.0181,49.582,338.2784],[6.0292,49.5863,301.5439],[6.0442,49.5857,324.9898],[6.0518,49.5909,322.0924],[6.0737,49.5928,320.3228],[6.0771,49.5881,291.8364],[6.0765,49.581,286.5425],[6.0825,49.5793,305.7762],[6.0907,49.5808,314.6465],[6.0941,49.5746,309.5773],[6.1009,49.5721,297.3074],[6.0964,49.5686,305.3524]]]]}
,"properties": {"GID_2": "LUX.3.3_1","GID_0": "LUX","country": "Luxembourg","GID_1": "LUX.3_1","province": "Luxembourg","NL_NAME_1": "NA","county": "Luxembourg","VARNAME_2": "NA","NL_NAME_2": "NA","TYPE_2": "Canton","ENGTYPE_2": "Canton","CC_2": "NA","HASC_2": "LU.LU.LU","name": "Luxembourg.county","area_km2": 236.2811,"hist_schema_id": "Elevation0-9000","hist_area_km2": {"225": 5.5577,"250": 17.9529,"275": 44.7728,"300": 54.2261,"325": 42.0123,"350": 26.669,"375": 22.4451,"400": 15.5364,"425": 5.8601,"450": 1.2487}}}