{"type": "Feature","bbox": [6.2556,49.5435,6.3112,49.5915],"geometry": {"type": "MultiPolygon","coordinates": [[[[6.3112,49.5759,261.0399],[6.3043,49.5819,293.5461],[6.3004,49.5915,275.0929],[6.291,49.5854,292.6165],[6.2782,49.5878,299.0159],[6.2671,49.585,287.5724],[6.2589,49.5791,293.893],[6.2556,49.5736,311.6803],[6.2608,49.5667,371.1273],[6.265,49.557,317.9566],[6.2669,49.5461,268.1135],[6.2737,49.5438,313.6278],[6.288,49.5435,311.4398],[6.2977,49.546,240.476],[6.3058,49.5577,173.6345],[6.3071,49.5709,221.7408],[6.3112,49.5759,261.0399]]]]}
,"properties": {"GID_3": "LUX.2.3.9_1","GID_0": "LUX","country": "Luxembourg","GID_1": "LUX.2_1","province": "Grevenmacher","NL_NAME_1": "NA","GID_2": "LUX.2.3_1","county": "Remich","NL_NAME_2": "NA","city": "Waldbredimus","VARNAME_3": "NA","NL_NAME_3": "NA","TYPE_3": "Commune","ENGTYPE_3": "Commune","CC_3": "NA","HASC_3": "NA","name": "Waldbredimus.city","area_km2": 14.52096,"hist_schema_id": "Elevation0-9000","hist_area_km2": {"175": 0.82519,"200": 2.88799,"225": 3.13514,"250": 2.6537,"275": 1.75981,"300": 1.60867,"325": 0.83901,"350": 0.68769,"375": 0.12377}}}