{"type": "Feature","bbox": [5.9503,50.1087,6.0588,50.1816],"geometry": {"type": "MultiPolygon","coordinates": [[[[6.0265,50.1777,534.66],[6.0249,50.1816,548.8131],[5.9676,50.1708,471.1031],[5.9541,50.1347,492.9764],[5.9516,50.1335,499.0768],[5.9503,50.1226,509.6792],[5.9567,50.1205,530.0939],[5.9833,50.1196,430.0545],[6.0059,50.1087,429.3602],[6.0175,50.1182,486.4686],[6.0455,50.1334,505.515],[6.0511,50.1398,505.7558],[6.0588,50.1578,533.4758],[6.0314,50.1656,516.3116],[6.0265,50.1777,534.66]]]]}
,"properties": {"GID_3": "LUX.1.1.6_1","GID_0": "LUX","country": "Luxembourg","GID_1": "LUX.1_1","province": "Diekirch","NL_NAME_1": "NA","GID_2": "LUX.1.1_1","county": "Clervaux","NL_NAME_2": "NA","city": "Troisvierges","VARNAME_3": "NA","NL_NAME_3": "NA","TYPE_3": "Commune","ENGTYPE_3": "Commune","CC_3": "NA","HASC_3": "NA","name": "Troisvierges.city","area_km2": 38.98151,"hist_schema_id": "Elevation0-9000","hist_area_km2": {"400": 0.05438,"425": 1.45447,"450": 5.88479,"475": 9.94688,"500": 10.52929,"525": 7.60746,"550": 3.35484,"575": 0.14939}}}