{"type":"Feature","properties":{"GID_3":"LUX.3.4.12_1","GID_0":"LUX","country":"Luxembourg","GID_1":"LUX.3_1","province":"Luxembourg","NL_NAME_1":"NA","GID_2":"LUX.3.4_1","county":"Mersch","NL_NAME_2":"NA","city":"Helperknapp","VARNAME_3":"NA","NL_NAME_3":"NA","TYPE_3":"Commune","ENGTYPE_3":"Commune","CC_3":"NA","HASC_3":"NA","name":"Helperknapp.city"},
"geometry":{"type": "MultiPolygon","coordinates": [[[[5.9929,49.7194,356.124],[5.9981,49.7105,316.756],[5.999,49.6979,317.4155],[6.0055,49.6946,247.3708],[6.0216,49.6965,314.4984],[6.0315,49.6954,245.2094],[6.0408,49.6912,369.9764],[6.0508,49.6912,355.3322],[6.0603,49.6969,383.2953],[6.0631,49.7038,348.028],[6.0773,49.7076,358.0475],[6.0799,49.7107,350.0212],[6.0775,49.7138,341.8887],[6.0703,49.7171,260.0347],[6.0656,49.725,345.2629],[6.0342,49.74,309.7572],[6.0326,49.743,315.0933],[6.0329,49.7477,312.6597],[6.044,49.7568,304.1639],[6.0458,49.7638,336.4121],[6.0348,49.7708,305.6534],[6.0337,49.7807,246.486],[6.0317,49.7835,256.3443],[6.0216,49.7875,314.4267],[6.0106,49.7896,304.576],[5.9933,49.786,295.7016],[5.9909,49.7842,305.9632],[5.9889,49.7779,284.9519],[5.9949,49.7688,241.12],[5.9915,49.766,272.96],[5.9826,49.7627,267.7755],[5.9803,49.76,250.3783],[5.9805,49.7535,261.1801],[5.9945,49.7394,317.1727],[5.9991,49.7323,291.9431],[5.9929,49.7194,356.124]]]]}}