{"type": "Feature","bbox": [6.3419,49.5327,6.3818,49.5648],"geometry": {"type": "MultiPolygon","coordinates": [[[[6.3699,49.5648,138.0],[6.3607,49.557,168.0033],[6.3452,49.5516,178.2182],[6.3427,49.548,195.3813],[6.3419,49.5407,242.7372],[6.3577,49.5327,142.4389],[6.3781,49.5485,141.9139],[6.3818,49.5545,166.5119],[6.3818,49.5578,157.0677],[6.3699,49.5648,138.0]]]]}
,"properties": {"GID_3": "LUX.2.3.6_1","GID_0": "LUX","country": "Luxembourg","GID_1": "LUX.2_1","province": "Grevenmacher","NL_NAME_1": "NA","GID_2": "LUX.2.3_1","county": "Remich","NL_NAME_2": "NA","city": "Remich","VARNAME_3": "NA","NL_NAME_3": "NA","TYPE_3": "Commune","ENGTYPE_3": "Commune","CC_3": "NA","HASC_3": "NA","name": "Remich.city","area_km2": 5.543693,"hist_schema_id": "Elevation0-9000","hist_area_km2": {"150": 1.389456,"175": 1.403062,"200": 1.623171,"225": 0.990428,"250": 0.137576}}}