{"type": "Feature","bbox": [6.3708,49.6857,6.4714,49.7501],"geometry": {"type": "MultiPolygon","coordinates": [[[[6.377,49.732,324.0602],[6.3772,49.728,339.3426],[6.3708,49.7199,325.1008],[6.3718,49.7167,304.605],[6.3875,49.7132,263.6413],[6.3943,49.7059,256.3061],[6.4221,49.6857,248.9598],[6.4347,49.6932,254.8744],[6.4509,49.692,188.3266],[6.4546,49.6966,206.0255],[6.4547,49.7006,236.1273],[6.4458,49.7082,271.6865],[6.4453,49.7104,244.9909],[6.4544,49.7149,241.6756],[6.4576,49.7237,288.3405],[6.4714,49.7375,316.708],[6.4531,49.7423,309.2938],[6.4439,49.7371,345.2846],[6.4373,49.7306,274.2805],[6.4298,49.7298,337.4211],[6.399,49.75,299.2082],[6.3902,49.7501,308.3627],[6.3808,49.7454,279.6008],[6.3823,49.7368,293.5081],[6.377,49.732,324.0602]]]]}
,"properties": {"GID_3": "LUX.2.2.6_1","GID_0": "LUX","country": "Luxembourg","GID_1": "LUX.2_1","province": "Grevenmacher","NL_NAME_1": "NA","GID_2": "LUX.2.2_1","county": "Grevenmacher","NL_NAME_2": "NA","city": "Manternach","VARNAME_3": "NA","NL_NAME_3": "NA","TYPE_3": "Commune","ENGTYPE_3": "Commune","CC_3": "NA","HASC_3": "NA","name": "Manternach.city","area_km2": 27.52536,"hist_schema_id": "Elevation0-9000","hist_area_km2": {"175": 0.17828,"200": 1.35756,"225": 2.16649,"250": 4.03109,"275": 7.77244,"300": 6.61987,"325": 4.28961,"350": 1.11001}}}