{"type": "Feature","bbox": [6.1391,49.4877,6.2356,49.5399],"geometry": {"type": "MultiPolygon","coordinates": [[[[6.2356,49.5081,255.2948],[6.2347,49.5229,265.5428],[6.2297,49.5364,277.7033],[6.2257,49.5399,287.3193],[6.2261,49.5389,289.2762],[6.1951,49.5302,247.3504],[6.1787,49.5292,275.8585],[6.1575,49.5176,253.8157],[6.1434,49.5067,267.2063],[6.1391,49.489,288.3329],[6.1446,49.4877,309.1348],[6.1575,49.4932,298.2823],[6.1568,49.5028,258.0283],[6.1752,49.5087,256.9831],[6.1796,49.5071,254.0578],[6.2167,49.5068,262.1893],[6.217,49.51,249.202],[6.2356,49.5081,255.2948]]]]}
,"properties": {"GID_3": "LUX.3.2.5_1","GID_0": "LUX","country": "Luxembourg","GID_1": "LUX.3_1","province": "Luxembourg","NL_NAME_1": "NA","GID_2": "LUX.3.2_1","county": "Esch-sur-Alzette","NL_NAME_2": "NA","city": "Frisange","VARNAME_3": "NA","NL_NAME_3": "NA","TYPE_3": "Commune","ENGTYPE_3": "Commune","CC_3": "NA","HASC_3": "NA","name": "Frisange.city","area_km2": 17.12385,"hist_schema_id": "Elevation0-9000","hist_area_km2": {"225": 0.30282,"250": 11.70026,"275": 4.43236,"300": 0.67463,"325": 0.01377}}}