{"type": "Feature","bbox": [6.1466,49.7848,6.2762,49.8549],"geometry": {"type": "MultiPolygon","coordinates": [[[[6.1574,49.8497,318.0161],[6.1466,49.8426,340.8269],[6.15,49.8354,362.2075],[6.1501,49.826,351.3912],[6.1736,49.8211,347.4121],[6.1839,49.8245,333.3995],[6.1915,49.8234,327.1833],[6.1909,49.812,321.4518],[6.1987,49.802,395.5368],[6.2123,49.7941,361.0077],[6.2202,49.7939,266.246],[6.2296,49.7961,365.9766],[6.2352,49.7953,384.8195],[6.2383,49.7923,389.2987],[6.2383,49.7849,342.5392],[6.2424,49.7848,340.4874],[6.2448,49.7867,346.8601],[6.2524,49.7986,379.7869],[6.272,49.8158,354.9238],[6.273,49.8194,345.3059],[6.2624,49.8283,383.9761],[6.2762,49.8463,405.1269],[6.2741,49.8496,404.3478],[6.2694,49.8525,358.7757],[6.2561,49.8549,293.3381],[6.2415,49.8491,271.4807],[6.2358,49.8484,260.1078],[6.2299,49.8489,249.959],[6.2146,49.8541,321.0741],[6.1964,49.8475,326.6314],[6.1906,49.8469,345.5297],[6.1675,49.8476,289.3922],[6.1574,49.8497,318.0161]]]]}
,"properties": {"GID_3": "LUX.1.2.13_1","GID_0": "LUX","country": "Luxembourg","GID_1": "LUX.1_1","province": "Diekirch","NL_NAME_1": "NA","GID_2": "LUX.1.2_1","county": "Diekirch","NL_NAME_2": "NA","city": "Valléedel'Ernz","VARNAME_3": "NA","NL_NAME_3": "NA","TYPE_3": "Commune","ENGTYPE_3": "Commune","CC_3": "NA","HASC_3": "NA","name": "Valléedel'Ernz.city","area_km2": 41.53904,"hist_schema_id": "Elevation0-9000","hist_area_km2": {"250": 1.86009,"275": 4.63635,"300": 7.84967,"325": 8.78019,"350": 4.74659,"375": 5.59575,"400": 6.59329,"425": 1.40873,"450": 0.06839}}}