{"type":"Feature","properties":{"GID_3":"LUX.3.4.4_1","GID_0":"LUX","country":"Luxembourg","GID_1":"LUX.3_1","province":"Luxembourg","NL_NAME_1":"NA","GID_2":"LUX.3.4_1","county":"Mersch","NL_NAME_2":"NA","city":"Fischbach","VARNAME_3":"NA","NL_NAME_3":"NA","TYPE_3":"Commune","ENGTYPE_3":"Commune","CC_3":"NA","HASC_3":"NA","name":"Fischbach.city"},
"geometry":{"type": "MultiPolygon","coordinates": [[[[6.2327,49.7464,385.2337],[6.225,49.7577,344.6967],[6.1847,49.7621,400.5382],[6.1605,49.7776,384.5639],[6.1493,49.7631,415.5733],[6.1522,49.7592,389.4249],[6.1623,49.7542,408.3375],[6.1644,49.7474,395.4743],[6.1753,49.7476,379.5009],[6.1869,49.7393,338.3826],[6.1903,49.7343,383.8028],[6.1905,49.7312,414.6781],[6.184,49.7264,374.579],[6.1771,49.7239,399.8378],[6.1846,49.7181,325.691],[6.1926,49.7174,320.0866],[6.1984,49.7193,310.3329],[6.2019,49.7222,313.379],[6.2052,49.7286,299.4414],[6.2269,49.74,354.6426],[6.2327,49.7464,385.2337]]]]}}