{"type": "Feature","bbox": [5.9182,49.6407,5.9933,49.69],"geometry": {"type": "MultiPolygon","coordinates": [[[[5.9182,49.6732,333.708],[5.9519,49.6491,324.6093],[5.9596,49.6407,331.4097],[5.9674,49.6452,324.6112],[5.982,49.6483,320.1876],[5.9922,49.6649,316.7],[5.9933,49.6691,341.9933],[5.9926,49.6755,347.2484],[5.9878,49.6849,355.6265],[5.9857,49.6869,347.9145],[5.9735,49.69,370.2172],[5.964,49.6891,366.4086],[5.936,49.675,313.2972],[5.9182,49.6732,333.708]]]]}
,"properties": {"GID_3": "LUX.3.1.7_1","GID_0": "LUX","country": "Luxembourg","GID_1": "LUX.3_1","province": "Luxembourg","NL_NAME_1": "NA","GID_2": "LUX.3.1_1","county": "Capellen","NL_NAME_2": "NA","city": "Koerich","VARNAME_3": "NA","NL_NAME_3": "NA","TYPE_3": "Commune","ENGTYPE_3": "Commune","CC_3": "NA","HASC_3": "NA","name": "Koerich.city","area_km2": 16.75528,"hist_schema_id": "Elevation0-9000","hist_area_km2": {"275": 0.0686,"300": 1.61917,"325": 10.47138,"350": 3.18309,"375": 1.38561,"400": 0.02744}}}