{"type": "Feature","bbox": [6.0866,49.6499,6.213,49.6919],"geometry": {"type": "MultiPolygon","coordinates": [[[[6.1691,49.6875,390.7541],[6.1615,49.6851,399.667],[6.138,49.6856,237.7925],[6.132,49.6867,224.8486],[6.1231,49.6911,240.1716],[6.1084,49.6919,363.3211],[6.0952,49.6885,349.2067],[6.0866,49.6829,305.7592],[6.0918,49.6678,359.3283],[6.0984,49.6629,280.7708],[6.119,49.6647,229.6957],[6.1332,49.6716,233.4979],[6.1509,49.6712,345.6282],[6.1628,49.6633,416.7307],[6.1642,49.6534,408.9164],[6.1665,49.6533,407.2082],[6.1666,49.6499,397.9766],[6.17,49.6508,410.1165],[6.1779,49.6605,381.1126],[6.1945,49.6663,406.598],[6.213,49.6816,407.1666],[6.2026,49.6866,390.4312],[6.1812,49.6843,335.7841],[6.1744,49.685,343.5231],[6.1691,49.6875,390.7541]]]]}
,"properties": {"GID_3": "LUX.3.3.8_1","GID_0": "LUX","country": "Luxembourg","GID_1": "LUX.3_1","province": "Luxembourg","NL_NAME_1": "NA","GID_2": "LUX.3.3_1","county": "Luxembourg","NL_NAME_2": "NA","city": "Steinsel","VARNAME_3": "NA","NL_NAME_3": "NA","TYPE_3": "Commune","ENGTYPE_3": "Commune","CC_3": "NA","HASC_3": "NA","name": "Steinsel.city","area_km2": 20.52541,"hist_schema_id": "Elevation0-9000","hist_area_km2": {"225": 2.52445,"250": 1.4406,"275": 0.87807,"300": 0.63107,"325": 0.94663,"350": 2.62038,"375": 4.00629,"400": 5.07662,"425": 1.85248,"450": 0.54882}}}