{"type":"Feature","properties":{"GID_3":"LUX.2.2.5_1","GID_0":"LUX","country":"Luxembourg","GID_1":"LUX.2_1","province":"Grevenmacher","NL_NAME_1":"NA","GID_2":"LUX.2.2_1","county":"Grevenmacher","NL_NAME_2":"NA","city":"Junglinster","VARNAME_3":"NA","NL_NAME_3":"NA","TYPE_3":"Commune","ENGTYPE_3":"Commune","CC_3":"NA","HASC_3":"NA","name":"Junglinster.city"},
"geometry":{"type": "MultiPolygon","coordinates": [[[[6.2679,49.7418,299.4491],[6.2577,49.7456,355.8353],[6.2327,49.7464,385.2337],[6.2269,49.74,354.6426],[6.2052,49.7286,299.4414],[6.2019,49.7222,313.379],[6.1984,49.7193,310.3329],[6.1926,49.7174,320.0866],[6.1846,49.7181,325.691],[6.1825,49.7125,341.3226],[6.1812,49.6974,323.7227],[6.1719,49.6916,357.2099],[6.1691,49.6875,390.7541],[6.1744,49.685,343.5231],[6.1812,49.6843,335.7841],[6.2026,49.6866,390.4312],[6.213,49.6816,407.1666],[6.2234,49.6833,375.0108],[6.2613,49.6819,297.101],[6.265,49.68,294.0284],[6.2768,49.6681,301.2473],[6.2913,49.6739,290.7941],[6.2989,49.682,261.4164],[6.3013,49.6979,292.1622],[6.309,49.7016,290.2075],[6.316,49.7084,271.6759],[6.3167,49.7116,325.4831],[6.3141,49.7191,296.8757],[6.3174,49.7219,304.0415],[6.3225,49.7232,299.4771],[6.3093,49.7327,304.639],[6.2883,49.739,368.5663],[6.2679,49.7418,299.4491]]]]}}