{"type":"Feature","properties":{"GID_3":"LUX.1.5.6_1","GID_0":"LUX","country":"Luxembourg","GID_1":"LUX.1_1","province":"Diekirch","NL_NAME_1":"NA","GID_2":"LUX.1.5_1","county":"Wiltz","NL_NAME_2":"NA","city":"Kiischpelt","VARNAME_3":"NA","NL_NAME_3":"NA","TYPE_3":"Commune","ENGTYPE_3":"Commune","CC_3":"NA","HASC_3":"NA","name":"Kiischpelt.city"},
"geometry":{"type": "MultiPolygon","coordinates": [[[[5.9843,50.0142,434.9503],[5.9706,50.0059,388.886],[5.9644,49.9984,330.3018],[5.9643,49.9945,383.1965],[5.9709,49.9877,388.3254],[5.9719,49.9817,378.4497],[5.9707,49.9771,369.8853],[5.963,49.9716,355.6858],[5.9629,49.9688,325.3819],[5.9761,49.9645,421.4785],[5.9832,49.9572,303.4438],[5.9945,49.9496,444.4957],[6.0071,49.9505,261.1707],[6.027,49.9403,251.0298],[6.0407,49.9398,287.2835],[6.0408,49.9438,384.5845],[6.043,49.9461,376.2341],[6.0402,49.9564,417.1247],[6.0386,49.9593,410.7104],[6.0289,49.9653,326.4674],[6.029,49.9787,424.06],[6.0315,49.9825,453.4319],[6.0384,49.9868,472.6812],[6.0504,49.9895,473.7464],[6.0558,49.9924,511.826],[6.0582,49.9961,518.8387],[6.0578,50.0028,389.5759],[6.0523,50.0048,452.8079],[6.0453,50.0051,468.3843],[6.0268,50.0008,377.2084],[6.0132,50.0083,407.4933],[5.9843,50.0142,434.9503]]]]}}