{"type": "Feature","bbox": [6.1592,49.5185,6.2296,49.5777],"geometry": {"type": "MultiPolygon","coordinates": [[[[6.2296,49.57,264.2498],[6.2242,49.5724,279.5938],[6.2098,49.5739,298.7555],[6.2005,49.5777,305.2489],[6.1944,49.5643,297.4724],[6.187,49.5612,299.3732],[6.1806,49.5557,294.0292],[6.1616,49.5503,286.3187],[6.1664,49.5446,305.9236],[6.1673,49.5414,279.1681],[6.1592,49.529,299.6606],[6.1596,49.5185,254.5106],[6.1787,49.5292,275.8585],[6.1951,49.5302,247.3504],[6.2261,49.5389,289.2762],[6.2227,49.5536,325.0533],[6.2288,49.5606,297.1912],[6.2296,49.57,264.2498]]]]}
,"properties": {"GID_3": "LUX.3.3.11_1","GID_0": "LUX","country": "Luxembourg","GID_1": "LUX.3_1","province": "Luxembourg","NL_NAME_1": "NA","GID_2": "LUX.3.3_1","county": "Luxembourg","NL_NAME_2": "NA","city": "Weiler-la-Tour","VARNAME_3": "NA","NL_NAME_3": "NA","TYPE_3": "Commune","ENGTYPE_3": "Commune","CC_3": "NA","HASC_3": "NA","name": "Weiler-la-Tour.city","area_km2": 17.44259,"hist_schema_id": "Elevation0-9000","hist_area_km2": {"250": 1.83008,"275": 6.58993,"300": 5.33682,"325": 3.17692,"350": 0.50883}}}