{"type": "Feature","bbox": [6.1691,49.4595,6.5305,49.8511],"geometry": {"type": "MultiPolygon","coordinates": [[[[6.3239,49.4742,232.2482],[6.3338,49.4669,263.7311],[6.3434,49.4684,277.1978],[6.3471,49.466,282.4735],[6.3512,49.467,254.1831],[6.3644,49.4595,225.5974],[6.3689,49.4598,142.0],[6.3676,49.4665,142.4394],[6.3723,49.4666,170.9788],[6.3714,49.4686,150.1496],[6.3671,49.4695,141.9263],[6.3688,49.4885,143.9553],[6.3671,49.4957,140.0],[6.3675,49.5027,142.2573],[6.357,49.5313,138.5],[6.3613,49.5366,139.4725],[6.3783,49.5487,141.9139],[6.3822,49.5567,146.979],[6.3801,49.5595,139.2283],[6.359,49.5703,140.9544],[6.3579,49.5738,139.9469],[6.3677,49.5786,141.2484],[6.3769,49.5765,138.8055],[6.381,49.5772,146.4638],[6.3819,49.5808,144.8523],[6.3742,49.5878,140.3936],[6.3749,49.5919,137.8314],[6.3858,49.5999,136.7261],[6.3998,49.6027,137.8009],[6.411,49.6138,137.3004],[6.4214,49.62,150.0917],[6.4275,49.6341,139.0072],[6.4408,49.6559,134.5],[6.4378,49.6599,135.6456],[6.4266,49.6612,134.6543],[6.4261,49.6638,135.2458],[6.43,49.6689,136.7116],[6.4473,49.6782,131.3561],[6.4602,49.6914,133.5753],[6.4804,49.6968,144.4405],[6.4962,49.7097,131.0102],[6.5025,49.7127,132.362],[6.507,49.7126,130.1222],[6.5065,49.7164,142.4909],[6.4962,49.7231,137.5812],[6.496,49.726,136.0142],[6.5026,49.7267,137.6699],[6.5116,49.7211,136.4624],[6.5172,49.7236,143.8057],[6.5022,49.7326,139.0652],[6.5027,49.7456,140.9584],[6.5006,49.7486,147.6632],[6.5005,49.7521,150.4121],[6.5043,49.7552,142.951],[6.5141,49.7582,205.6449],[6.5184,49.7617,167.8981],[6.5175,49.7687,142.4157],[6.5098,49.7742,142.0265],[6.5168,49.7832,145.5143],[6.5089,49.7864,151.8326],[6.5059,49.7894,145.077],[6.5079,49.7919,148.1598],[6.521,49.797,147.0431],[6.5305,49.805,197.0834],[6.5293,49.8094,148.2438],[6.5269,49.8113,148.5452],[6.5195,49.8129,165.6608],[6.5164,49.8053,185.4333],[6.5114,49.8018,156.0038],[6.5058,49.8092,183.7774],[6.4959,49.8123,160.4417],[6.4877,49.8122,155.2117],[6.48,49.819,187.3309],[6.4709,49.8226,157.4183],[6.4634,49.8191,162.4307],[6.4545,49.8115,184.4026],[6.4435,49.8116,179.8754],[6.4407,49.8142,159.3065],[6.4304,49.8105,159.8661],[6.4268,49.8123,160.799],[6.4255,49.8159,208.0037],[6.4103,49.8176,162.8173],[6.3974,49.8223,159.9828],[6.3642,49.8508,179.5298],[6.349,49.8505,180.6175],[6.3406,49.8485,174.9295],[6.3365,49.8389,179.8934],[6.329,49.8361,177.683],[6.3123,49.8355,338.0979],[6.3115,49.8429,356.3408],[6.3171,49.8469,228.8773],[6.3158,49.8511,247.1117],[6.3132,49.846,289.8021],[6.3088,49.8439,352.7404],[6.2863,49.8443,379.4784],[6.2762,49.8463,405.1269],[6.2624,49.8283,383.9761],[6.273,49.8194,345.3059],[6.2714,49.8146,359.1453],[6.2524,49.7986,379.7869],[6.2424,49.7848,340.4874],[6.2436,49.7818,356.7404],[6.2467,49.7797,351.3288],[6.2622,49.7782,347.1682],[6.2693,49.7734,327.6548],[6.2722,49.7665,323.5847],[6.2782,49.7617,318.0178],[6.2745,49.7521,344.5496],[6.2764,49.7466,391.6795],[6.2679,49.7418,299.4491],[6.2577,49.7456,355.8353],[6.2327,49.7464,385.2337],[6.2269,49.74,354.6426],[6.2052,49.7286,299.4414],[6.2019,49.7222,313.379],[6.1984,49.7193,310.3329],[6.1926,49.7174,320.0866],[6.1846,49.7181,325.691],[6.1825,49.7125,341.3226],[6.1812,49.6974,323.7227],[6.1719,49.6916,357.2099],[6.1691,49.6875,390.7541],[6.1744,49.685,343.5231],[6.1812,49.6843,335.7841],[6.2026,49.6866,390.4312],[6.213,49.6816,407.1666],[6.2234,49.6833,375.0108],[6.263,49.6813,296.0524],[6.2768,49.6681,301.2473],[6.2791,49.6627,304.921],[6.2851,49.6564,257.3987],[6.2867,49.6459,249.4911],[6.2945,49.6368,348.4287],[6.2987,49.6346,311.5606],[6.3069,49.6344,336.6378],[6.3122,49.6242,300.2892],[6.2981,49.6185,281.0775],[6.2898,49.6113,262.6436],[6.2817,49.6079,272.1708],[6.2798,49.6044,282.0089],[6.2807,49.5987,305.5292],[6.289,49.5976,272.7354],[6.3004,49.5915,275.0929],[6.291,49.5854,292.6165],[6.2782,49.5878,299.0159],[6.2671,49.585,287.5724],[6.2589,49.5791,293.893],[6.2556,49.5736,311.6803],[6.2296,49.57,264.2498],[6.2288,49.5606,297.1912],[6.2228,49.5526,325.0533],[6.2257,49.5399,287.3193],[6.2297,49.5364,277.7033],[6.2347,49.5229,265.5428],[6.2364,49.5085,254.3259],[6.2427,49.5122,245.873],[6.2762,49.5035,193.1787],[6.2806,49.4942,191.3346],[6.2895,49.487,174.2137],[6.2992,49.4882,169.9248],[6.2956,49.4817,165.1008],[6.3199,49.4771,197.8164],[6.3239,49.4742,232.2482]]]]}
,"properties": {"GID_1": "LUX.2_1","GID_0": "LUX","country": "Luxembourg","province": "Grevenmacher","VARNAME_1": "Gréivemaacher","NL_NAME_1": "NA","TYPE_1": "District","ENGTYPE_1": "District","CC_1": "NA","HASC_1": "LU.GR","ISO_1": "LU-GR","name": "Grevenmacher.province","area_km2": 524.1684,"hist_schema_id": "Elevation0-9000","hist_area_km2": {"125": 1.7974,"150": 17.8009,"175": 22.5161,"200": 29.3855,"225": 43.139,"250": 57.784,"275": 79.2423,"300": 90.224,"325": 77.7228,"350": 56.0234,"375": 34.1045,"400": 13.7162,"425": 0.7124}}}