{"type":"Feature","properties":{"ISO3166-1-Alpha-3":"LUX","country":"Luxembourg","fill":"#F00","id":"907","name":"Grevenmacher"},
"geometry":{"type": "Polygon","coordinates": [[[6.31065,49.83448,317.8581],[6.30259,49.83494,339.4079],[6.30156,49.8383,364.2614],[6.29557,49.84862,376.4948],[6.2952,49.84859,376.4948],[6.27706,49.84709,408.3259],[6.26962,49.84497,406.889],[6.26389,49.84109,408.1671],[6.258,49.8328,406.743],[6.25614,49.8281,408.5374],[6.25831,49.82388,387.9425],[6.26156,49.82218,368.5551],[6.26683,49.82003,347.2048],[6.26668,49.81569,339.5712],[6.2659,49.81221,341.0827],[6.24632,49.79055,363.9998],[6.26218,49.77908,348.3813],[6.26699,49.77707,349.135],[6.27257,49.77306,325.6637],[6.27458,49.77009,326.05],[6.26296,49.74668,339.3764],[6.24802,49.74627,371.7754],[6.24105,49.74709,380.0388],[6.22833,49.74187,383.4448],[6.22012,49.73691,364.2915],[6.17464,49.68999,357.7161],[6.25112,49.68875,344.67],[6.26482,49.68627,315.1233],[6.2783,49.68022,291.7765],[6.28559,49.67433,300.5083],[6.29505,49.64798,244.853],[6.31215,49.62723,314.4857],[6.29117,49.61589,288.3151],[6.28714,49.61263,261.7798],[6.28513,49.60912,271.9312],[6.289,49.6055,279.2873],[6.29443,49.60224,279.9245],[6.29954,49.59842,279.5839],[6.30125,49.59361,286.9327],[6.29877,49.58754,298.596],[6.28063,49.58493,296.2262],[6.27303,49.58235,260.2762],[6.24089,49.56204,347.5821],[6.23391,49.55356,303.8392],[6.23484,49.54003,297.2928],[6.24709,49.50613,233.0534],[6.25112,49.48946,254.7201],[6.29877,49.46623,177.5532],[6.32533,49.45672,236.2565],[6.34531,49.45535,178.6271],[6.34538,49.46272,281.342],[6.34228,49.493,273.9099],[6.34881,49.52529,197.4676],[6.35075,49.53491,205.7899],[6.35075,49.56659,175.1519],[6.35644,49.5776,227.8583],[6.37153,49.59299,218.7203],[6.39757,49.61387,237.2966],[6.4077,49.62741,257.4362],[6.41525,49.63465,280.0172],[6.41793,49.63914,297.1218],[6.417,49.64576,260.0361],[6.41091,49.64963,311.7321],[6.4045,49.65247,280.1122],[6.40274,49.65578,301.1046],[6.41824,49.66989,263.0277],[6.49173,49.70079,227.3482],[6.48976,49.70296,146.6492],[6.48294,49.70808,157.2248],[6.48635,49.71294,214.1796],[6.491,49.71443,207.543],[6.49969,49.71221,136.2498],[6.49255,49.71841,231.397],[6.4878,49.7256,223.7046],[6.48553,49.73376,315.7388],[6.48625,49.7427,281.1491],[6.49596,49.74823,232.9484],[6.49638,49.75211,244.6431],[6.49369,49.75655,325.0816],[6.49379,49.76363,353.3965],[6.49855,49.78539,314.5882],[6.5,49.78606,314.6844],[6.5001,49.79448,231.2747],[6.50227,49.79588,198.4002],[6.50258,49.79567,198.4002],[6.49721,49.79944,206.6107],[6.49328,49.7996,266.3761],[6.46248,49.80549,313.2556],[6.41452,49.80549,167.0776],[6.39706,49.80859,336.352],[6.38011,49.81557,317.3624],[6.35137,49.83329,374.4354],[6.33442,49.84021,195.9459],[6.32564,49.84037,231.8992],[6.31065,49.83448,317.8581]]]}}