{"type": "Feature","bbox": [6.2227,49.4595,6.3822,49.6242],"geometry": {"type": "MultiPolygon","coordinates": [[[[6.3243,49.4738,232.2482],[6.3338,49.4669,263.7311],[6.3434,49.4684,277.1978],[6.3471,49.466,282.4735],[6.3512,49.467,254.1831],[6.3644,49.4595,225.5974],[6.3689,49.4598,142.0],[6.3676,49.4665,142.4394],[6.3723,49.4666,170.9788],[6.3714,49.4686,150.1496],[6.3671,49.4695,141.9263],[6.3688,49.4885,143.9553],[6.3671,49.4957,140.0],[6.3675,49.5027,142.2573],[6.357,49.5313,138.5],[6.3613,49.5366,139.4725],[6.3783,49.5487,141.9139],[6.3822,49.5567,146.979],[6.3801,49.5595,139.2283],[6.359,49.5703,140.9544],[6.3575,49.5729,139.7672],[6.3613,49.5763,146.9946],[6.3677,49.5786,141.2484],[6.3783,49.5764,137.5],[6.3816,49.5778,146.4638],[6.3821,49.5801,151.6952],[6.3747,49.5868,138.0484],[6.3743,49.5908,137.8314],[6.37,49.5919,219.0237],[6.3765,49.5945,148.0102],[6.3774,49.5995,222.0541],[6.3753,49.6032,176.8718],[6.3683,49.6081,239.6977],[6.3634,49.6107,270.3105],[6.3446,49.6093,236.0725],[6.3277,49.6234,294.5202],[6.3122,49.6242,300.2892],[6.2981,49.6185,281.0775],[6.2898,49.6113,262.6436],[6.2824,49.6083,272.1708],[6.2801,49.6057,282.7566],[6.2807,49.5987,305.5292],[6.2874,49.5981,280.8615],[6.2961,49.5949,270.3362],[6.3004,49.5915,275.0929],[6.298,49.5892,296.5553],[6.291,49.5854,292.6165],[6.2745,49.5873,289.7643],[6.2643,49.5836,280.3699],[6.2589,49.5791,293.893],[6.2556,49.5736,311.6803],[6.2296,49.57,264.2498],[6.2288,49.5606,297.1912],[6.2227,49.5536,325.0533],[6.2257,49.5399,287.3193],[6.2297,49.5364,277.7033],[6.2347,49.5229,265.5428],[6.2364,49.5085,254.3259],[6.2427,49.5122,245.873],[6.2762,49.5035,193.1787],[6.2806,49.4942,191.3346],[6.2895,49.487,174.2137],[6.2992,49.4882,169.9248],[6.2956,49.4817,165.1008],[6.3199,49.4771,197.8164],[6.3243,49.4738,232.2482]]]]}
,"properties": {"GID_2": "LUX.2.3_1","GID_0": "LUX","country": "Luxembourg","GID_1": "LUX.2_1","province": "Grevenmacher","NL_NAME_1": "NA","county": "Remich","VARNAME_2": "NA","NL_NAME_2": "NA","TYPE_2": "Canton","ENGTYPE_2": "Canton","CC_2": "NA","HASC_2": "LU.GR.RE","name": "Remich.county","area_km2": 127.33532,"hist_schema_id": "Elevation0-9000","hist_area_km2": {"125": 0.05507,"150": 9.04243,"175": 11.61154,"200": 17.94174,"225": 20.92795,"250": 20.97819,"275": 23.05202,"300": 12.91491,"325": 6.658,"350": 2.80577,"375": 1.33393,"400": 0.01375}}}