{"type":"Feature","properties":{"GID_3":"LUX.2.1.9_1","GID_0":"LUX","country":"Luxembourg","GID_1":"LUX.2_1","province":"Grevenmacher","NL_NAME_1":"NA","GID_2":"LUX.2.1_1","county":"Echternach","NL_NAME_2":"NA","city":"Rosport-Mompach","VARNAME_3":"NA","NL_NAME_3":"NA","TYPE_3":"Commune","ENGTYPE_3":"Commune","CC_3":"NA","HASC_3":"NA","name":"Rosport-Mompach.city"},
"geometry":{"type": "MultiPolygon","coordinates": [[[[6.4561,49.8125,160.2188],[6.4612,49.8029,320.7207],[6.4672,49.7967,349.2725],[6.4669,49.7895,335.4785],[6.4601,49.7871,323.3468],[6.4508,49.7919,283.5826],[6.4432,49.7923,276.4793],[6.3995,49.7709,380.101],[6.3946,49.7676,345.8176],[6.3953,49.7653,350.3431],[6.3977,49.7607,343.663],[6.4048,49.7548,332.6698],[6.399,49.75,299.2082],[6.4298,49.7298,337.4211],[6.4373,49.7306,274.2805],[6.4465,49.739,356.9661],[6.4554,49.7424,302.8461],[6.4714,49.7375,316.708],[6.4786,49.7372,314.6342],[6.503,49.7315,180.3539],[6.5016,49.7347,142.2859],[6.5027,49.7456,140.9584],[6.5006,49.7486,147.6632],[6.5005,49.7521,150.4121],[6.5043,49.7552,142.951],[6.5157,49.7591,145.1721],[6.5186,49.7625,145.5837],[6.5175,49.7687,142.4157],[6.5098,49.7742,142.0265],[6.5168,49.7832,145.5143],[6.5071,49.7875,145.2112],[6.506,49.7901,145.077],[6.521,49.797,147.0431],[6.5305,49.805,197.0834],[6.5293,49.8094,148.2438],[6.5254,49.8119,150.9891],[6.5195,49.8129,165.6608],[6.5164,49.8053,185.4333],[6.5114,49.8018,156.0038],[6.5058,49.8092,183.7774],[6.4959,49.8123,160.4417],[6.4877,49.8122,155.2117],[6.48,49.819,187.3309],[6.4709,49.8226,157.4183],[6.4634,49.8191,162.4307],[6.4561,49.8125,160.2188]]]]}}