{"type": "Feature","bbox": [5.8303,49.7438,5.9411,49.8094],"geometry": {"type": "MultiPolygon","coordinates": [[[[5.9411,49.7519,321.0383],[5.9279,49.7693,294.1357],[5.9298,49.7775,253.7831],[5.9271,49.7847,328.221],[5.9234,49.7873,294.5656],[5.9135,49.7901,331.4384],[5.9002,49.8065,338.4806],[5.8933,49.7981,409.4888],[5.884,49.7944,396.3079],[5.8651,49.7951,393.1294],[5.847,49.7986,402.176],[5.8409,49.8022,458.1171],[5.8347,49.8094,500.4772],[5.8309,49.8051,473.5614],[5.8303,49.7918,392.5082],[5.8345,49.7848,384.7],[5.8384,49.7823,374.0652],[5.8579,49.7779,316.4407],[5.8639,49.7743,310.4835],[5.8662,49.7691,305.8035],[5.8648,49.7575,313.424],[5.8731,49.7513,288.6231],[5.891,49.7449,293.0454],[5.915,49.7438,277.1191],[5.922,49.7443,271.0289],[5.9411,49.7519,321.0383]]]]}
,"properties": {"GID_3": "LUX.1.3.6_1","GID_0": "LUX","country": "Luxembourg","GID_1": "LUX.1_1","province": "Diekirch","NL_NAME_1": "NA","GID_2": "LUX.1.3_1","county": "Redange","NL_NAME_2": "NA","city": "Redange","VARNAME_3": "NA","NL_NAME_3": "NA","TYPE_3": "Commune","ENGTYPE_3": "Commune","CC_3": "NA","HASC_3": "NA","name": "Redange.city","area_km2": 30.78077,"hist_schema_id": "Elevation0-9000","hist_area_km2": {"250": 0.49296,"275": 9.01255,"300": 7.23038,"325": 6.40737,"350": 3.35367,"375": 2.09417,"400": 1.39597,"425": 0.32844,"450": 0.24632,"475": 0.16421,"500": 0.05473}}}