{"type":"Feature","properties":{"GID_3":"LUX.1.5.9_1","GID_0":"LUX","country":"Luxembourg","GID_1":"LUX.1_1","province":"Diekirch","NL_NAME_1":"NA","GID_2":"LUX.1.5_1","county":"Wiltz","NL_NAME_2":"NA","city":"Wiltz","VARNAME_3":"NA","NL_NAME_3":"NA","TYPE_3":"Commune","ENGTYPE_3":"Commune","CC_3":"NA","HASC_3":"NA","name":"Wiltz.city"},
"geometry":{"type": "MultiPolygon","coordinates": [[[[5.961,50.0363,514.0342],[5.9451,50.028,460.5345],[5.936,50.0252,450.0482],[5.9315,50.0257,464.744],[5.9232,50.0302,487.7299],[5.9167,50.0284,405.837],[5.9162,50.0258,430.4413],[5.9223,50.02,452.5724],[5.9228,50.0174,427.7289],[5.9162,50.0111,433.579],[5.9137,50.0029,534.5759],[5.905,49.9979,488.6197],[5.9118,49.994,501.8943],[5.9156,49.9894,415.9656],[5.9135,49.9737,400.6307],[5.9078,49.9691,380.6318],[5.8934,49.9653,362.704],[5.8819,49.9574,462.9007],[5.8805,49.9544,497.3688],[5.8906,49.9447,457.5045],[5.8958,49.943,450.3763],[5.9124,49.942,444.8885],[5.9226,49.9342,435.5615],[5.945,49.9395,396.2203],[5.9489,49.9419,455.1627],[5.9509,49.9627,382.9932],[5.9536,49.9652,324.6892],[5.9629,49.9688,325.3819],[5.963,49.9716,355.6858],[5.9713,49.9784,369.8853],[5.9715,49.9864,368.9526],[5.9646,49.9938,342.1872],[5.9647,49.999,336.6131],[5.9706,50.0059,388.886],[5.9843,50.0142,434.9503],[5.9818,50.0188,464.4309],[5.9823,50.0229,477.8079],[5.9704,50.0336,447.2802],[5.961,50.0363,514.0342]]]]}}