{"type":"Feature","properties":{"GID_3":"LUX.2.1.3_1","GID_0":"LUX","country":"Luxembourg","GID_1":"LUX.2_1","province":"Grevenmacher","NL_NAME_1":"NA","GID_2":"LUX.2.1_1","county":"Echternach","NL_NAME_2":"NA","city":"Berdorf","VARNAME_3":"NA","NL_NAME_3":"NA","TYPE_3":"Commune","ENGTYPE_3":"Commune","CC_3":"NA","HASC_3":"NA","name":"Berdorf.city"},
"geometry":{"type": "MultiPolygon","coordinates": [[[[6.3338,49.8374,176.7693],[6.3353,49.8188,361.4898],[6.332,49.8121,365.7789],[6.3221,49.8049,309.8457],[6.3134,49.7942,263.1744],[6.3115,49.7868,355.0456],[6.3331,49.7913,342.0699],[6.3505,49.7979,327.7611],[6.3592,49.7978,324.4472],[6.3646,49.7953,316.6504],[6.3802,49.804,333.4528],[6.3892,49.8072,327.6037],[6.3944,49.8116,346.7244],[6.3946,49.8155,339.2275],[6.3876,49.8262,262.9359],[6.388,49.8305,171.5505],[6.3642,49.8508,179.5298],[6.349,49.8505,180.6175],[6.3406,49.8485,174.9295],[6.3376,49.8402,179.1432],[6.3338,49.8374,176.7693]]]]}}