{"type": "Feature","bbox": [6.4451,49.6879,6.5169,49.7375],"geometry": {"type": "MultiPolygon","coordinates": [[[[6.507,49.7126,130.1222],[6.5065,49.7164,142.4909],[6.4962,49.7231,137.5812],[6.4952,49.7253,167.4955],[6.5026,49.7267,137.6699],[6.5116,49.7211,136.4624],[6.5154,49.722,164.3499],[6.5169,49.7246,137.1313],[6.5024,49.7319,180.3539],[6.4714,49.7375,316.708],[6.4576,49.7237,288.3405],[6.4544,49.7149,241.6756],[6.4451,49.7099,244.9909],[6.4547,49.7006,236.1273],[6.4546,49.6966,206.0255],[6.4509,49.692,188.3266],[6.4564,49.6879,132.0642],[6.4615,49.692,135.0057],[6.4804,49.6968,144.4405],[6.4962,49.7097,131.0102],[6.5025,49.7127,132.362],[6.507,49.7126,130.1222]]]]}
,"properties": {"GID_3": "LUX.2.2.7_1","GID_0": "LUX","country": "Luxembourg","GID_1": "LUX.2_1","province": "Grevenmacher","NL_NAME_1": "NA","GID_2": "LUX.2.2_1","county": "Grevenmacher","NL_NAME_2": "NA","city": "Mertert","VARNAME_3": "NA","NL_NAME_3": "NA","TYPE_3": "Commune","ENGTYPE_3": "Commune","CC_3": "NA","HASC_3": "NA","name": "Mertert.city","area_km2": 14.06556,"hist_schema_id": "Elevation0-9000","hist_area_km2": {"125": 0.83639,"150": 2.97528,"175": 1.82357,"200": 1.87823,"225": 2.48128,"250": 1.57631,"275": 1.34325,"300": 0.75379,"325": 0.39746}}}