{"type":"Feature","properties":{"GID_3":"LUX.2.3.7_1","GID_0":"LUX","country":"Luxembourg","GID_1":"LUX.2_1","province":"Grevenmacher","NL_NAME_1":"NA","GID_2":"LUX.2.3_1","county":"Remich","NL_NAME_2":"NA","city":"Schengen","VARNAME_3":"NA","NL_NAME_3":"NA","TYPE_3":"Commune","ENGTYPE_3":"Commune","CC_3":"NA","HASC_3":"NA","name":"Schengen.city"},
"geometry":{"type": "MultiPolygon","coordinates": [[[[6.3338,49.4669,263.7311],[6.3434,49.4684,277.1978],[6.3471,49.466,282.4735],[6.3512,49.467,254.1831],[6.3644,49.4595,225.5974],[6.3689,49.4598,142.0],[6.3676,49.4665,142.4394],[6.3723,49.4665,170.9788],[6.3714,49.4686,150.1496],[6.3671,49.4695,141.9263],[6.3688,49.4885,143.9553],[6.3671,49.4957,140.0],[6.3675,49.5027,142.2573],[6.3575,49.528,143.2464],[6.3577,49.5327,142.4389],[6.3419,49.5407,242.7372],[6.3367,49.5335,284.0656],[6.3286,49.5261,286.749],[6.3211,49.5222,293.0705],[6.3204,49.518,317.618],[6.3122,49.517,266.2453],[6.2952,49.509,229.9318],[6.2926,49.5066,228.1361],[6.2904,49.4991,225.7129],[6.2798,49.4958,192.4843],[6.2895,49.487,174.2137],[6.2992,49.4882,169.9248],[6.2956,49.4817,165.1008],[6.3199,49.4771,197.8164],[6.3338,49.4669,263.7311]]]]}}