{"type": "Feature","bbox": [6.2977,49.5286,6.3514,49.5808],"geometry": {"type": "MultiPolygon","coordinates": [[[[6.3303,49.5286,316.7719],[6.3367,49.5335,284.0656],[6.3419,49.5407,242.7372],[6.3432,49.5493,186.0541],[6.3491,49.5538,156.9398],[6.3514,49.5617,164.7762],[6.3506,49.5663,175.1519],[6.3421,49.576,266.0858],[6.3327,49.5808,298.3986],[6.3112,49.5759,261.0399],[6.3084,49.5736,231.1659],[6.3058,49.5577,173.6345],[6.2977,49.546,240.476],[6.3052,49.5411,253.2903],[6.3188,49.5386,168.8767],[6.3303,49.5286,316.7719]]]]}
,"properties": {"GID_3": "LUX.2.3.1_1","GID_0": "LUX","country": "Luxembourg","GID_1": "LUX.2_1","province": "Grevenmacher","NL_NAME_1": "NA","GID_2": "LUX.2.3_1","county": "Remich","NL_NAME_2": "NA","city": "Bous","VARNAME_3": "NA","NL_NAME_3": "NA","TYPE_3": "Commune","ENGTYPE_3": "Commune","CC_3": "NA","HASC_3": "NA","name": "Bous.city","area_km2": 13.91883,"hist_schema_id": "Elevation0-9000","hist_area_km2": {"150": 0.88027,"175": 4.08525,"200": 3.4662,"225": 2.25563,"250": 1.27895,"275": 1.44381,"300": 0.50871}}}