{"type":"Feature","properties":{"GID_3":"LUX.3.1.11_1","GID_0":"LUX","country":"Luxembourg","GID_1":"LUX.3_1","province":"Luxembourg","NL_NAME_1":"NA","GID_2":"LUX.3.1_1","county":"Capellen","NL_NAME_2":"NA","city":"Steinfort","VARNAME_3":"NA","NL_NAME_3":"NA","TYPE_3":"Commune","ENGTYPE_3":"Commune","CC_3":"NA","HASC_3":"NA","name":"Steinfort.city"},
"geometry":{"type": "MultiPolygon","coordinates": [[[[5.8807,49.6321,316.8795],[5.9006,49.6283,331.7793],[5.9148,49.638,331.207],[5.949,49.6329,343.9751],[5.9595,49.638,314.4221],[5.9596,49.6407,331.4097],[5.9519,49.6491,324.6093],[5.9182,49.6732,333.708],[5.8992,49.6724,332.8355],[5.8955,49.6719,340.5472],[5.9125,49.6662,320.429],[5.9069,49.6546,333.2115],[5.9071,49.6395,337.9982],[5.8843,49.6387,346.324],[5.8807,49.6321,316.8795]]]]}}