{"type":"Feature","properties":{"GID_2":"LUX.1.5_1","GID_0":"LUX","country":"Luxembourg","GID_1":"LUX.1_1","province":"Diekirch","NL_NAME_1":"NA","county":"Wiltz","VARNAME_2":"NA","NL_NAME_2":"NA","TYPE_2":"Canton","ENGTYPE_2":"Canton","CC_2":"NA","HASC_2":"LU.DI.WI","name":"Wiltz.county"},
"geometry":{"type": "MultiPolygon","coordinates": [[[[6.0344,49.9183,292.5403],[6.0433,49.9324,255.6314],[6.0405,49.9419,299.8264],[6.043,49.9461,376.2341],[6.0395,49.9583,392.6832],[6.0289,49.9653,326.4674],[6.029,49.9787,424.06],[6.0315,49.9825,453.4319],[6.0384,49.9868,472.6812],[6.0504,49.9895,473.7464],[6.0558,49.9924,511.826],[6.0582,49.9961,518.8387],[6.0578,50.0028,389.5759],[6.0523,50.0048,452.8079],[6.0453,50.0051,468.3843],[6.0268,50.0008,377.2084],[6.0132,50.0083,407.4933],[5.9843,50.0142,434.9503],[5.9818,50.0188,464.4309],[5.9823,50.0229,477.8079],[5.9704,50.0336,447.2802],[5.961,50.0363,514.0342],[5.9451,50.028,460.5345],[5.936,50.0252,450.0482],[5.9315,50.0257,464.744],[5.9232,50.0302,487.7299],[5.9178,50.0293,434.3011],[5.9162,50.0258,430.4413],[5.9223,50.02,452.5724],[5.9228,50.0174,427.7289],[5.9162,50.0111,433.579],[5.9137,50.0029,534.5759],[5.9079,49.9991,498.2254],[5.8956,49.9977,477.5844],[5.8806,49.9937,466.438],[5.8688,49.9972,422.5045],[5.8568,49.9914,355.9253],[5.839,49.991,474.6911],[5.8433,49.9871,485.2619],[5.8434,49.9799,493.9774],[5.8369,49.9755,492.9236],[5.8167,49.9726,441.9153],[5.8156,49.9648,413.1253],[5.8109,49.9609,466.8845],[5.7953,49.9642,455.885],[5.7915,49.9604,496.9426],[5.781,49.9597,540.6682],[5.7784,49.9505,510.3561],[5.7793,49.9444,462.8528],[5.7781,49.9384,465.0071],[5.7725,49.9323,464.5827],[5.7666,49.9199,475.8533],[5.7599,49.9122,468.3453],[5.7537,49.9113,461.397],[5.7441,49.9026,460.592],[5.7451,49.8984,457.1801],[5.7861,49.8829,397.771],[5.7881,49.8772,400.8988],[5.7996,49.8774,392.8687],[5.806,49.871,416.1705],[5.8099,49.8692,399.6455],[5.8268,49.8701,343.6788],[5.8339,49.872,344.6499],[5.8566,49.8946,396.1563],[5.8683,49.8866,490.5999],[5.8771,49.877,475.6487],[5.8817,49.868899999999996,470.4056],[5.8895,49.8692,417.3406],[5.8959,49.8725,455.0474],[5.898,49.8756,484.9014],[5.8992,49.884,450.0519],[5.9028,49.8876,396.428],[5.906,49.8839,419.2288],[5.9075,49.8768,436.8428],[5.9135,49.8705,490.4607],[5.9147,49.8613,514.6308],[5.9169,49.8582,495.1359],[5.9275,49.8606,494.8215],[5.9359,49.8706,480.5909],[5.9416,49.8726,489.3751],[5.9547,49.8651,466.509],[5.9687,49.8627,447.3147],[5.9835,49.8515,357.3898],[5.9918,49.8578,417.9271],[5.9886,49.862,414.5046],[5.9917,49.8682,455.762],[5.9905,49.8752,470.2281],[6.0019,49.878,444.1808],[6.012,49.8845,467.1873],[6.0153,49.8908,489.2372],[6.0141,49.8971,474.5028],[6.019,49.9092,451.6295],[6.0344,49.9183,292.5403]]]]}}