{"type": "Feature","bbox": [5.982,49.6453,6.0974,49.6982],"geometry": {"type": "MultiPolygon","coordinates": [[[[5.9857,49.6869,347.9145],[5.9926,49.6755,347.2484],[5.9933,49.6691,341.9933],[5.9922,49.6649,316.7],[5.982,49.6483,320.1876],[5.9963,49.6453,311.1432],[6.0173,49.6523,325.377],[6.0301,49.6502,331.7844],[6.0455,49.6523,322.3812],[6.0557,49.6498,328.0166],[6.0608,49.6548,318.4016],[6.0545,49.6639,357.8436],[6.0546,49.6698,373.6977],[6.0617,49.677,375.7733],[6.0642,49.6825,379.1065],[6.0688,49.686,375.6806],[6.0733,49.687,373.4012],[6.0866,49.6829,305.7592],[6.0974,49.6894,359.2303],[6.0858,49.6977,278.9246],[6.0736,49.6956,366.2603],[6.0614,49.6982,371.3265],[6.0546,49.6929,365.2311],[6.049,49.6909,357.6413],[6.0408,49.6912,369.9764],[6.0308,49.6955,253.9821],[6.017,49.6892,350.3434],[5.9932,49.6894,280.5546],[5.9857,49.6869,347.9145]]]]}
,"properties": {"GID_3": "LUX.3.1.6_1","GID_0": "LUX","country": "Luxembourg","GID_1": "LUX.3_1","province": "Luxembourg","NL_NAME_1": "NA","GID_2": "LUX.3.1_1","county": "Capellen","NL_NAME_2": "NA","city": "Kehlen","VARNAME_3": "NA","NL_NAME_3": "NA","TYPE_3": "Commune","ENGTYPE_3": "Commune","CC_3": "NA","HASC_3": "NA","name": "Kehlen.city","area_km2": 26.33054,"hist_schema_id": "Elevation0-9000","hist_area_km2": {"250": 0.35662,"275": 0.49379,"300": 3.28013,"325": 9.19426,"350": 9.17837,"375": 3.62162,"400": 0.20575}}}