{"type": "Feature","bbox": [5.9274,49.5687,6.0089,49.6081],"geometry": {"type": "MultiPolygon","coordinates": [[[[5.953,49.5692,337.8315],[5.9641,49.5743,332.8116],[5.97,49.5735,338.3752],[5.9793,49.5687,327.1903],[5.987,49.5694,323.6945],[6.0045,49.5807,355.7309],[6.0089,49.5931,308.4798],[5.9998,49.6013,353.1235],[5.9982,49.6081,348.3537],[5.9886,49.6043,342.8098],[5.9753,49.603,311.7883],[5.9705,49.6046,326.9311],[5.9575,49.5945,363.7525],[5.9358,49.5942,385.2076],[5.9274,49.5927,343.0384],[5.9381,49.5748,316.1505],[5.953,49.5692,337.8315]]]]}
,"properties": {"GID_3": "LUX.3.1.3_1","GID_0": "LUX","country": "Luxembourg","GID_1": "LUX.3_1","province": "Luxembourg","NL_NAME_1": "NA","GID_2": "LUX.3.1_1","county": "Capellen","NL_NAME_2": "NA","city": "Dippach","VARNAME_3": "NA","NL_NAME_3": "NA","TYPE_3": "Commune","ENGTYPE_3": "Commune","CC_3": "NA","HASC_3": "NA","name": "Dippach.city","area_km2": 15.97207,"hist_schema_id": "Elevation0-9000","hist_area_km2": {"300": 0.28868,"325": 5.32001,"350": 7.03733,"375": 2.89998,"400": 0.42607}}}