{"type":"Feature","properties":{"GID_3":"LUX.1.5.7_1","GID_0":"LUX","country":"Luxembourg","GID_1":"LUX.1_1","province":"Diekirch","NL_NAME_1":"NA","GID_2":"LUX.1.5_1","county":"Wiltz","NL_NAME_2":"NA","city":"LacdelaHaute-Sûre","VARNAME_3":"NA","NL_NAME_3":"NA","TYPE_3":"Commune","ENGTYPE_3":"Commune","CC_3":"NA","HASC_3":"NA","name":"Lacdela_Haute-Sûre.city"},
"geometry":{"type": "MultiPolygon","coordinates": [[[[5.7673,49.9214,472.2437],[5.8184,49.9198,417.4812],[5.8254,49.9174,373.7439],[5.8367,49.91,391.9131],[5.8452,49.9106,414.2287],[5.8521,49.9072,328.3635],[5.8589,49.907,334.6616],[5.8699,49.9002,388.6105],[5.8758,49.8993,408.0658],[5.8814,49.901,359.6219],[5.9019,49.9139,409.5211],[5.9143,49.9106,364.4789],[5.9231,49.9122,343.6112],[5.9363,49.9186,457.7317],[5.9367,49.9219,392.0901],[5.9342,49.9273,443.9453],[5.9192,49.9358,444.7173],[5.9139,49.9413,461.9731],[5.892,49.9439,457.5045],[5.8805,49.9544,497.3688],[5.8698,49.9472,475.71],[5.8647,49.9394,440.0377],[5.8432,49.9372,432.4041],[5.8312,49.9474,434.4897],[5.8228,49.9524,450.5998],[5.8182,49.9524,490.0177],[5.8043,49.948,496.0405],[5.7973,49.9491,468.1896],[5.7958,49.9511,481.1028],[5.798,49.9552,494.1411],[5.7985,49.9625,457.0948],[5.7982,49.9639,474.702],[5.7953,49.9642,455.885],[5.7915,49.9604,496.9426],[5.781,49.9597,540.6682],[5.7784,49.9505,510.3561],[5.7793,49.9444,462.8528],[5.7781,49.9384,465.0071],[5.7725,49.9323,464.5827],[5.7673,49.9214,472.2437]]]]}}