{"type":"Feature","properties":{"GID_3":"LUX.3.2.10_1","GID_0":"LUX","country":"Luxembourg","GID_1":"LUX.3_1","province":"Luxembourg","NL_NAME_1":"NA","GID_2":"LUX.3.2_1","county":"Esch-sur-Alzette","NL_NAME_2":"NA","city":"Reckange-sur-Mess","VARNAME_3":"NA","NL_NAME_3":"NA","TYPE_3":"Commune","ENGTYPE_3":"Commune","CC_3":"NA","HASC_3":"NA","name":"Reckange-sur-Mess.city"},
"geometry":{"type": "MultiPolygon","coordinates": [[[[5.9572,49.5718,331.6277],[5.9645,49.5653,332.1321],[5.9666,49.5516,318.6076],[5.9876,49.5514,317.1485],[6.0012,49.5436,296.6801],[6.015,49.5399,290.4767],[6.037,49.5428,319.8073],[6.0473,49.5473,312.2737],[6.0347,49.5629,331.1929],[6.0391,49.5695,317.2266],[6.0463,49.5759,310.8914],[6.0469,49.5812,301.8069],[6.0442,49.5857,324.9898],[6.0292,49.5863,301.5439],[6.0181,49.582,338.2784],[6.0045,49.5807,355.7309],[5.9844,49.5686,330.9933],[5.9777,49.5691,331.1056],[5.9667,49.5743,330.1031],[5.9572,49.5718,331.6277]]]]}}