{"type": "Feature","bbox": [5.9277,49.739,5.9949,49.8088],"geometry": {"type": "MultiPolygon","coordinates": [[[[5.9457,49.739,299.1894],[5.9593,49.7409,265.3106],[5.9678,49.7511,275.9799],[5.9729,49.7532,266.71],[5.9805,49.7535,261.1801],[5.98,49.7587,251.6933],[5.9814,49.7618,262.2145],[5.9949,49.7688,241.12],[5.9889,49.7779,284.9519],[5.9896,49.7825,300.4835],[5.9933,49.786,295.7016],[5.9727,49.8009,379.8121],[5.9655,49.8088,359.1404],[5.9616,49.8046,388.1173],[5.9609,49.7926,317.6811],[5.9589,49.7887,317.729],[5.9405,49.78,273.47],[5.9298,49.7775,253.7831],[5.9277,49.7725,277.8696],[5.9282,49.7686,303.8754],[5.9338,49.763,280.5623],[5.9364,49.7569,281.01],[5.9411,49.7519,321.0383],[5.9432,49.742,304.3785],[5.9457,49.739,299.1894]]]]}
,"properties": {"GID_3": "LUX.1.3.8_1","GID_0": "LUX","country": "Luxembourg","GID_1": "LUX.1_1","province": "Diekirch","NL_NAME_1": "NA","GID_2": "LUX.1.3_1","county": "Redange","NL_NAME_2": "NA","city": "Useldange","VARNAME_3": "NA","NL_NAME_3": "NA","TYPE_3": "Commune","ENGTYPE_3": "Commune","CC_3": "NA","HASC_3": "NA","name": "Useldange.city","area_km2": 19.30758,"hist_schema_id": "Elevation0-9000","hist_area_km2": {"250": 2.49239,"275": 7.57347,"300": 6.18945,"325": 2.02588,"350": 0.61586,"375": 0.35579,"400": 0.05474}}}