{"type":"Feature","properties":{"GID_2":"LUX.3.1_1","GID_0":"LUX","country":"Luxembourg","GID_1":"LUX.3_1","province":"Luxembourg","NL_NAME_1":"NA","county":"Capellen","VARNAME_2":"NA","NL_NAME_2":"NA","TYPE_2":"Canton","ENGTYPE_2":"Canton","CC_2":"NA","HASC_2":"LU.LU.CA","name":"Capellen.county"},
"geometry":{"type": "MultiPolygon","coordinates": [[[[5.8814,49.6281,322.8249],[5.8816,49.6265,315.8433],[5.8749,49.6202,318.2999],[5.8705,49.6135,326.5229],[5.8711,49.6059,334.4991],[5.854,49.5976,354.7568],[5.8521,49.5908,325.2805],[5.8684,49.5863,397.1885],[5.8742,49.5872,376.1543],[5.8745,49.5768,332.8681],[5.8682,49.5719,350.5363],[5.8869,49.5649,276.8759],[5.8873,49.5493,323.4904],[5.8999,49.5494,282.8629],[5.9036,49.5511,277.2736],[5.9014,49.5545,282.0586],[5.9065,49.5583,279.6516],[5.9198,49.5596,295.1889],[5.937,49.5662,317.2202],[5.9485,49.5672,343.1871],[5.9624,49.5741,332.8116],[5.9684,49.574,330.1031],[5.9793,49.5687,327.1903],[5.9853,49.5688,323.6945],[6.0045,49.5807,355.7309],[6.0088,49.5915,308.8012],[6.0077,49.5946,314.6311],[5.9998,49.6013,353.1235],[5.9982,49.6081,348.3537],[6.0111,49.6096,333.0885],[6.021,49.6127,311.115],[6.0297,49.6182,301.2281],[6.0357,49.6245,295.3863],[6.0442,49.6283,307.8934],[6.0459,49.6382,326.0888],[6.0608,49.6548,318.4016],[6.0674,49.6569,290.236],[6.0769,49.6568,350.3587],[6.0816,49.6538,370.18],[6.0822,49.6496,377.1225],[6.0981,49.6481,380.6131],[6.0984,49.6629,280.7708],[6.0918,49.6678,359.3283],[6.0866,49.6829,305.7592],[6.0974,49.6894,359.2303],[6.0858,49.6977,278.9246],[6.0736,49.6956,366.2603],[6.0614,49.6982,371.3265],[6.0532,49.6921,365.2311],[6.0472,49.6908,377.1061],[6.0391,49.6916,363.1147],[6.0315,49.6954,245.2094],[6.0216,49.6965,314.4984],[6.0036,49.6949,247.3708],[5.9986,49.6986,317.4155],[5.9981,49.7105,316.756],[5.9929,49.7194,356.124],[5.9809,49.7199,372.6516],[5.9658,49.7169,397.607],[5.9331,49.6993,371.4235],[5.9291,49.7022,386.2405],[5.9204,49.7044,363.3152],[5.9083,49.7123,382.6894],[5.8995,49.7124,338.3101],[5.887,49.7085,391.0118],[5.8741,49.6993,327.4951],[5.8716,49.6909,333.1797],[5.8723,49.6843,302.1484],[5.879,49.6778,280.3548],[5.9125,49.6662,320.429],[5.9069,49.6546,333.2115],[5.9071,49.6395,337.9982],[5.8843,49.6387,346.324],[5.8806,49.6326,316.8795],[5.8814,49.6281,322.8249]]]]}}