{"type":"Feature","properties":{"GID_3":"LUX.3.2.11_1","GID_0":"LUX","country":"Luxembourg","GID_1":"LUX.3_1","province":"Luxembourg","NL_NAME_1":"NA","GID_2":"LUX.3.2_1","county":"Esch-sur-Alzette","NL_NAME_2":"NA","city":"Roeser","VARNAME_3":"NA","NL_NAME_3":"NA","TYPE_3":"Commune","ENGTYPE_3":"Commune","CC_3":"NA","HASC_3":"NA","name":"Roeser.city"},
"geometry":{"type": "MultiPolygon","coordinates": [[[[6.1391,49.489,288.3329],[6.1434,49.5067,267.2063],[6.1596,49.5185,254.5106],[6.1592,49.529,299.6606],[6.1666,49.5388,274.6043],[6.1664,49.5446,305.9236],[6.159,49.5519,276.4268],[6.1505,49.554,262.7251],[6.1282,49.5637,293.1731],[6.1149,49.5657,303.8086],[6.1102,49.5627,306.0255],[6.1043,49.5641,317.4636],[6.1053,49.5675,314.6433],[6.104,49.5688,331.1531],[6.0974,49.5675,305.3524],[6.0881,49.5604,317.1332],[6.0857,49.5556,306.0444],[6.0934,49.5492,298.9068],[6.1005,49.5391,289.4003],[6.1208,49.5237,267.0963],[6.1229,49.518,270.9069],[6.1278,49.5126,310.3969],[6.1252,49.4984,298.0306],[6.1292,49.4903,305.2784],[6.1391,49.489,288.3329]]]]}}