{"type":"Feature","properties":{"GID_3":"LUX.3.4.9_1","GID_0":"LUX","country":"Luxembourg","GID_1":"LUX.3_1","province":"Luxembourg","NL_NAME_1":"NA","GID_2":"LUX.3.4_1","county":"Mersch","NL_NAME_2":"NA","city":"Mersch","VARNAME_3":"NA","NL_NAME_3":"NA","TYPE_3":"Commune","ENGTYPE_3":"Commune","CC_3":"NA","HASC_3":"NA","name":"Mersch.city"},
"geometry":{"type": "MultiPolygon","coordinates": [[[[6.0858,49.6977,278.9246],[6.1004,49.7064,391.9788],[6.1006,49.7149,389.7223],[6.0978,49.7212,248.2008],[6.1007999999999996,49.7268,242.4385],[6.1019,49.7354,232.7974],[6.1038,49.7375,297.5457],[6.1099,49.7383,242.171],[6.1195,49.7321,236.8368],[6.1228,49.7315,230.3032],[6.1339,49.7372,385.4785],[6.143,49.7388,386.2092],[6.1546,49.745,402.8817],[6.1644,49.7474,395.4743],[6.1623,49.7542,408.3375],[6.1522,49.7592,389.4249],[6.1492,49.7626,415.5733],[6.1605,49.7776,384.5639],[6.1586,49.7795,384.4352],[6.1439,49.7856,297.2988],[6.1338,49.7919,273.2392],[6.1068,49.7969,264.7362],[6.0993,49.7911,272.187],[6.099,49.7868,291.4794],[6.0964,49.7844,279.3085],[6.0859,49.7824,290.0065],[6.0675,49.7715,267.3531],[6.0458,49.7638,336.4121],[6.044,49.7568,304.1639],[6.0335,49.7489,313.9399],[6.0333,49.7411,315.7351],[6.0364,49.738,301.8423],[6.0656,49.725,345.2629],[6.0703,49.7171,260.0347],[6.0796,49.7119,341.2735],[6.0796,49.7094,349.5092],[6.0773,49.7076,358.0475],[6.0631,49.7038,348.028],[6.061,49.7014,350.7964],[6.0614,49.6982,371.3265],[6.0736,49.6956,366.2603],[6.0858,49.6977,278.9246]]]]}}