{"type": "Feature","bbox": [6.2624,49.8188,6.3353,49.8511],"geometry": {"type": "MultiPolygon","coordinates": [[[[6.3269,49.8362,173.5438],[6.3123,49.8355,338.0979],[6.3115,49.8429,356.3408],[6.3171,49.8469,228.8773],[6.3158,49.8511,247.1117],[6.3132,49.846,289.8021],[6.3088,49.8439,352.7404],[6.2863,49.8443,379.4784],[6.2762,49.8463,405.1269],[6.2624,49.8283,383.9761],[6.273,49.8194,345.3059],[6.301,49.8218,301.8796],[6.3353,49.8188,361.4898],[6.3338,49.8374,176.7693],[6.3269,49.8362,173.5438]]]]}
,"properties": {"GID_3": "LUX.2.1.1_1","GID_0": "LUX","country": "Luxembourg","GID_1": "LUX.2_1","province": "Grevenmacher","NL_NAME_1": "NA","GID_2": "LUX.2.1_1","county": "Echternach","NL_NAME_2": "NA","city": "Beaufort","VARNAME_3": "NA","NL_NAME_3": "NA","TYPE_3": "Commune","ENGTYPE_3": "Commune","CC_3": "NA","HASC_3": "NA","name": "Beaufort.city","area_km2": 11.406007,"hist_schema_id": "Elevation0-9000","hist_area_km2": {"175": 0.31456,"200": 0.533418,"225": 0.355619,"250": 0.341942,"275": 0.451349,"300": 1.914859,"325": 2.229334,"350": 2.311187,"375": 2.119609,"400": 0.765757,"425": 0.068372}}}