{"type": "Feature","bbox": [6.0141,49.8662,6.1342,49.9556],"geometry": {"type": "MultiPolygon","coordinates": [[[[6.043,49.9461,376.2341],[6.0405,49.9419,299.8264],[6.0433,49.9356,280.5198],[6.0428,49.9311,256.8461],[6.033,49.9167,302.5705],[6.0238,49.913,359.2166],[6.019,49.9092,451.6295],[6.0141,49.8971,474.5028],[6.0153,49.8908,489.2372],[6.0504,49.8857,392.8197],[6.0533,49.8834,355.6768],[6.0585,49.8728,375.5999],[6.0648,49.8662,355.7672],[6.0779,49.8754,300.8134],[6.0716,49.8802,368.7684],[6.0704,49.8847,350.8216],[6.0715,49.899,395.0622],[6.078,49.9065,345.8596],[6.0835,49.9053,287.1457],[6.0903,49.8972,222.7606],[6.0965,49.894,231.5598],[6.1007999999999996,49.8947,313.7796],[6.1092,49.9013,343.061],[6.1159,49.9009,352.9123],[6.1282,49.8955,360.3743],[6.1299,49.8982,373.618],[6.1342,49.8999,374.7488],[6.1274,49.9075,321.0885],[6.1119,49.9129,454.9153],[6.1102,49.9149,464.9385],[6.1101,49.9195,360.6788],[6.1013,49.9241,374.4388],[6.093,49.9379,469.2653],[6.08,49.9379,424.2829],[6.0714,49.9361,312.9181],[6.0665,49.9374,280.3106],[6.0644,49.9402,291.1245],[6.0631,49.9556,371.3893],[6.0524,49.9547,467.2281],[6.0503,49.9531,453.3102],[6.0497,49.9488,405.742],[6.043,49.9461,376.2341]]]]}
,"properties": {"GID_3": "LUX.1.2.2_1","GID_0": "LUX","country": "Luxembourg","GID_1": "LUX.1_1","province": "Diekirch","NL_NAME_1": "NA","GID_2": "LUX.1.2_1","county": "Diekirch","NL_NAME_2": "NA","city": "Bourscheid","VARNAME_3": "NA","NL_NAME_3": "NA","TYPE_3": "Commune","ENGTYPE_3": "Commune","CC_3": "NA","HASC_3": "NA","name": "Bourscheid.city","area_km2": 34.65283,"hist_schema_id": "Elevation0-9000","hist_area_km2": {"225": 0.75091,"250": 1.47447,"275": 1.74763,"300": 1.82955,"325": 1.97972,"350": 3.16776,"375": 4.05557,"400": 4.02766,"425": 4.53269,"450": 5.09229,"475": 3.79591,"500": 2.18502,"525": 0.01366}}}