{"type": "Feature","bbox": [6.1126,49.5503,6.2069,49.6064],"geometry": {"type": "MultiPolygon","coordinates": [[[[6.1616,49.5503,286.3187],[6.1806,49.5557,294.0292],[6.187,49.5612,299.3732],[6.1964,49.5663,321.1655],[6.2005,49.5777,305.2489],[6.1976,49.5821,314.971],[6.1981,49.5914,313.8512],[6.2012,49.5949,333.9546],[6.2069,49.5975,329.7258],[6.1994,49.6033,331.9283],[6.1989,49.6054,319.2831],[6.1931,49.603,319.6186],[6.1871,49.6064,334.5701],[6.1691,49.6045,291.8893],[6.161,49.6005,307.1897],[6.1534,49.5949,312.0583],[6.1533,49.593,313.836],[6.1473,49.5896,302.8094],[6.1351,49.5873,286.8535],[6.1347,49.5847,289.594],[6.1289,49.5806,294.8012],[6.1255,49.5826,295.5072],[6.1224,49.5818,298.4214],[6.1178,49.5765,293.0916],[6.1226,49.5718,287.9538],[6.1126,49.5696,310.6027],[6.1149,49.5657,303.8086],[6.1282,49.5637,293.1731],[6.1616,49.5503,286.3187]]]]}
,"properties": {"GID_3": "LUX.3.3.3_1","GID_0": "LUX","country": "Luxembourg","GID_1": "LUX.3_1","province": "Luxembourg","NL_NAME_1": "NA","GID_2": "LUX.3.3_1","county": "Luxembourg","NL_NAME_2": "NA","city": "Hesperange","VARNAME_3": "NA","NL_NAME_3": "NA","TYPE_3": "Commune","ENGTYPE_3": "Commune","CC_3": "NA","HASC_3": "NA","name": "Hesperange.city","area_km2": 24.52607,"hist_schema_id": "Elevation0-9000","hist_area_km2": {"250": 0.83886,"275": 8.64854,"300": 10.02209,"325": 4.7967,"350": 0.21988}}}