{"type":"Feature","properties":{"GID_3":"LUX.2.2.4_1","GID_0":"LUX","country":"Luxembourg","GID_1":"LUX.2_1","province":"Grevenmacher","NL_NAME_1":"NA","GID_2":"LUX.2.2_1","county":"Grevenmacher","NL_NAME_2":"NA","city":"Grevenmacher","VARNAME_3":"NA","NL_NAME_3":"NA","TYPE_3":"Commune","ENGTYPE_3":"Commune","CC_3":"NA","HASC_3":"NA","name":"Grevenmacher.city"},
"geometry":{"type": "MultiPolygon","coordinates": [[[[6.4318,49.6605,166.8851],[6.4261,49.6618,134.6543],[6.43,49.6689,136.7116],[6.4473,49.6782,131.3561],[6.4564,49.6879,132.0642],[6.4509,49.692,188.3266],[6.4436,49.6935,198.6868],[6.4338,49.6929,254.8744],[6.412,49.6797,272.1196],[6.394,49.6712,292.3915],[6.3894,49.6706,294.7349],[6.3827,49.6723,275.0965],[6.374,49.6666,312.1031],[6.3638,49.6627,298.9033],[6.3762,49.6586,271.1445],[6.3872,49.6518,304.4378],[6.3928,49.6507,267.03],[6.4165,49.6532,307.6775],[6.4252,49.6573,225.4877],[6.4396,49.6588,135.6456],[6.4318,49.6605,166.8851]]]]}}