{"type":"Feature","properties":{"GID_3":"LUX.3.2.14_1","GID_0":"LUX","country":"Luxembourg","GID_1":"LUX.3_1","province":"Luxembourg","NL_NAME_1":"NA","GID_2":"LUX.3.2_1","county":"Esch-sur-Alzette","NL_NAME_2":"NA","city":"Schifflange","VARNAME_3":"NA","NL_NAME_3":"NA","TYPE_3":"Commune","ENGTYPE_3":"Commune","CC_3":"NA","HASC_3":"NA","name":"Schifflange.city"},
"geometry":{"type": "MultiPolygon","coordinates": [[[[5.9989,49.488,340.6379],[6.006,49.4952,387.1943],[6.0178,49.5025,306.3658],[6.0358,49.511,282.0638],[6.0506,49.5135,273.8489],[6.0433,49.5168,281.6112],[6.0288,49.5182,283.9197],[6.0183,49.5231,287.3943],[5.9987,49.5198,288.1964],[5.9936,49.5167,299.8391],[5.9955,49.5098,286.5761],[5.9952,49.4932,313.0244],[5.9989,49.488,340.6379]]]]}}