{"type": "Feature","bbox": [5.9169,49.8117,5.9835,49.8726],"geometry": {"type": "MultiPolygon","coordinates": [[[[5.9835,49.8515,357.3898],[5.9687,49.8627,447.3147],[5.9547,49.8651,466.509],[5.9416,49.8726,489.3751],[5.9359,49.8706,480.5909],[5.9275,49.8606,494.8215],[5.9169,49.8582,495.1359],[5.9177,49.846,494.0661],[5.9193,49.8421,465.7149],[5.9358,49.8298,421.5679],[5.941,49.822,330.4978],[5.9466,49.8192,356.1416],[5.9516,49.8136,336.5483],[5.9566,49.8119,350.3513],[5.9615,49.8117,361.3748],[5.9639,49.8135,385.0273],[5.974,49.8267,339.0824],[5.9744,49.8367,385.743],[5.9712,49.8426,425.2536],[5.9717,49.847,397.1125],[5.9747,49.8492,406.2632],[5.9835,49.8515,357.3898]]]]}
,"properties": {"GID_3": "LUX.1.3.3_1","GID_0": "LUX","country": "Luxembourg","GID_1": "LUX.1_1","province": "Diekirch","NL_NAME_1": "NA","GID_2": "LUX.1.3_1","county": "Redange","NL_NAME_2": "NA","city": "Grosbous","VARNAME_3": "NA","NL_NAME_3": "NA","TYPE_3": "Commune","ENGTYPE_3": "Commune","CC_3": "NA","HASC_3": "NA","name": "Grosbous.city","area_km2": 18.70436,"hist_schema_id": "Elevation0-9000","hist_area_km2": {"325": 0.32831,"350": 2.13388,"375": 2.21549,"400": 2.35203,"425": 2.91229,"450": 3.06224,"475": 2.72018,"500": 2.29646,"525": 0.68348}}}