{"type": "Feature","bbox": [6.2424,49.7617,6.3353,49.8218],"geometry": {"type": "MultiPolygon","coordinates": [[[[6.2424,49.7848,340.4874],[6.2436,49.7818,356.7404],[6.2467,49.7797,351.3288],[6.2604,49.7786,346.7409],[6.2656,49.7766,344.4461],[6.2693,49.7734,327.6548],[6.2722,49.7665,323.5847],[6.2782,49.7617,318.0178],[6.2926,49.7682,305.319],[6.3005,49.7779,323.9137],[6.3105,49.7853,349.1109],[6.3134,49.7942,263.1744],[6.3221,49.8049,309.8457],[6.332,49.8121,365.7789],[6.3353,49.8188,361.4898],[6.301,49.8218,301.8796],[6.273,49.8194,345.3059],[6.2709,49.814,356.2171],[6.2524,49.7986,379.7869],[6.2424,49.7848,340.4874]]]]}
,"properties": {"GID_3": "LUX.2.1.8_1","GID_0": "LUX","country": "Luxembourg","GID_1": "LUX.2_1","province": "Grevenmacher","NL_NAME_1": "NA","GID_2": "LUX.2.1_1","county": "Echternach","NL_NAME_2": "NA","city": "Waldbillig","VARNAME_3": "NA","NL_NAME_3": "NA","TYPE_3": "Commune","ENGTYPE_3": "Commune","CC_3": "NA","HASC_3": "NA","name": "Waldbillig.city","area_km2": 24.10142,"hist_schema_id": "Elevation0-9000","hist_area_km2": {"200": 0.20522,"225": 0.6842,"250": 0.78,"275": 1.38229,"300": 6.0495,"325": 8.06155,"350": 5.5703,"375": 1.24521,"400": 0.12314}}}