{"type": "Feature","bbox": [5.995,49.4478,6.0617,49.5135],"geometry": {"type": "MultiPolygon","coordinates": [[[[6.0515,49.4594,408.3732],[6.0477,49.468,375.0768],[6.0518,49.4857,301.3628],[6.0546,49.4914,325.6667],[6.0617,49.4976,289.2812],[6.0597,49.5055,275.5152],[6.0506,49.5135,273.8489],[6.0358,49.511,282.0638],[6.0178,49.5025,306.3658],[6.0049,49.4942,373.5316],[5.995,49.4837,355.7539],[5.995,49.4778,371.7145],[5.9975,49.4705,439.4375],[6.0136,49.476,428.1788],[6.0263,49.4691,362.2304],[6.0361,49.4659,295.0823],[6.0348,49.4549,335.1516],[6.0395,49.4483,412.0853],[6.0422,49.4478,427.8333],[6.0515,49.4594,408.3732]]]]}
,"properties": {"GID_3": "LUX.3.2.6_1","GID_0": "LUX","country": "Luxembourg","GID_1": "LUX.3_1","province": "Luxembourg","NL_NAME_1": "NA","GID_2": "LUX.3.2_1","county": "Esch-sur-Alzette","NL_NAME_2": "NA","city": "Kayl","VARNAME_3": "NA","NL_NAME_3": "NA","TYPE_3": "Commune","ENGTYPE_3": "Commune","CC_3": "NA","HASC_3": "NA","name": "Kayl.city","area_km2": 17.67169,"hist_schema_id": "Elevation0-9000","hist_area_km2": {"275": 3.56657,"300": 4.82051,"325": 1.95591,"350": 1.94233,"375": 2.63098,"400": 1.58408,"425": 1.01973,"450": 0.15157}}}