{"type": "Feature","bbox": [5.9677,49.7848,6.3269,49.9556],"geometry": {"type": "MultiPolygon","coordinates": [[[[6.2727,49.8421,399.3532],[6.2762,49.8463,405.1269],[6.2863,49.8443,379.4784],[6.3088,49.8439,352.7404],[6.3132,49.846,289.8021],[6.3158,49.8511,247.1117],[6.3171,49.8469,228.8773],[6.3115,49.8429,356.3408],[6.3123,49.8355,338.0979],[6.3269,49.8362,173.5438],[6.3201,49.8403,221.5106],[6.3227,49.8514,198.3429],[6.3145,49.8597,179.6978],[6.3143,49.866,210.2695],[6.311,49.8699,183.4772],[6.2965,49.8665,202.4638],[6.2924,49.8702,189.5534],[6.2909,49.8749,180.034],[6.2866,49.8751,180.0],[6.282,49.8788,200.3946],[6.2735,49.877,213.0307],[6.2621,49.8809,189.7615],[6.2467,49.8953,187.9464],[6.2375,49.8978,191.9202],[6.2348,49.896,257.0104],[6.2366,49.896,236.6531],[6.2369,49.8924,298.0845],[6.239,49.8924,293.4648],[6.2392,49.8892,320.3532],[6.2204,49.89,370.5662],[6.2019,49.8848,357.381],[6.1982,49.8822,311.0609],[6.1945,49.8757,259.0179],[6.1855,49.8705,220.5801],[6.1676,49.8869,279.4565],[6.1557,49.8906,285.418],[6.1483,49.8971,321.8951],[6.1342,49.8999,374.7488],[6.1274,49.9075,321.0885],[6.1119,49.9129,454.9153],[6.1102,49.9149,464.9385],[6.1101,49.9195,360.6788],[6.1013,49.9241,374.4388],[6.093,49.9379,469.2653],[6.08,49.9379,424.2829],[6.0714,49.9361,312.9181],[6.0665,49.9374,280.3106],[6.0644,49.9402,291.1245],[6.0631,49.9556,371.3893],[6.0558,49.9554,454.7796],[6.0511,49.954,467.2281],[6.0497,49.9488,405.742],[6.0408,49.9438,384.5845],[6.0433,49.9324,255.6314],[6.034,49.9177,294.4961],[6.019,49.9092,451.6295],[6.0141,49.8971,474.5028],[6.0153,49.8908,489.2372],[6.0125,49.885,467.1873],[6.0019,49.878,444.1808],[5.9929,49.8766,487.9393],[5.9901,49.8747,470.2281],[5.9917,49.8682,455.762],[5.9886,49.862,414.5046],[5.9918,49.8578,417.9271],[5.9835,49.8515,357.3898],[5.9747,49.8492,406.2632],[5.9717,49.847,397.1125],[5.9709,49.8445,416.187],[5.9744,49.8367,385.743],[5.9745,49.8288,366.4991],[5.973,49.8248,336.4149],[5.9677,49.8197,334.1381],[5.98,49.8169,369.4647],[6.0123,49.8266,385.2414],[6.0276,49.8248,370.515],[6.0334,49.8268,382.3243],[6.0457,49.8263,359.0225],[6.0565,49.8307,381.666],[6.0613,49.8311,373.988],[6.0764,49.8236,351.4692],[6.08,49.8247,329.2517],[6.0834,49.8284,316.7596],[6.0909,49.8228,203.7392],[6.0954,49.8148,207.5608],[6.1086,49.8106,207.1648],[6.123,49.8145,315.2217],[6.1333,49.8228,350.1342],[6.1445,49.8239,338.2368],[6.1501,49.826,351.3912],[6.1744,49.821,352.3894],[6.1867,49.8244,342.9007],[6.1915,49.8234,327.1833],[6.1909,49.812,321.4518],[6.195,49.8056,299.6857],[6.2058,49.797,375.36],[6.2143,49.7938,358.6317],[6.2343,49.7956,390.8988],[6.2383,49.7923,389.2987],[6.2383,49.7849,342.5392],[6.2424,49.7848,340.4874],[6.2524,49.7986,379.7869],[6.2714,49.8146,359.1453],[6.273,49.8194,345.3059],[6.2624,49.8283,383.9761],[6.2679,49.834,401.0466],[6.2727,49.8421,399.3532]]]]}
,"properties": {"GID_2": "LUX.1.2_1","GID_0": "LUX","country": "Luxembourg","GID_1": "LUX.1_1","province": "Diekirch","NL_NAME_1": "NA","county": "Diekirch","VARNAME_2": "NA","NL_NAME_2": "NA","TYPE_2": "Canton","ENGTYPE_2": "Canton","CC_2": "NA","HASC_2": "LU.DI.DI","name": "Diekirch.county","area_km2": 211.6184,"hist_schema_id": "Elevation0-9000","hist_area_km2": {"175": 2.5281,"200": 13.5453,"225": 9.5392,"250": 14.0363,"275": 18.6706,"300": 24.9049,"325": 31.4971,"350": 27.6816,"375": 25.1935,"400": 19.8881,"425": 8.8112,"450": 7.4698,"475": 5.3671,"500": 2.4719,"525": 0.0137}}}