{"type": "Feature","bbox": [5.7923,49.7461,5.8661,49.8182],"geometry": {"type": "MultiPolygon","coordinates": [[[[5.8267,49.7461,318.489],[5.8455,49.7465,293.8699],[5.8648,49.7575,313.424],[5.8661,49.7705,316.733],[5.8639,49.7743,310.4835],[5.8596,49.7772,320.2769],[5.8384,49.7823,374.0652],[5.8345,49.7848,384.7],[5.83,49.794,392.1279],[5.8309,49.8051,473.5614],[5.8347,49.8094,500.4772],[5.8263,49.8173,470.7383],[5.8131,49.8182,465.211],[5.8077,49.8158,436.3552],[5.8006,49.7967,475.446],[5.7923,49.7904,462.7439],[5.8267,49.7461,318.489]]]]}
,"properties": {"GID_3": "LUX.1.3.2_1","GID_0": "LUX","country": "Luxembourg","GID_1": "LUX.1_1","province": "Diekirch","NL_NAME_1": "NA","GID_2": "LUX.1.3_1","county": "Redange","NL_NAME_2": "NA","city": "Ell","VARNAME_3": "NA","NL_NAME_3": "NA","TYPE_3": "Commune","ENGTYPE_3": "Commune","CC_3": "NA","HASC_3": "NA","name": "Ell.city","area_km2": 22.11125,"hist_schema_id": "Elevation0-9000","hist_area_km2": {"275": 1.69842,"300": 4.06776,"325": 4.3549,"350": 2.25918,"375": 2.43673,"400": 1.90257,"425": 1.2591,"450": 1.66954,"475": 1.88839,"500": 0.56098,"525": 0.01368}}}