{"type":"Feature","properties":{"GID_3":"LUX.3.3.5_1","GID_0":"LUX","country":"Luxembourg","GID_1":"LUX.3_1","province":"Luxembourg","NL_NAME_1":"NA","GID_2":"LUX.3.3_1","county":"Luxembourg","NL_NAME_2":"NA","city":"Niederanven","VARNAME_3":"NA","NL_NAME_3":"NA","TYPE_3":"Commune","ENGTYPE_3":"Commune","CC_3":"NA","HASC_3":"NA","name":"Niederanven.city"},
"geometry":{"type": "MultiPolygon","coordinates": [[[[6.2768,49.6681,301.2473],[6.265,49.68,294.0284],[6.2613,49.6819,297.101],[6.2234,49.6833,375.0108],[6.213,49.6816,407.1666],[6.1945,49.6663,406.598],[6.1779,49.6605,381.1126],[6.17,49.6508,410.1165],[6.1664,49.6502,397.9766],[6.1641,49.6469,355.1235],[6.1547,49.6418,323.6879],[6.1667,49.6414,326.7233],[6.1697,49.6434,384.587],[6.1686,49.6397,330.1464],[6.155,49.6377,360.3135],[6.1489,49.6352,351.1016],[6.1616,49.6376,370.039],[6.1827,49.6358,364.6265],[6.187,49.6343,372.052],[6.1905,49.6305,363.615],[6.1877,49.6294,355.6993],[6.1859,49.625,355.81],[6.1932,49.6277,358.2149],[6.2058,49.6355,389.3157],[6.2103,49.6364,378.588],[6.2333,49.6221,313.1164],[6.2423,49.6289,358.2755],[6.2652,49.6374,273.1927],[6.2896,49.6428,269.0718],[6.2863,49.6466,249.4911],[6.2851,49.6564,257.3987],[6.2791,49.6627,304.921],[6.2768,49.6681,301.2473]]]]}}