{"type":"Feature","properties":{"GID_3":"LUX.3.3.7_1","GID_0":"LUX","country":"Luxembourg","GID_1":"LUX.3_1","province":"Luxembourg","NL_NAME_1":"NA","GID_2":"LUX.3.3_1","county":"Luxembourg","NL_NAME_2":"NA","city":"Schuttrange","VARNAME_3":"NA","NL_NAME_3":"NA","TYPE_3":"Commune","ENGTYPE_3":"Commune","CC_3":"NA","HASC_3":"NA","name":"Schuttrange.city"},
"geometry":{"type": "MultiPolygon","coordinates": [[[[6.2896,49.6428,269.0718],[6.2841,49.6406,269.9236],[6.2719,49.6394,251.5341],[6.2423,49.6289,358.2755],[6.2333,49.6221,313.1164],[6.2363,49.6142,341.3705],[6.2434,49.6084,350.8945],[6.2543,49.6075,305.257],[6.271,49.6,273.7645],[6.2807,49.5987,305.5292],[6.2798,49.6044,282.0089],[6.2817,49.6079,272.1708],[6.2898,49.6113,262.6436],[6.2981,49.6185,281.0775],[6.3122,49.6242,300.2892],[6.3069,49.6344,336.6378],[6.297,49.6351,314.5348],[6.2896,49.6428,269.0718]]]]}}