{"type": "Feature","bbox": [6.309,49.6706,6.4221,49.7334],"geometry": {"type": "MultiPolygon","coordinates": [[[[6.3225,49.7232,299.4771],[6.3174,49.7219,304.0415],[6.3141,49.7191,296.8757],[6.3165,49.7097,291.6265],[6.309,49.7016,290.2075],[6.3136,49.6935,277.4512],[6.3184,49.6901,279.2151],[6.3238,49.691,267.7213],[6.3355,49.7011,318.9502],[6.3449,49.7015,323.4171],[6.3514,49.697,268.1667],[6.354,49.6902,228.6674],[6.3595,49.6854,250.8885],[6.365,49.6825,233.5258],[6.3779,49.6804,287.5655],[6.3805,49.6779,297.1339],[6.3827,49.6723,275.0965],[6.3894,49.6706,294.7349],[6.394,49.6712,292.3915],[6.4221,49.6857,248.9598],[6.3943,49.7059,256.3061],[6.3875,49.7132,263.6413],[6.3718,49.7167,304.605],[6.3708,49.7199,325.1008],[6.3772,49.728,339.3426],[6.377,49.732,324.0602],[6.3616,49.7317,293.6041],[6.3497,49.7334,277.5283],[6.3335,49.7288,268.394],[6.3225,49.7232,299.4771]]]]}
,"properties": {"GID_3": "LUX.2.2.2_1","GID_0": "LUX","country": "Luxembourg","GID_1": "LUX.2_1","province": "Grevenmacher","NL_NAME_1": "NA","GID_2": "LUX.2.2_1","county": "Grevenmacher","NL_NAME_2": "NA","city": "Biwer","VARNAME_3": "NA","NL_NAME_3": "NA","TYPE_3": "Commune","ENGTYPE_3": "Commune","CC_3": "NA","HASC_3": "NA","name": "Biwer.city","area_km2": 28.08295,"hist_schema_id": "Elevation0-9000","hist_area_km2": {"200": 0.15085,"225": 4.38858,"250": 6.40453,"275": 8.9539,"300": 4.89466,"325": 2.85171,"350": 0.43872}}}