{"type":"Feature","properties":{"GID_3":"LUX.2.2.8_1","GID_0":"LUX","country":"Luxembourg","GID_1":"LUX.2_1","province":"Grevenmacher","NL_NAME_1":"NA","GID_2":"LUX.2.2_1","county":"Grevenmacher","NL_NAME_2":"NA","city":"Wormeldange","VARNAME_3":"NA","NL_NAME_3":"NA","TYPE_3":"Commune","ENGTYPE_3":"Commune","CC_3":"NA","HASC_3":"NA","name":"Wormeldange.city"},
"geometry":{"type": "MultiPolygon","coordinates": [[[[6.4396,49.6588,135.6456],[6.4252,49.6573,225.4877],[6.4165,49.6532,307.6775],[6.4159,49.6405,255.283],[6.4176,49.633,241.2017],[6.3993,49.6187,212.8638],[6.3953,49.6201,219.8012],[6.388,49.6308,284.6476],[6.3716,49.6424,312.9274],[6.36,49.6433,320.5353],[6.3515,49.6386,370.5078],[6.3499,49.6332,346.9038],[6.3511,49.6297,329.5871],[6.3609,49.6276,257.014],[6.3765,49.616,263.9908],[6.3742,49.6132,237.3463],[6.3634,49.6107,270.3105],[6.3713,49.6062,192.7694],[6.3771,49.6008,217.9572],[6.3765,49.5945,148.0102],[6.37,49.5919,219.0237],[6.3743,49.5908,137.8314],[6.3858,49.5999,136.7261],[6.3998,49.6027,137.8009],[6.411,49.6138,137.3004],[6.4197,49.618,152.9086],[6.4275,49.6341,139.0072],[6.44,49.6536,136.7793],[6.4396,49.6588,135.6456]]]]}}