{"type":"Feature","properties":{"GID_3":"LUX.1.3.5_1","GID_0":"LUX","country":"Luxembourg","GID_1":"LUX.1_1","province":"Diekirch","NL_NAME_1":"NA","GID_2":"LUX.1.3_1","county":"Redange","NL_NAME_2":"NA","city":"Rambrouch","VARNAME_3":"NA","NL_NAME_3":"NA","TYPE_3":"Commune","ENGTYPE_3":"Commune","CC_3":"NA","HASC_3":"NA","name":"Rambrouch.city"},
"geometry":{"type": "MultiPolygon","coordinates": [[[[5.7923,49.7904,462.7439],[5.8006,49.7967,475.446],[5.8077,49.8158,436.3552],[5.8131,49.8182,465.211],[5.8232,49.818,451.6608],[5.8281,49.8164,485.0584],[5.8409,49.8022,458.1171],[5.8461,49.7989,413.7592],[5.8682,49.7947,410.8727],[5.8888,49.7954,402.8062],[5.8945,49.7992,396.1036],[5.903,49.81,318.3765],[5.9029,49.8135,356.8707],[5.894,49.8231,403.6251],[5.8817,49.8326,454.7884],[5.8771,49.8395,494.862],[5.8774,49.8633,481.229],[5.8817,49.868899999999996,470.4056],[5.8771,49.877,475.6487],[5.8665,49.8881,502.7748],[5.8566,49.8946,396.1563],[5.8358,49.8733,337.1605],[5.8268,49.8701,343.6788],[5.8099,49.8692,399.6455],[5.806,49.871,416.1705],[5.7996,49.8774,392.8687],[5.7881,49.8772,400.8988],[5.7885,49.876,389.6309],[5.782,49.8777,354.1057],[5.7827,49.8764,339.8646],[5.775,49.869,356.2335],[5.7581,49.8695,390.7152],[5.7596,49.8587,397.4016],[5.7577,49.8557,358.6077],[5.7501,49.855,353.367],[5.7533,49.8536,393.3828],[5.7533,49.8457,365.0952],[5.7506,49.8458,360.6507],[5.7502,49.8407,374.2627],[5.7461,49.8388,382.0008],[5.7515,49.8241,409.9645],[5.7478,49.8184,428.1045],[5.7544,49.8131,457.2053],[5.7571,49.8046,437.4715],[5.7577,49.7964,425.7238],[5.7825,49.7963,423.6854],[5.7923,49.7904,462.7439]]]]}}