{"type": "Feature","bbox": [5.8105,49.5351,5.8876,49.5719],"geometry": {"type": "MultiPolygon","coordinates": [[[[5.8151,49.5452,262.7175],[5.8105,49.5435,260.7899],[5.8172,49.537,381.4654],[5.8362,49.5418,386.8586],[5.8406,49.5351,386.1875],[5.8498,49.5367,317.2378],[5.859,49.5405,391.5338],[5.8703,49.5416,354.5818],[5.8796,49.5444,394.638],[5.8873,49.5493,323.4904],[5.8876,49.5636,274.7017],[5.8851,49.5665,278.6462],[5.879,49.5672,286.7751],[5.8682,49.5719,350.5363],[5.8337,49.5512,270.2023],[5.8281,49.5528,268.2438],[5.8151,49.5452,262.7175]]]]}
,"properties": {"GID_3": "LUX.3.2.9_1","GID_0": "LUX","country": "Luxembourg","GID_1": "LUX.3_1","province": "Luxembourg","NL_NAME_1": "NA","GID_2": "LUX.3.2_1","county": "Esch-sur-Alzette","NL_NAME_2": "NA","city": "Pétange","VARNAME_3": "NA","NL_NAME_3": "NA","TYPE_3": "Commune","ENGTYPE_3": "Commune","CC_3": "NA","HASC_3": "NA","name": "Pétange.city","area_km2": 11.760697,"hist_schema_id": "Elevation0-9000","hist_area_km2": {"250": 0.055028,"275": 5.543029,"300": 2.943693,"325": 1.334264,"350": 0.646527,"375": 0.811671,"400": 0.426484}}}