{"type": "Feature","bbox": [6.0834,49.8106,6.1501,49.8456],"geometry": {"type": "MultiPolygon","coordinates": [[[[6.1195,49.8456,233.1472],[6.1134,49.8414,330.1959],[6.0994,49.8396,205.2046],[6.0834,49.8284,316.7596],[6.0909,49.8228,203.7392],[6.0954,49.8148,207.5608],[6.1086,49.8106,207.1648],[6.123,49.8145,315.2217],[6.1333,49.8228,350.1342],[6.1445,49.8239,338.2368],[6.1501,49.826,351.3912],[6.15,49.8354,362.2075],[6.1466,49.8426,340.8269],[6.1384,49.8456,341.2954],[6.1195,49.8456,233.1472]]]]}
,"properties": {"GID_3": "LUX.1.2.12_1","GID_0": "LUX","country": "Luxembourg","GID_1": "LUX.1_1","province": "Diekirch","NL_NAME_1": "NA","GID_2": "LUX.1.2_1","county": "Diekirch","NL_NAME_2": "NA","city": "Schieren","VARNAME_3": "NA","NL_NAME_3": "NA","TYPE_3": "Commune","ENGTYPE_3": "Commune","CC_3": "NA","HASC_3": "NA","name": "Schieren.city","area_km2": 12.035581,"hist_schema_id": "Elevation0-9000","hist_area_km2": {"200": 1.313087,"225": 0.875363,"250": 0.724889,"275": 0.697526,"300": 0.875343,"325": 2.626046,"350": 3.843049,"375": 1.080278}}}