{"type": "Feature","bbox": [6.0285,50.0647,6.1386,50.1359],"geometry": {"type": "MultiPolygon","coordinates": [[[[6.1223,50.1359,379.0387],[6.1111,50.1343,406.2498],[6.1011,50.1232,504.8126],[6.0846,50.1155,516.4476],[6.066,50.1017,484.3895],[6.0588,50.1,500.1729],[6.0511,50.101,463.5639],[6.0285,50.0982,391.278],[6.0328,50.0924,445.8939],[6.031,50.0852,375.3627],[6.0463,50.0802,491.9633],[6.0571,50.0811,476.4586],[6.0598,50.08,473.6345],[6.0615,50.0764,525.4534],[6.0604,50.0647,505.17],[6.0831,50.0653,489.2337],[6.0945,50.0674,390.3434],[6.1206,50.0649,330.0992],[6.1214,50.0689,350.442],[6.1293,50.0736,357.534],[6.1249,50.0769,298.2292],[6.121,50.0725,302.6646],[6.1161,50.0743,319.5067],[6.122,50.0813,300.4883],[6.1198,50.0857,298.3818],[6.1197,50.0904,298.7107],[6.1229,50.0937,298.6325],[6.1306,50.0923,317.6081],[6.133,50.0932,326.7882],[6.1326,50.0948,324.2482],[6.1283,50.0955,309.3667],[6.1255,50.1005,328.6297],[6.1279,50.1024,317.3337],[6.1355,50.1034,338.1671],[6.1309,50.1075,341.6319],[6.135,50.1133,326.0484],[6.1294,50.1143,318.7001],[6.1281,50.1162,336.55],[6.1296,50.1216,336.1185],[6.1368,50.1246,337.9465],[6.1386,50.1324,321.4031],[6.1384,50.1341,322.1884],[6.1299,50.1338,398.827],[6.1223,50.1359,379.0387]]]]}
,"properties": {"GID_3": "LUX.1.1.3_1","GID_0": "LUX","country": "Luxembourg","GID_1": "LUX.1_1","province": "Diekirch","NL_NAME_1": "NA","GID_2": "LUX.1.1_1","county": "Clervaux","NL_NAME_2": "NA","city": "Heinerscheid","VARNAME_3": "NA","NL_NAME_3": "NA","TYPE_3": "Commune","ENGTYPE_3": "Commune","CC_3": "NA","HASC_3": "NA","name": "Heinerscheid.city","area_km2": 33.28266,"hist_schema_id": "Elevation0-9000","hist_area_km2": {"300": 0.51698,"325": 0.77519,"350": 1.06103,"375": 1.41451,"400": 1.74085,"425": 2.88338,"450": 3.95731,"475": 6.16145,"500": 9.27683,"525": 5.49513}}}