{"type": "Feature","bbox": [5.9677,49.8169,6.0364,49.8578],"geometry": {"type": "MultiPolygon","coordinates": [[[[6.0364,49.8335,383.4212],[6.0304,49.8383,371.5452],[6.0222,49.8421,315.1156],[6.0139,49.8502,340.1077],[5.9918,49.8578,417.9271],[5.9835,49.8515,357.3898],[5.9747,49.8492,406.2632],[5.9717,49.847,397.1125],[5.9709,49.8445,416.187],[5.9744,49.8367,385.743],[5.9745,49.8288,366.4991],[5.973,49.8248,336.4149],[5.9677,49.8197,334.1381],[5.98,49.8169,369.4647],[6.0123,49.8266,385.2414],[6.0276,49.8248,370.515],[6.0334,49.8268,382.3243],[6.0364,49.8335,383.4212]]]]}
,"properties": {"GID_3": "LUX.1.2.10_1","GID_0": "LUX","country": "Luxembourg","GID_1": "LUX.1_1","province": "Diekirch","NL_NAME_1": "NA","GID_2": "LUX.1.2_1","county": "Diekirch","NL_NAME_2": "NA","city": "Mertzig","VARNAME_3": "NA","NL_NAME_3": "NA","TYPE_3": "Commune","ENGTYPE_3": "Commune","CC_3": "NA","HASC_3": "NA","name": "Mertzig.city","area_km2": 13.15517,"hist_schema_id": "Elevation0-9000","hist_area_km2": {"300": 0.54697,"325": 3.74719,"350": 3.15889,"375": 3.0768,"400": 2.17414,"425": 0.45118}}}