{"type":"Feature","properties":{"GID_3":"LUX.1.2.11_1","GID_0":"LUX","country":"Luxembourg","GID_1":"LUX.1_1","province":"Diekirch","NL_NAME_1":"NA","GID_2":"LUX.1.2_1","county":"Diekirch","NL_NAME_2":"NA","city":"Reisdorf","VARNAME_3":"NA","NL_NAME_3":"NA","TYPE_3":"Commune","ENGTYPE_3":"Commune","CC_3":"NA","HASC_3":"NA","name":"Reisdorf.city"},
"geometry":{"type": "MultiPolygon","coordinates": [[[[6.2451,49.8956,188.8216],[6.2375,49.8978,191.9202],[6.2348,49.896,257.0104],[6.2366,49.896,236.6531],[6.2369,49.8924,298.0845],[6.239,49.8924,293.4648],[6.2392,49.8892,320.3532],[6.2488,49.882,352.4253],[6.2535,49.8753,313.5922],[6.2561,49.8649,186.5227],[6.2544,49.8603,281.5472],[6.2561,49.8549,293.3381],[6.2694,49.8525,358.7757],[6.2741,49.8496,404.3478],[6.2762,49.8463,405.1269],[6.2863,49.8443,379.4784],[6.3088,49.8439,352.7404],[6.3132,49.846,289.8021],[6.3158,49.8511,247.1117],[6.3171,49.8469,228.8773],[6.3115,49.8429,356.3408],[6.3123,49.8355,338.0979],[6.3269,49.8362,173.5438],[6.3201,49.8403,221.5106],[6.3227,49.8514,198.3429],[6.3145,49.8597,179.6978],[6.3143,49.866,210.2695],[6.311,49.8699,183.4772],[6.2965,49.8665,202.4638],[6.2924,49.8702,189.5534],[6.2915,49.8746,180.034],[6.2866,49.8751,180.0],[6.282,49.8788,200.3946],[6.2735,49.877,213.0307],[6.2621,49.8809,189.7615],[6.2564,49.8874,186.0921],[6.2505,49.8905,186.3416],[6.2451,49.8956,188.8216]]]]}}