{"type": "Feature","bbox": [6.0506,49.4976,6.1279,49.5556],"geometry": {"type": "MultiPolygon","coordinates": [[[[6.1252,49.4984,298.0306],[6.1257,49.5066,290.0978],[6.1279,49.5121,310.3969],[6.1229,49.518,270.9069],[6.1208,49.5237,267.0963],[6.1005,49.5391,289.4003],[6.0934,49.5492,298.9068],[6.0857,49.5556,306.0444],[6.072,49.5476,331.209],[6.0642,49.5356,316.1411],[6.0539,49.5249,282.8392],[6.0506,49.5135,273.8489],[6.0597,49.5055,275.5152],[6.0617,49.4976,289.2812],[6.0761,49.5044,289.1123],[6.0822,49.5051,289.5527],[6.1068,49.5042,283.0915],[6.1175,49.4993,287.9598],[6.1252,49.4984,298.0306]]]]}
,"properties": {"GID_3": "LUX.3.2.1_1","GID_0": "LUX","country": "Luxembourg","GID_1": "LUX.3_1","province": "Luxembourg","NL_NAME_1": "NA","GID_2": "LUX.3.2_1","county": "Esch-sur-Alzette","NL_NAME_2": "NA","city": "Bettembourg","VARNAME_3": "NA","NL_NAME_3": "NA","TYPE_3": "Commune","ENGTYPE_3": "Commune","CC_3": "NA","HASC_3": "NA","name": "Bettembourg.city","area_km2": 20.86533,"hist_schema_id": "Elevation0-9000","hist_area_km2": {"275": 10.68155,"300": 7.18456,"325": 2.4214,"350": 0.57781}}}