{"type": "Feature","bbox": [6.0477,49.4529,6.1292,49.505],"geometry": {"type": "MultiPolygon","coordinates": [[[[6.1007999999999996,49.4529,416.2518],[6.1,49.4668,424.9231],[6.1075,49.4715,290.71],[6.1222,49.4745,295.1143],[6.1292,49.4903,305.2784],[6.1252,49.4984,298.0306],[6.1175,49.4993,287.9598],[6.1068,49.5042,283.0915],[6.079,49.505,289.3919],[6.0571,49.4943,312.3149],[6.0529,49.489,327.0932],[6.0477,49.468,375.0768],[6.0515,49.4594,408.3732],[6.0563,49.4654,435.364],[6.0719,49.465,420.7762],[6.0863,49.4558,338.7457],[6.1007999999999996,49.4529,416.2518]]]]}
,"properties": {"GID_3": "LUX.3.2.3_1","GID_0": "LUX","country": "Luxembourg","GID_1": "LUX.3_1","province": "Luxembourg","NL_NAME_1": "NA","GID_2": "LUX.3.2_1","county": "Esch-sur-Alzette","NL_NAME_2": "NA","city": "Dudelange","VARNAME_3": "NA","NL_NAME_3": "NA","TYPE_3": "Commune","ENGTYPE_3": "Commune","CC_3": "NA","HASC_3": "NA","name": "Dudelange.city","area_km2": 22.23241,"hist_schema_id": "Elevation0-9000","hist_area_km2": {"275": 3.84222,"300": 8.15389,"325": 3.12701,"350": 2.16305,"375": 2.10791,"400": 1.52924,"425": 0.96459,"450": 0.34449}}}