{"type":"Feature","properties":{"GID_3":"LUX.3.4.10_1","GID_0":"LUX","country":"Luxembourg","GID_1":"LUX.3_1","province":"Luxembourg","NL_NAME_1":"NA","GID_2":"LUX.3.4_1","county":"Mersch","NL_NAME_2":"NA","city":"Nommern","VARNAME_3":"NA","NL_NAME_3":"NA","TYPE_3":"Commune","ENGTYPE_3":"Commune","CC_3":"NA","HASC_3":"NA","name":"Nommern.city"},
"geometry":{"type": "MultiPolygon","coordinates": [[[[6.1086,49.8106,207.1648],[6.1119,49.8061,211.8038],[6.106,49.8,268.2724],[6.1068,49.7969,264.7362],[6.1338,49.7919,273.2392],[6.1439,49.7856,297.2988],[6.1568,49.7808,342.7213],[6.1605,49.7776,384.5639],[6.171,49.7853,301.5284],[6.1855,49.7891,417.3459],[6.1888,49.792,391.9953],[6.1916,49.798,424.6122],[6.1987,49.802,395.5368],[6.1909,49.812,321.4518],[6.1915,49.8234,327.1833],[6.1867,49.8244,342.9007],[6.1744,49.821,352.3894],[6.1501,49.826,351.3912],[6.1445,49.8239,338.2368],[6.1333,49.8228,350.1342],[6.123,49.8145,315.2217],[6.1086,49.8106,207.1648]]]]}}