{"type":"Feature","properties":{"GID_3":"LUX.3.4.6_1","GID_0":"LUX","country":"Luxembourg","GID_1":"LUX.3_1","province":"Luxembourg","NL_NAME_1":"NA","GID_2":"LUX.3.4_1","county":"Mersch","NL_NAME_2":"NA","city":"Larochette","VARNAME_3":"NA","NL_NAME_3":"NA","TYPE_3":"Commune","ENGTYPE_3":"Commune","CC_3":"NA","HASC_3":"NA","name":"Larochette.city"},
"geometry":{"type": "MultiPolygon","coordinates": [[[[6.1987,49.802,395.5368],[6.1916,49.798,424.6122],[6.1888,49.792,391.9953],[6.1855,49.7891,417.3459],[6.171,49.7853,301.5284],[6.1605,49.7776,384.5639],[6.1847,49.7621,400.5382],[6.225,49.7577,344.6967],[6.2327,49.7665,309.7573],[6.2299,49.7735,329.7811],[6.2299,49.7775,341.5602],[6.2328,49.7814,342.9336],[6.2383,49.7849,342.5392],[6.238,49.7929,389.3424],[6.2315,49.7961,368.7872],[6.2182,49.7938,283.9999],[6.2105,49.7945,354.0698],[6.1987,49.802,395.5368]]]]}}