{"type":"Feature","properties":{"GID_3":"LUX.2.3.3_1","GID_0":"LUX","country":"Luxembourg","GID_1":"LUX.2_1","province":"Grevenmacher","NL_NAME_1":"NA","GID_2":"LUX.2.3_1","county":"Remich","NL_NAME_2":"NA","city":"Dalheim","VARNAME_3":"NA","NL_NAME_3":"NA","TYPE_3":"Commune","ENGTYPE_3":"Commune","CC_3":"NA","HASC_3":"NA","name":"Dalheim.city"},
"geometry":{"type": "MultiPolygon","coordinates": [[[[6.2435,49.512,246.7734],[6.2461,49.5186,272.8506],[6.268,49.5317,338.7714],[6.2777,49.5303,275.4432],[6.2891,49.5323,277.577],[6.3071,49.5318,194.9103],[6.3136,49.5289,199.2255],[6.3211,49.5222,293.0705],[6.327,49.5247,295.4055],[6.3303,49.5286,316.7719],[6.3188,49.5386,168.8767],[6.3052,49.5411,253.2903],[6.2977,49.546,240.476],[6.288,49.5435,311.4398],[6.2681,49.5452,281.9269],[6.2657,49.5479,303.6379],[6.265,49.557,317.9566],[6.2614,49.5655,371.1273],[6.2556,49.5736,311.6803],[6.2391,49.572,316.8593],[6.2296,49.57,264.2498],[6.2288,49.5606,297.1912],[6.2227,49.5536,325.0533],[6.2257,49.5399,287.3193],[6.2297,49.5364,277.7033],[6.2347,49.5229,265.5428],[6.2364,49.5085,254.3259],[6.2435,49.512,246.7734]]]]}}